Name,NAICS Code Description,NAICS Code,Address,City,County,State,Zip Code,Unique Identifier,Latitude,Longitude
18th Street Farmer's Market,Fruit and Vegetable Markets,445230,18th and Broadway, Scottsbluff,Scotts Bluff County,Nebraska,69361,22FMTS270050,41.864268,-103.66253
26th Annual Highlands Business Partnership's Farmers Market,Fruit and Vegetable Markets,445230,71 Waterwitch Avenue, Highlands,Monmouth County,New Jersey,7732,22FMTS269924,40.404837,-73.994358
Abingdon Farmers Market,Fruit and Vegetable Markets,445230,Corner of Remsburg Drive & Cummings St, Abingdon ,Washington County,Virginia,24210,22FMTS270060,36.708863,-81.97716
Adams-Ricci Farmers Market,Fruit and Vegetable Markets,445230,100 East Penn Drive, Enola,Cumberland County,Pennsylvania,17025,22FMTS270271,40.273997,-76.937407
Adaptations' Fresh Feast,Fruit and Vegetable Markets,445230,79-7500 Mamalahoa Highway, Kealakekua,Hawaii County,Hawaii,96750,22FMTS270034,19.525784,-155.92365
Airport Farmers and Flea Market,Fruit and Vegetable Markets,445230,17375 Spring Hill Dr, Brooksville,Hernando County,Florida,34604,22FMTS270026,28.481294,-82.441514
Alamosa Farmers Market,Fruit and Vegetable Markets,445230,Corner of 6th Street and State Avenue's Parking Lot, Alamosa,Alamosa County,Colorado,81101,22FMTS269976,37.467321,-105.865
Alexandria Bay Farmers Market,Fruit and Vegetable Markets,445230,Route 12, Alexandria Bay,Jefferson County,New York,13607,22FMTS269921,44.331171,-75.916118
Alexandria Farmers Market,Fruit and Vegetable Markets,445230,Broadway & Second Ave, Alexandria,Douglas County,Minnesota,56308,22FMTS270201,45.890762,-95.375902
Allen County Farmers' Market,Fruit and Vegetable Markets,445230,Jefferson, IOLA,Allen County,Kansas,66749,22FMTS270262,37.927427,-95.400669
Allen County Farmers' Market,Fruit and Vegetable Markets,445230,807  N. State, Iola,Allen County,Kansas,66749,22FMTS270263,37.927427,-95.400669
Ames Main Street Farmers' Market,Fruit and Vegetable Markets,445230,300 & 400 Blocks of  Main Street, Ames,Story County,Iowa,50010,22FMTS270083,42.025222,-93.614943
Anaconda Community Market,Fruit and Vegetable Markets,445230,Kennedy Common (306 Main), Anaconda,Deer Lodge County,Montana,59711,22FMTS270109,46.099059,-113.1391
Anacortes Farmers Market,Fruit and Vegetable Markets,445230,611 R Avenue, Anacortes,Skagit County,Washington,98221,22FMTS270006,48.516974,-122.60918
Andersonville Farmers Market,Fruit and Vegetable Markets,445230,1500 W. Catalpa Ave., Chicago,Cook County,Illinois,60640,22FMTS269969,41.981745,-87.668602
"Antigo Farmers Market, Inc.",Fruit and Vegetable Markets,445230,420 Field Street, Antigo,Langlade County,Wisconsin,54409,22FMTS270189,45.138703,-89.14985
Appleton Downtown Farm Market,Fruit and Vegetable Markets,445230,100 College Avenue, Appleton,Outagamie County,Wisconsin,54911,22FMTS269918,44.26201,-88.40703
Aquidneck Growers' Markets,Fruit and Vegetable Markets,445230,324 East Main Rd, Portsmouth,Newport County,Rhode Island,2871,22FMTS270251,41.546506,-71.261378
Ashland Farmers Market,Fruit and Vegetable Markets,445230,125 Front St, Ashland,Middlesex County,Massachusetts,1721,22FMTS270043,42.260027,-71.461538
ASU Regional Farmers' Market,Fruit and Vegetable Markets,445230,3300 Aggie Road, Jonesboro,Craighead County,Arkansas,72405,22FMTS269929,35.840771,-90.667327
Athens Farmers Market,Fruit and Vegetable Markets,445230,1002 East State Street, Athens,Athens County,Ohio,45701,22FMTS269993,39.336038,-82.056622
"Athens Farmers Market, L.L.C.",Fruit and Vegetable Markets,445230,271 W Hancock Ave, Athens,Clarke County,Georgia,30601,22FMTS270134,33.959088,-83.380247
"Athens Farmers Market, LLC",Fruit and Vegetable Markets,445230,705 Sunset Dr, Athens,Clarke County,Georgia,30606,22FMTS270133,33.9644564,-83.412131
Baldwin's Main St. Farmers Market,Fruit and Vegetable Markets,445230,Main St. and 6th Ave., Baldwin,St. Croix County,Wisconsin,54002,22FMTS270198,44.966999,-92.370763
Bangor Farmers' Market,Fruit and Vegetable Markets,445230,Corner of Franklin and Harlow Streets, Bangor,Penobscot County,Maine,4401,22FMTS270106,44.8039587,-68.771649
Barnegat Farmers Market,Fruit and Vegetable Markets,445230,14 Birdsall St., Barnegat,Ocean County,New Jersey,8005,22FMTS269937,39.753903,-74.221654
Basalt Sunday Market,Fruit and Vegetable Markets,445230,101 Midland Avenue, Basalt,Eagle County,Colorado,81621,22FMTS269967,39.368957,-107.03473
Bastrop 1832 Farmers Market,Fruit and Vegetable Markets,445230,1302 Chestnut Street, Bastrop,Bastrop County,Texas,78602,22FMTS269919,30.111777,-97.311627
Bay Area Farmers Market,Fruit and Vegetable Markets,445230,500 Baybrook Mall Drive, Friendswood,Harris County,Texas,77546,22FMTS270234,29.548702,-95.150682
Beaumont Farmers' Market,Fruit and Vegetable Markets,445230,,Beaumont,Jefferson County,Texas,77707,22FMTS270173,30.067686,-94.169203
Bedford Farmers Market,Fruit and Vegetable Markets,445230,209 Route 101, Bedford,Hillsborough County,New Hampshire,3110,22FMTS270276,42.938268,-71.525849
Belleville Farmer's Market,Fruit and Vegetable Markets,445230,1815 M St. , Belleville ,Republic County,Kansas,66935,22FMTS270096,39.822988,-97.630924
Belmont Farmers Market,Fruit and Vegetable Markets,445230,5429 State Route 19N, Belmont,Allegany County,New York,14813,22FMTS269948,42.234077,-78.053508
Bemidji's Natural Choice Farmers Market,Fruit and Vegetable Markets,445230,Union Square Parking Lot--2nd Street & Paul Bunyan Drive, Bemidji,Beltrami County,Minnesota,56601,22FMTS269933,47.469337,-94.880609
Benica Certified Farmers Market,Fruit and Vegetable Markets,445230,First Street between B & D Streets, Benicia,Solano County,California,94510,22FMTS269936,38.046215,-122.16118
Bethesda Central Farm Market,Fruit and Vegetable Markets,445230,7600 Arlington Road, Bethesda ,Montgomery County,Maryland,20814,22FMTS270056,38.986761,-77.09989
Bethlehem Farmers' Market,Fruit and Vegetable Markets,445230,Intersection of New and Morton Streets, Bethlehem,Northampton County,Pennsylvania,18015,22FMTS270115,40.6098058,-75.378402
Bloomfield Saturday Market,Fruit and Vegetable Markets,445230,5050 Liberty Ave, Pittsburgh,Allegheny County,Pennsylvania,15224,22FMTS270095,40.459005,-79.944435
BMI Farmers' Market,Fruit and Vegetable Markets,445230,1415 Key Highway, Baltimore,Baltimore city,Maryland,21230,22FMTS270135,39.273864,-76.601326
Bottineau Farmers Market,Fruit and Vegetable Markets,445230,6th Street and Main Street, Bottineau,Bottineau County,North Dakota,58318,22FMTS270152,48.8262788,-100.44594
Boulder Farmers and Artisan's Market,Fruit and Vegetable Markets,445230,304 N. Main Street, Boulder,Jefferson County,Montana,59632,22FMTS269935,46.239153,-112.11759
Bremerton Community Farmers Market,Fruit and Vegetable Markets,445230,1400 Park Ave, Bremerton,Kitsap County,Washington,98337,22FMTS270168,47.574253,-122.62886
Brooksville Farmers' Market,Fruit and Vegetable Markets,445230,15487 Citrus Way, Brooksville,Hernando County,Florida,34614,22FMTS270185,28.654639,-82.449304
Butte Farmers Market,Fruit and Vegetable Markets,445230,Uptown Butte, Butte,Silver Bow County,Montana,59701,22FMTS269934,46.01269,-112.5364
Caledonia Farmers Market Association - Danville,Fruit and Vegetable Markets,445230,, Danville,Caledonia County,Vermont,5873,22FMTS270144,44.411036,-72.140337
Caledonia Farmers Market Association - Winter,Fruit and Vegetable Markets,445230,Pearl St, St. Johnsbury,Caledonia County,Vermont,5819,22FMTS270145,44.417224,-72.016831
Canal Market District,Fruit and Vegetable Markets,445230,36 East Canal Street, Newark,Licking County,Ohio,43055,22FMTS270250,40.056586,-82.401032
Capital City Farmers Market,Fruit and Vegetable Markets,445230,126 West Loockerman Street (Loockerman Way Plaza), Dover,Kent County,Delaware,19904,22FMTS270097,39.1576541,-75.526229
Carrollton Farmers Market,Fruit and Vegetable Markets,445230,Carrollton Uptown Square, Carrollton,Carroll County,Missouri,64633,22FMTS270028,39.358097,-93.496941
Carver Farmers Market,Fruit and Vegetable Markets,445230,108 Main St., Carver,Plymouth County,Massachusetts,2330,22FMTS270107,41.888852,-70.769182
Catawba County Public Health Farmers Market,Fruit and Vegetable Markets,445230,3070 11th Ave Dr. SE, Hickory,Catawba County,North Carolina,28602,22FMTS270027,35.712066,-81.269507
Cedar Point Farmers Market,Fruit and Vegetable Markets,445230,1046 Cedar Point Blvd., Cedar Point,Carteret County,North Carolina,28584,22FMTS270267,34.68261,-77.083526
Celina's Friday Night Market,Fruit and Vegetable Markets,445230,142 N Ohio Street, Celina,Collin County,Texas,75009,22FMTS270172,33.3247511,-96.786984
Charles Town Farmers Market,Fruit and Vegetable Markets,445230,100 block of South Samuel Street, Charles Town,Jefferson County,West Virginia,25414,22FMTS270184,39.289073,-77.858454
Charlotte Regional Farmers Market,Fruit and Vegetable Markets,445230,1801 Yorkmont Road, Charlotte,Mecklenburg County,North Carolina,28217,22FMTS270092,35.1867102,-80.908718
Chatham Farmer's Market,Fruit and Vegetable Markets,445230,1652 Main Street Rte 28, Chatham,Barnstable County,Massachusetts,2633,22FMTS270005,41.676615,-69.962249
Chelsea Farmers' Market,Fruit and Vegetable Markets,445230,Corner of Rte 110 and Rte 113, Chelsea,Orange County,Vermont,5038,22FMTS269986,43.98878,-72.44747
Chesterfield County Farmers Market,Fruit and Vegetable Markets,445230,near 6701 Mimms Loop, Chesterfield,Chesterfield County,Virginia,23832,22FMTS270031,37.376728,-77.504419
Chippewa Falls Farmers Market,Fruit and Vegetable Markets,445230,1 S. Bridge Street, Chippewa Falls,Chippewa County,Wisconsin,54729,22FMTS270030,44.934888,-91.389337
City Center Farmers Market,Fruit and Vegetable Markets,445230,200 Sanborn Street, Florence,Florence County,South Carolina,29501,22FMTS270204,34.198789,-79.773582
City of Loveland Farmers Market,Fruit and Vegetable Markets,445230,700 S. Railroad, Loveland,Larimer County,Colorado,80537,22FMTS269979,40.387479,-105.07865
City of Pittsburgh Carrick Farmers Market,Fruit and Vegetable Markets,445230,1529 Brownsville Road, Pittsburgh ,Allegheny County,Pennsylvania,15210,22FMTS270131,40.400201,-79.988803
City of Plymouth Farmers Market,Fruit and Vegetable Markets,445230,15500 County Road 6, Plymouth,Hennepin County,Minnesota,55447,22FMTS269915,44.997274,-93.473419
City of White Bear Lake Farmer's Market,Fruit and Vegetable Markets,445230, between 2nd and 3rd Street, White Bear Lake,Ramsey County,Minnesota,55110,22FMTS270014,45.084125,-93.009953
Claremont Farmers & Artisans Market,Fruit and Vegetable Markets,445230,Harvard Avenue Between Bonita and First Streets, Claremont,Los Angeles County,California,91711,22FMTS269949,34.095598,-117.71641
Clarence Hollow Farmers' Market,Fruit and Vegetable Markets,445230, 10717 Main St. (route 5), Clarence,Erie County,New York,14031,22FMTS269922,42.98032,-78.58945
Clarkston Farmers Market,Fruit and Vegetable Markets,445230, Chestnut St, Clarkston ,Asotin County,Washington,99403,22FMTS270265,46.410563,-117.03992
Cleveland Park Farmers Market,Fruit and Vegetable Markets,445230,3400 Connecticut Ave NW,Washington city,District of Columbia,District of Columbia,20008,22FMTS270236,38.934817,-77.058379
Clinton Farmers Market,Fruit and Vegetable Markets,445230,20 West Park Row, Clinton,Oneida County,New York,13323,22FMTS270257,43.048866,-75.378462
CMS Farmers Market,Fruit and Vegetable Markets,445230,7500 Security Blvd., Woodlawn,Baltimore County,Maryland,21244,22FMTS269959,39.316055,-76.764414
Coastal Growers Market,Fruit and Vegetable Markets,445230,2325 Boston Neck Rd, Saunderstown,Washington County,Rhode Island,2874,22FMTS270255,41.512,-71.423632
Collinsville Farmers Market,Fruit and Vegetable Markets,445230,Main St. and Route 179, Collinsville,Hartford County,Connecticut,6019,22FMTS269932,41.810819,-72.923264
Colorado Farm and Art Market,Fruit and Vegetable Markets,445230,7350 Pine Creek Road, Colorado Springs,El Paso County,Colorado,80919,22FMTS269912,38.937716,-104.81468
Colorado Farm and Art Market,Fruit and Vegetable Markets,445230,215 S. Tejon, Colorado Springs,El Paso County,Colorado,80903,22FMTS270038,38.830543,-104.8223
Columbia Farmers Fresh Market,Fruit and Vegetable Markets,445230,5th Street & Riverside Drive, Columbia,Maury County,Tennessee,38401,22FMTS270141,35.6187845,-87.03048
Columbus KS Farmers Market,Fruit and Vegetable Markets,445230,202 N. East Avenue, Columbus,Cherokee County,Kansas,66725,22FMTS270210,37.171861,-94.831459
Conway Farmers Market,Fruit and Vegetable Markets,445230,1029 2nd Ave, Conway,Horry County,South Carolina,29526,22FMTS270102,33.833331,-79.044831
Co-Operative Farmers Market,Fruit and Vegetable Markets,445230,900 Barring Avenue, Scranton,Lackawanna County,Pennsylvania,18508,22FMTS270229,41.422523,-75.662496
Cottin's Hardware Farmers Market,Fruit and Vegetable Markets,445230,1832 Massachusetts Street, Lawrence,Douglas County,Kansas,66044,22FMTS269981,38.950747,-95.235146
Cotton Mill Farmers Market,Fruit and Vegetable Markets,445230,609 Dixie Street, Carrollton,Carroll County,Georgia,30117,22FMTS270143,33.571347,-85.07274
Cozad Grand Generation Center,Fruit and Vegetable Markets,445230,410 W 9th St., Cozad ,Dawson County,Nebraska,69130,22FMTS270049,40.8606228,-99.990115
Croghan Colonial Bank Farmers Market,Fruit and Vegetable Markets,445230,Front Street and Garrison Street, Fremont,Sandusky County,Ohio,43420,22FMTS269951,41.345408,-83.113549
Crystal Lake Farmers Market,Fruit and Vegetable Markets,445230, Woodstock & Williams Streets,Crystal Lake,McHenry County,Illinois,60014,22FMTS269942,42.243752,-88.31701
Davenport Farmers' Market,Fruit and Vegetable Markets,445230,North Park Mall east entrance, Davenport,Scott County,Iowa,52806,22FMTS270139,41.562863,-90.571154
DeKalb Farmers' Market,Fruit and Vegetable Markets,445230,2nd and Locust Streets, DeKalb,DeKalb County,Illinois,60115,22FMTS270079,41.931127,-88.752032
Delcambre Seafood & Farmers Market,Fruit and Vegetable Markets,445230,605 S Railroad (Hwy 330), Delcambre ,Iberia Parish,Louisiana,70528,22FMTS270154,29.941659,-91.982453
Dexter Farmers Market,Fruit and Vegetable Markets,445230,3233 Alpine, Dexter,Washtenaw County,Michigan,48130,22FMTS269971,42.339503,-83.889459
Dodge County Farmer's Market,Fruit and Vegetable Markets,445230,5401 Courthouse Circle, Eastman,Dodge County,Georgia,31023,22FMTS270179,32.20079,-83.176305
Dousman Farmers Market,Fruit and Vegetable Markets,445230,118 S. Main St, Dousman,Waukesha County,Wisconsin,53118,22FMTS269963,43.013121,-88.472514
Down to Earth Chelsea Farmers Market,Fruit and Vegetable Markets,445230,W. 23rd Street off 9th Avenue, New York,New York County,New York,10011,22FMTS270046,40.746359,-74.000805
Down to Earth Larchmont Farmers Market,Fruit and Vegetable Markets,445230,Parking Lot off Chatsworth Ave., Larchmont,Westchester County,New York,10538,22FMTS270071,40.933512,-73.760008
Down to Earth Mamaroneck Winter Farmers Market,Fruit and Vegetable Markets,445230,Harbor Island Park, Mamaroneck,Westchester County,New York,10543,22FMTS270127,40.944797,-73.730404
Down to Earth McGolrick Park Farmers Market,Fruit and Vegetable Markets,445230,At the center of the park, Brooklyn,Kings County,New York,11222,22FMTS270074,40.724358,-73.943291
Down to Earth Morningside Park Farmers Market,Fruit and Vegetable Markets,445230,110th Street and Manhattan Avenue, Manhattan,New York County,New York,10026,22FMTS270075,40.801254,-73.959645
Down to Earth New Rochelle Farmers Market,Fruit and Vegetable Markets,445230,Thomas Paine Cottage Museum, New Rochelle,Westchester County,New York,10804,22FMTS270072,40.93357,-73.791017
Down to Earth Ossining Farmers Market,Fruit and Vegetable Markets,445230,Near the corner of Spring & Main Streets, Ossining,Westchester County,New York,10562,22FMTS270126,41.160793,-73.86341
Down to Earth Park Slope Farmers Market,Fruit and Vegetable Markets,445230,4th Street at 5th Avenue, Park Slope,Kings County,New York,11215,22FMTS270047,40.672303,-73.983867
Down to Earth Queens Botanical Garden Farmers Market,Fruit and Vegetable Markets,445230,Dahlia Avenue at Main Street, Queens,Queens County,New York,11355,22FMTS270076,40.751776,-73.826548
Down to Earth Rye Farmers Market,Fruit and Vegetable Markets,445230,Parking lot off Theodore Fremd Ave., Rye,Westchester County,New York,10580,22FMTS270073,40.983895,-73.686043
Downtown Allen Park Farmers Market,Fruit and Vegetable Markets,445230,Park Avenue and Harrison Avenue, Allen Park,Wayne County,Michigan,48101,22FMTS270037,42.254801,-83.208989
Downtown Elgin Farmers Market,Fruit and Vegetable Markets,445230,S. Spring Ave, Elgin ,Kane County,Illinois,60120,22FMTS270224,42.036328,-88.282543
Downtown Farmers Market,Fruit and Vegetable Markets,445230,on the court square at 4th Street and Maple Street, Murray ,Calloway County,Kentucky,42071,22FMTS270278,36.609868,-88.302435
Downtown Madison Farmers Market,Fruit and Vegetable Markets,445230,2103 Main Street / Historic Red Caboose Site, Madison ,Madison County,Mississippi,39110,22FMTS270041,32.460885,-90.114634
Downtown Phoenix Farmers Market,Fruit and Vegetable Markets,445230,721 N Central Ave, Phoenix,Maricopa County,Arizona,85004,22FMTS270890,33.455875,-112.07341
Dubuque Farmers Market,Fruit and Vegetable Markets,445230,Iowa Street between 10th & 13th Streets, Dubuque,Dubuque County,Iowa,52001,22FMTS269994,42.504521,-90.667851
Durango Farmers Market,Fruit and Vegetable Markets,445230,259 W 9th Street, Durango,La Plata County,Colorado,81301,22FMTS270190,37.273063,-107.88275
Durham Farmers' Market,Fruit and Vegetable Markets,445230,501 Foster Street, Durham,Durham County,North Carolina,27701,22FMTS269916,36.000559,-78.901856
East Nashville Farmers' Market,Fruit and Vegetable Markets,445230,511 Woodland Street, Nashville,Davidson County,Tennessee,37206,22FMTS270080,36.172268,-86.764338
East Point Farmers Market,Fruit and Vegetable Markets,445230,2757 East Point St., East Point ,Fulton County,Georgia,30344,22FMTS270121,33.679488,-84.442141
East Side Farmers' Market,Fruit and Vegetable Markets,445230,760 E Water St Elmira, Elmira,Chemung County,New York,14901,22FMTS270200,42.088757,-76.794875
Easton Farmers' Market,Fruit and Vegetable Markets,445230,128 Larry Holmes Drive , Easton ,Northampton County,Pennsylvania,18042,22FMTS270044,40.689778,-75.206274
Edenton Farmers Market,Fruit and Vegetable Markets,445230,200 North Broad St, Edenton,Chowan County,North Carolina,27932,22FMTS270124,36.062086,-76.607401
Edmonds Museum Summer Market,Fruit and Vegetable Markets,445230,5th Ave between Main and Bell & Bell St. between 5th & 6th Ave, Edmonds,Snohomish County,Washington,98020,22FMTS270110,47.811264,-122.37678
Eldora Farmers Market,Fruit and Vegetable Markets,445230,Corner of Edgington Ave. and 14th Street, Eldora,Hardin County,Iowa,50627,22FMTS270120,42.36051,-93.100656
Empire Farmers Market,Fruit and Vegetable Markets,445230,10234 Front Street, Empire,Leelanau County,Michigan,49630,22FMTS269957,44.811224,-86.063056
Empire Market,Fruit and Vegetable Markets,445230,931 E 4th St, Joplin,Jasper County,Missouri,64801,22FMTS270223,37.087883,-94.502691
Espanola Farmers Market,Fruit and Vegetable Markets,445230,1105 N.Railroad  Avenue, Espanola,Rio Arriba County,New Mexico,87532,22FMTS270017,36.003598,-106.0658
Farm to Fork Farmers Market at Normandy Farms,Fruit and Vegetable Markets,445230,7802 Marsh Road, Indianapolis,Marion County,Indiana,46278,22FMTS270266,39.894467,-86.274997
Farmers' gateway Market,Fruit and Vegetable Markets,445230, 4000 Sunset Boulevard, Steubenville,Jefferson County,Ohio,43952,22FMTS270156,40.377613,-80.669759
Farmers Market of Bluffton,Fruit and Vegetable Markets,445230,40 Calhoun Street, Bluffton,Beaufort County,South Carolina,29910,22FMTS269990,32.234811,-80.862568
Farmers on the Square,Fruit and Vegetable Markets,445230,2A N Hanover St, Carlisle,Cumberland County,Pennsylvania,17013,22FMTS270282,40.201689,-77.189254
Fibonacci's Mount Healthy Farmers Market,Fruit and Vegetable Markets,445230,1445 Compton Road, Cincinnati,Hamilton County,Ohio,45231,22FMTS270241,39.23161,-84.54095
Forest farmers market,Fruit and Vegetable Markets,445230,15583 Forest Road, Forest,Bedford County,Virginia,24551,22FMTS269926,37.36437,-79.285443
Forest Lakes Farmers Market,Fruit and Vegetable Markets,445230,1650 Ashwood Blvd., Charlottesville,Albemarle County,Virginia,22911,22FMTS269958,38.1087,-78.44106
Frankenmuth Farmers Market,Fruit and Vegetable Markets,445230,534 North Main Street, Frankenmuth,Saginaw County,Michigan,48734,22FMTS269960,43.344313,-83.738212
Franklin County Farmers Market,Fruit and Vegetable Markets,445230,404 Wilkinson Blvd., Frankfort,Franklin County,Kentucky,40601,22FMTS270213,38.201613,-84.88021
FRESHFARM Ballston Market,Fruit and Vegetable Markets,445230,901 N Taylor St Arlington,,,Virginia,22203,22FMTS270891,,
FRESHFARM Dupont Market,Fruit and Vegetable Markets,445230,1624 20th St NW , Washington,District of Columbia,District of Columbia,20009,22FMTS270171,38.911806,-77.044967
FRESHFARM Penn Quarter,Fruit and Vegetable Markets,445230,801 F St NW Washington,,,District of Columbia,20004,22FMTS270903,,
Friendswood Farmers Market,Fruit and Vegetable Markets,445230,1100 S Friendswood Dr., Friendswood,Galveston County,Texas,77546,22FMTS270093,29.520767,-95.191302
Fulton County Farmers Market,Fruit and Vegetable Markets,445230,, Rochester,Fulton County,Indiana,46975,22FMTS270137,41.0647645,-86.215833
Gardner Farmers Market,Fruit and Vegetable Markets,445230,136 E Washington St, Gardner ,Johnson County,Kansas,66030,22FMTS270180,38.812999,-94.925777
"Gas City, IN Farmers Market",Fruit and Vegetable Markets,445230,1028 E Main Street, Gas City,Grant County,Indiana,46933,22FMTS270233,40.489812,-85.598506
Georgetown Farmers Market,Fruit and Vegetable Markets,445230,122 Screven St, Georgetown,Georgetown County,South Carolina,29440,22FMTS270104,33.3662089,-79.281782
Glen Arbor Farmers Market,Fruit and Vegetable Markets,445230,6394 Western Ave., Glen Arbor,Leelanau County,Michigan,49636,22FMTS269955,44.897978,-85.986905
GLENCOE,Fruit and Vegetable Markets,445230,201  W CHASTAIN BLVD. WEST, GLENCOE,Etowah County,Alabama,35905,22FMTS270002,33.957828,-85.934714
Glenwood Sunday Market,Fruit and Vegetable Markets,445230,, Chicago,Cook County,Illinois,60608,22FMTS270225,41.837551,-87.681844
Goodhue Farmers Market,Fruit and Vegetable Markets,445230,411 Rosie Park Way, Goodhue ,Goodhue County,Minnesota,55027,22FMTS270264,44.403334,-92.624672
Grandin Village Farmers Market,Fruit and Vegetable Markets,445230,2080 Westover Ave SW, Roanoke,Roanoke city,Virginia,24015,22FMTS270132,37.265053,-79.978064
"Great Falls Farmers Market, Turners Falls",Fruit and Vegetable Markets,445230,Peskeomskut Park, Turners Falls,Franklin County,Massachusetts,1376,22FMTS270042,42.606069,-72.559612
Green Scene Walker Community Farmer's Market,Fruit and Vegetable Markets,445230,617 Michigan Avenue, Walker,Cass County,Minnesota,56484,22FMTS270021,47.100539,-94.584857
Greenbelt Farmers Market,Fruit and Vegetable Markets,445230,25 Crescent Road, Greenbelt,Prince George's County,Maryland,20770,22FMTS270246,39.001146,-76.877296
Guttenberg Farmers Market,Fruit and Vegetable Markets,445230,400 Block of South River Park Drive, Guttenberg,Clayton County,Iowa,52052,22FMTS270169,42.782433,-91.095446
Halifax Market Place & Farmers Market,Fruit and Vegetable Markets,445230,209 South Main Street, Halifax,Halifax County,Virginia,24558,22FMTS269941,36.76317,-78.92836
Hammond's Grandson's Produce,Fruit and Vegetable Markets,445230,7165 Ramsey Street, Fayetteville ,Cumberland County,North Carolina,28311,22FMTS270177,35.1865196,-78.853162
Hanalei Farmers' Market at Hale Halawai 'Ohana O Hanalei,Fruit and Vegetable Markets,445230,55299C Kuhio Hwy , Hanalei,Kauai County,Hawaii,96722,22FMTS270013,22.201731,-159.4992
Haymaker Farmers' Market,Fruit and Vegetable Markets,445230,Franklin Avenue & Summit Street, Kent,Portage County,Ohio,44240,22FMTS270147,41.150692,-81.360033
Helen Albert Certified Farmers' Market,Fruit and Vegetable Markets,445230,1200 N. Vista St., West Hollywood,Los Angeles County,California,90046,22FMTS270240,34.094113,-118.35143
Hereford Farm Market,Fruit and Vegetable Markets,445230,17004 York Rd , Parkton,Baltimore County,Maryland,21030,22FMTS270244,39.4668834,-76.644722
Hernando Farmers Market,Fruit and Vegetable Markets,445230,2535 Highway 51 South, Hernando,DeSoto County,Mississippi,38632,22FMTS270010,34.823026,-89.994281
Hinsdale Farmers Market,Fruit and Vegetable Markets,445230,30 E. Chicago Ave., Hinsdale,DuPage County,Illinois,60521,22FMTS269991,41.8036543,-87.928694
Historic Downtown Farmers Market,Fruit and Vegetable Markets,445230,121 Orange Street, Hot Springs,Garland County,Arkansas,71901,22FMTS270218,34.504886,-93.050943
Historic Farmers Market of Lapeer LLC,Fruit and Vegetable Markets,445230,272 N. Court St. , Lapeer ,Lapeer County,Michigan,48446,22FMTS270070,43.053482,-83.309076
Historic Lewes Farmers Market,Fruit and Vegetable Markets,445230,,,,,,22FMTS270908,,
Holly Springs Farmers Market,Fruit and Vegetable Markets,445230,300 West Ballentine Street, Holly Springs,Wake County,North Carolina,27540,22FMTS270183,35.650573,-78.83619
Homer Farmers Market,Fruit and Vegetable Markets,445230,Ocean Drive, Homer,Kenai Peninsula Borough,Alaska,99603,22FMTS270024,59.638109,-151.51234
Homewood Farmers Market,Fruit and Vegetable Markets,445230,Martin Ave and Chestnut Rd, Homewood,Cook County,Illinois,60430,22FMTS270039,41.562264,-87.666231
Hoodland Farmers Market,Fruit and Vegetable Markets,445230,67212 E. HWY 26, Welches ,Clackamas County,Oregon,97067,22FMTS270254,45.349594,-121.96091
Hopkinton Farmers Market,Fruit and Vegetable Markets,445230,Main Street and Ash Street, Hopkinton,Middlesex County,Massachusetts,1748,22FMTS270029,42.229299,-71.51777
Huguenot-Robious Farmers Market,Fruit and Vegetable Markets,445230,2051 Huguenot Road, Richmond,Chesterfield County,Virginia,23235,22FMTS270138,37.519516,-77.610398
Hunterdon Land Trust Farmers Market,Fruit and Vegetable Markets,445230,111 Mine Street, Flemington,Hunterdon County,New Jersey,8822,22FMTS270197,40.505223,-74.871267
Huntingdon Farmers' Market,Fruit and Vegetable Markets,445230,842 Penn Street, Huntingdon,Huntingdon County,Pennsylvania,16652,22FMTS270062,40.485653,-78.01723
Ida Area Farmers' Market,Fruit and Vegetable Markets,445230,2nd Street, Ida Grove,Ida County,Iowa,51445,22FMTS270118,42.345173,-95.470874
Idaho Falls Farmers' Market,Fruit and Vegetable Markets,445230,A - D St. Memorial Drive, Idaho Falls,Bonneville County,Idaho,83402,22FMTS270012,43.494592,-112.0425
Imlay City Farmers Market,Fruit and Vegetable Markets,445230,120 N Main, Imlay City,Lapeer County,Michigan,48444,22FMTS269992,43.02429,-83.074322
Indian Lake Community Farmers Market,Fruit and Vegetable Markets,445230,144 JOHN RUST RD, INDIAN LAKE,Hamilton County,New York,12842,22FMTS270175,43.782397,-74.270529
Indiana County Farmers Market,Fruit and Vegetable Markets,445230,8th & Church St.,Indiana borough,Indiana County,Indiana,15701,22FMTS270281,40.621852,-79.155021
Ionia Farmers' Market,Fruit and Vegetable Markets,445230,South Steele Street and Adams Street, Ionia,Ionia County,Michigan,48846,22FMTS269982,42.9814841,-85.067726
iowa falls farmers' market,Fruit and Vegetable Markets,445230,Corner of Rocksylvania Ave. anb Stevens St., Iowa Falls,Hardin County,Iowa,50126,22FMTS270119,42.521222,-93.264356
Ithaca Farmers Market,Fruit and Vegetable Markets,445230,Center & Pine River Street, Ithaca,Gratiot County,Michigan,48847,22FMTS269938,43.292319,-84.598559
"Janesville Farmers Market, Inc.",Fruit and Vegetable Markets,445230,Town Square, Janesville ,Rock County,Wisconsin,53545,22FMTS270048,42.681669,-89.023298
King Farmers' Market,Fruit and Vegetable Markets,445230,105 Moore Road, King ,Stokes County,North Carolina,27021,22FMTS270064,36.276367,-80.341178
King George Farmers Market,Fruit and Vegetable Markets,445230,King George Middle School at 8246 Dahlgren Rd,  King George,King George County,Virginia,22485,22FMTS270203,38.27678,-77.2028
Kittery Community Market,Fruit and Vegetable Markets,445230,10 Shapleigh Road, Kittery ,York County,Maine,3904,22FMTS270081,43.090021,-70.736542
Lake Oswego Farmers' Market,Fruit and Vegetable Markets,445230, 200 First Street, Lake Oswego,Clackamas County,Oregon,97034,22FMTS269974,45.417855,-122.66477
Lakes Area Growers Market,Fruit and Vegetable Markets,445230,1001 Kingwood ST, Brainerd,Crow Wing County,Minnesota,56401,22FMTS270273,46.358912,-94.193437
Lakes Area Growers Market,Fruit and Vegetable Markets,445230,7915 MN-210 , Baxter ,Crow Wing County,Minnesota,56425,22FMTS270274,46.352551,-94.235284
Lakewood Earth and Food (LEAF) Community Farmers' Market,Fruit and Vegetable Markets,445230,15425 Detroit, Lakewood,Cuyahoga County,Ohio,44107,22FMTS269952,41.484539,-81.804266
Lancaster Farmers Market,Fruit and Vegetable Markets,445230,West Chestnut Street, Lancaster,Fairfield County,Ohio,43130,22FMTS270275,39.712631,-82.603853
Landon's Greenhouse Farmers Market,Fruit and Vegetable Markets,445230,505 College Meadows Drive, Sheridan,Sheridan County,Wyoming,82801,22FMTS270222,44.760524,-106.94832
Lansdale Farmers' Market,Fruit and Vegetable Markets,445230,400 Penn Street, Lansdale,Montgomery County,Pennsylvania,19446,22FMTS270239,40.234201,-75.277496
Lawrence Farmers Market,Fruit and Vegetable Markets,445230,, Lawrence ,Van Buren County,Michigan,49064,22FMTS270181,42.219637,-86.048868
Lebanon Farmers Market,Fruit and Vegetable Markets,445230,579 Exeter Road, Lebanon,New London County,Connecticut,6249,22FMTS270136,41.635781,-72.212877
Legion Park Farmers Market,Fruit and Vegetable Markets,445230,6601 Biscayne Blvd, Miami,Miami-Dade County,Florida,33138,22FMTS270016,25.836451,-80.183684
Leland Farmers Market,Fruit and Vegetable Markets,445230,River Street, Leland,Leelanau County,Michigan,49654,22FMTS269956,45.022857,-85.759459
Lewiston Farmers Market,Fruit and Vegetable Markets,445230,65 Main St., Lewiston,Androscoggin County,Maine,4240,22FMTS270249,44.096575,-70.220379
Lincoln Heights Certified Farmers Market,Fruit and Vegetable Markets,445230,N. Broadway & Sichel, Los Angeles,Los Angeles County,California,90031,22FMTS270087,34.07348,-118.21309
Lincoln Park Farmers Market,Fruit and Vegetable Markets,445230,SW Corner Fort Street & Southfield Road, Lincoln Park,Wayne County,Michigan,48146,22FMTS270214,42.249843,-83.177664
Little River Farmers Market,Fruit and Vegetable Markets,445230,4461 Mineola Ave, Little River,Horry County,South Carolina,29566,22FMTS270101,33.880648,-78.640489
Livonia Wilson Barn Farmers Market,Fruit and Vegetable Markets,445230,29350 W. Chicago, Livonia,Wayne County,Michigan,48150,22FMTS270155,42.362596,-83.331995
Los Ranchos Growers' Market,Fruit and Vegetable Markets,445230, 6718 Rio Grande Blvd. NW, Los Ranchos,Bernalillo County,New Mexico,87107,22FMTS269997,35.158683,-106.65491
Louisiana Community Betterment Farmer's Market,Fruit and Vegetable Markets,445230, Georgia Street, Louisiana ,Pike County,Missouri,63353,22FMTS270186,39.441188,-91.062659
Loveland Farmers Market,Fruit and Vegetable Markets,445230,205 Broadway Street, Loveland,Clermont County,Ohio,45140,22FMTS269920,39.266388,-84.259924
Lower Valley Farmers Market,Fruit and Vegetable Markets,445230,Main street, Wallowa,Wallowa County,Oregon,97885,22FMTS270086,45.570355,-117.52864
Low-Line Market at Southport,Fruit and Vegetable Markets,445230,3410 N Southport Ave, Chicago,Cook County,Illinois,60657,22FMTS270129,41.943816,-87.664233
LSI Global Greens Farmers' Market,Fruit and Vegetable Markets,445230,3200 University Ave, Des Moines,Polk County,Iowa,50311,22FMTS270094,41.599698,-93.660454
Mableton Farmers Market,Fruit and Vegetable Markets,445230,5239 Floyd Road, Mableton,Cobb County,Georgia,30126,22FMTS270090,33.826085,-84.575384
Main Street Dyersburg Farmers Market,Fruit and Vegetable Markets,445230,335 Clark Ave. South, Dyersburg,Dyer County,Tennessee,38024,22FMTS270153,36.030081,-89.389549
Main Street Farmers Market,Fruit and Vegetable Markets,445230,South Main at Wheeling, Washington,Washington County,Pennsylvania,15301,22FMTS270000,40.169,-80.245
Main Street Farmers Market,Fruit and Vegetable Markets,445230,401 Main Street, Placerville,El Dorado County,California,95667,22FMTS270020,38.730544,-120.79696
Main Street Farmers Market,Fruit and Vegetable Markets,445230,1030 Main Street, Honesdale,Wayne County,Pennsylvania,18431,22FMTS270237,41.57517,-75.257553
Main Street Wadsworth Farmers Market,Fruit and Vegetable Markets,445230,151 Main Street, Wadsworth,Medina County,Ohio,44281,22FMTS270238,41.028681,-81.732318
MainStreet Libertyville Farmers Market,Fruit and Vegetable Markets,445230,413 N Milwaukee Ave, Liberytville ,Lake County,Illinois,60048,22FMTS270230,42.287242,-87.954744
Manson Farmers Market,Fruit and Vegetable Markets,445230,, Manson ,Calhoun County,Iowa,50563,22FMTS270148,42.527104,-94.539507
Manzanita Farmers Market,Fruit and Vegetable Markets,445230,36465 N Hwy 101, Nehalem ,Tillamook County,Oregon,97131,22FMTS269996,45.719007,-123.89424
Maple Valley Farmers' Market,Fruit and Vegetable Markets,445230,25719 Maple Valley Black Diamond Road, Maple Valley,King County,Washington,98038,22FMTS270128,47.367729,-122.02336
Market Common Farmers Market,Fruit and Vegetable Markets,445230,Deville St, Myrtle Beach ,Horry County,South Carolina,29577,22FMTS270103,33.6699343,-78.939009
Market in The Park,Fruit and Vegetable Markets,445230,300 Conti, Mobile,Mobile County,Alabama,36602,22FMTS269913,30.69035,-88.045015
Market in The Park - Lavretta Park,Fruit and Vegetable Markets,445230,200 Parkway Street West, Mobile,Mobile County,Alabama,36606,22FMTS269923,30.691614,-88.160082
Market Mondays at the Arsht Center,Fruit and Vegetable Markets,445230,1301 Biscayne Blvd, Miami,Miami-Dade County,Florida,33132,22FMTS270207,25.787138,-80.189855
Market on Main,Fruit and Vegetable Markets,445230,Ford Center Plaza 6th and Main St, Evansville,Vanderburgh County,Indiana,47708,22FMTS270247,37.972884,-87.568349
Market Square Farmers' Market,Fruit and Vegetable Markets,445230,500 Howard Baker Jr Ave, Knoxville,Knox County,Tennessee,37915,22FMTS270208,35.965659,-83.910506
Marlette Farmers Market,Fruit and Vegetable Markets,445230,3048 Main Street, Marlette,Sanilac County,Michigan,48453,22FMTS270268,43.327346,-83.080532
Marshfield Farmer's Market,Fruit and Vegetable Markets,445230,140 Main St  (Route 3A), Marshfield,Plymouth County,Massachusetts,2050,22FMTS269962,42.098148,-70.717317
Maryville Farmers Market - Saturdays,Fruit and Vegetable Markets,445230,Founders Square, Maryville,Blount County,Tennessee,37804,22FMTS270082,35.756987,-83.969504
Matthys Farm Market,Fruit and Vegetable Markets,445230,57754 Crumstown Hwy, South Bend,St. Joseph County,Indiana,46619,22FMTS269966,41.65516,-86.35873
Medina Square Farmers Market,Fruit and Vegetable Markets,445230,39 public square, Medina,Medina County,Ohio,44256,22FMTS270280,41.134636,-81.869513
Menlo Park Farmers' Market,Fruit and Vegetable Markets,445230,Chestnut & Menlo Avenues, Menlo Park,San Mateo County,California,94025,22FMTS269961,37.450822,-122.1841
Menominee Historic Downtown Farmers Market  Association,Fruit and Vegetable Markets,445230,800 1st Street & 8th Avenue, Menominee,Menominee County,Michigan,49858,22FMTS270253,45.105926,-87.603938
Midland Area Farmers Market,Fruit and Vegetable Markets,445230,, Midland,Midland County,Michigan,48640,22FMTS270242,43.609016,-84.236727
Miles City Farmers Market,Fruit and Vegetable Markets,445230,500 Main St  Riverside Park, Miles City,Custer County,Montana,59301,22FMTS270004,46.408215,-105.84009
MILFORD - DOWNTOWN FARMERS MARKET,Fruit and Vegetable Markets,445230,108 West Main Street (Wasson Field), Milford,New Haven County,Connecticut,6460,22FMTS270018,41.226598,-73.062096
Millen Produce Market,Fruit and Vegetable Markets,445230,Cotton Avenue, Millen ,Jenkins County,Georgia,30442,22FMTS270059,32.802685,-81.936127
Minturn Market,Fruit and Vegetable Markets,445230,Historic Downtown Minturn, Minturn,Eagle County,Colorado,81645,22FMTS270007,39.58839,-106.4315
Monroe County Farmer's Market,Fruit and Vegetable Markets,445230,20 E. Willow St., Monroe,Monroe County,Michigan,48162,22FMTS270015,41.91965,-83.39378
Monroe Farmers Market,Fruit and Vegetable Markets,445230,10th St and 16th Ave, Monroe,Green County,Wisconsin,53566,22FMTS270113,42.601889,-89.639224
Montavilla Farmers Market,Fruit and Vegetable Markets,445230,7700 Block of SE Stark Street, Portland,Multnomah County,Oregon,97215,22FMTS270269,45.519002,-122.58431
MONTEVALLO FARMERS MARKET,Fruit and Vegetable Markets,445230,Middle Street and Island Street, MONTEVALLO,Shelby County,Alabama,35115,22FMTS269980,33.09948,-86.862926
Morgan County Farmers' Market Association,Fruit and Vegetable Markets,445230,Main St. & Indiana St., Martinsville ,Morgan County,Indiana,46151,22FMTS270149,39.423392,-86.428695
Morgan County Farmers' Market Association,Fruit and Vegetable Markets,445230,Monroe & Main St., Mooresville ,Morgan County,Indiana,46158,22FMTS270150,39.612806,-86.379609
Morganton Farmer's Market,Fruit and Vegetable Markets,445230,111 North Green Street, Morganton,Burke County,North Carolina,28655,22FMTS270116,35.7466269,-81.688488
Mosinee Farm Market,Fruit and Vegetable Markets,445230,1101 Main Street, City,Marathon County,Wisconsin,54455,22FMTS270001,44.797421,-89.708626
Mount Carroll Farmers Market,Fruit and Vegetable Markets,445230,116 E Market Street, Mount Carroll ,Carroll County,Illinois,61053,22FMTS269999,42.101295,-89.978008
Mount Pleasant Farmers Market,Fruit and Vegetable Markets,445230,645 Coleman Boulevard, Mount Pleasant,Charleston County,South Carolina,29464,22FMTS269985,32.790718,-79.8734
Mount Pleasant Farmers' Market,Fruit and Vegetable Markets,445230,3200 Mt. Pleasant St NW , Washington,District of Columbia,District of Columbia,20010,22FMTS270193,38.931518,-77.038675
Mulberry Market,Fruit and Vegetable Markets,445230,1155 College Street, Macon,Bibb County,Georgia,31201,22FMTS270054,32.833797,-83.646551
Muldoon Farmers Market,Fruit and Vegetable Markets,445230,1301 Muldoon Road, Anchorage,Anchorage Municipality,Alaska,99504,22FMTS270122,61.208991,-149.73118
Muncie Makers Market,Fruit and Vegetable Markets,445230, 2100 West White River Boulevard, Muncie,Delaware County,Indiana,47303,22FMTS270188,40.1883942,-85.410675
Murrysville Farmers' Market,Fruit and Vegetable Markets,445230,3235 Sardis Road, Murrysville,Westmoreland County,Pennsylvania,15668,22FMTS270279,40.430121,-79.696788
Napa Downtown Farmers Market,Fruit and Vegetable Markets,445230,1100 West Street, Napa,Napa County,California,94559,22FMTS270089,38.301189,-122.28513
Nash County Farmers Market in Rocky Mount,Fruit and Vegetable Markets,445230,1006 Peachtree St., Rocky Mount,Nash County,North Carolina,27804,22FMTS269964,35.955256,-77.802729
Newport Beach Certified Farmers' Market by Farmer Mark,Fruit and Vegetable Markets,445230,1 McFadden Place, Newport Beach ,Orange County,California,92663,22FMTS270212,33.607886,-117.92879
NORFOLK FARMERS MARKET,Fruit and Vegetable Markets,445230,19 Maple Avenue, Norfolk,Litchfield County,Connecticut,6058,22FMTS270063,41.990739,-73.197873
North Myrtle Beach Farmers Market,Fruit and Vegetable Markets,445230,925 First Avenue South, North Myrtle Beach,Horry County,South Carolina,29582,22FMTS269928,33.827655,-78.683173
North Prairie Farmers Market - Minot,Fruit and Vegetable Markets,445230,Corner of 3rd Ave SW and Broadway, Minot,Ward County,North Dakota,58701,22FMTS269987,48.233564,-101.29559
North Square Farmers Market,Fruit and Vegetable Markets,445230,100 Spring St, Chambersburg,Franklin County,Pennsylvania,17201,22FMTS270045,39.938459,-77.662435
Northbrook Farmers Market,Fruit and Vegetable Markets,445230,Cherry Lane and Meadow Road, Northbrook,Cook County,Illinois,60062,22FMTS269972,42.1314024,-87.828657
Northeast Minneapolis Farmers Market,Fruit and Vegetable Markets,445230,University Avenue NE and 7th Avenue NE , Minneapolis,Hennepin County,Minnesota,55413,22FMTS270019,44.995288,-93.262339
Northeast Washington (NEW) Farmers Market,Fruit and Vegetable Markets,445230,Corner of Main and Astor, Colville,Stevens County,Washington,99114,22FMTS270066,48.543279,-117.90522
Northport Farmers Market,Fruit and Vegetable Markets,445230,105 S. Bay Street, Northport,Leelanau County,Michigan,49670,22FMTS269953,45.129668,-85.614175
Northside Farmers Market,Fruit and Vegetable Markets,445230,4222 Hamilton Ave, Cincinnati ,Hamilton County,Ohio,45223,22FMTS270252,39.163947,-84.539984
Norwich Farmers Market,Fruit and Vegetable Markets,445230,2-75 North Broad Street, Norwich,Chenango County,New York,13815,22FMTS270194,42.531632,-75.523641
Nourish Knoxville's Winter Farmers' Market,Fruit and Vegetable Markets,445230,500 Howard Baker Jr Ave, Knoxville,Knox County,Tennessee,37915,22FMTS270221,35.96565,-83.910507
Oak Creek Farmers Market,Fruit and Vegetable Markets,445230,Drexel Town Square, Oak Creek ,Milwaukee County,Wisconsin,53154,22FMTS270260,42.899242,-87.917781
"Ocean City, NJ Farmers & Crafters Market",Fruit and Vegetable Markets,445230,6th Street & Asbury Avenue, Ocean City,Cape May County,New Jersey,8226,22FMTS270009,39.282143,-74.572082
OHSU Farmers Market,Fruit and Vegetable Markets,445230, 3181 SW Sam Jackson Park Rd, Portland,Multnomah County,Oregon,97239,22FMTS269930,45.499865,-122.6877
Olde Beaufort Farmers' Market,Fruit and Vegetable Markets,445230,300 Courthouse Square, Beaufort,Carteret County,North Carolina,28516,22FMTS270069,34.719572,-76.663201
Oneida Farmers Market,Fruit and Vegetable Markets,445230,N7332 Water Circle Place, Oneida,Outagamie County,Wisconsin,54155,22FMTS269927,44.503625,-88.202341
Onslow County Farmers Market,Fruit and Vegetable Markets,445230,4024 RIchlands Hwy, Jacksonville,Onslow County,North Carolina,28540,22FMTS270215,34.782418,-77.49326
Orange Community Farmers' Market,Fruit and Vegetable Markets,445230,525 Orange Center Road, Orange ,New Haven County,Connecticut,6477,22FMTS270178,41.2735586,-73.021058
Orange Park Farmer's & Arts Market,Fruit and Vegetable Markets,445230,2042 Park Ave, Orange Park,Clay County,Florida,32073,22FMTS270187,30.165484,-81.701664
Oxford Farmers Market,Fruit and Vegetable Markets,445230,Corner of Lanier and McClanahan Streets, Oxford,Granville County,North Carolina,27565,22FMTS269978,36.3148277,-78.586616
Oxnard Farmers Market,Fruit and Vegetable Markets,445230,500 South C Street, Oxnard,Ventura County,California,93030,22FMTS270123,34.19798,-119.18027
Palos Verdes Farmers Market,Fruit and Vegetable Markets,445230,27118 Silver Spur Road, Rolling Hills Estates ,Los Angeles County,California,90274,22FMTS270100,33.779336,-118.37372
Peacham Farmers Market,Fruit and Vegetable Markets,445230,555 Bayley Hazen Road, Peacham,Caledonia County,Vermont,5862,22FMTS270158,44.327445,-72.170037
Pennington Farmers Market,Fruit and Vegetable Markets,445230,101 Route 31 N, Pennington,Mercer County,New Jersey,8534,22FMTS270277,40.3494,-74.79688
Perry Lecompton Farmers Market,Fruit and Vegetable Markets,445230,2115 Ferguson Rd., Perry,Jefferson County,Kansas,66073,22FMTS270256,39.08143,-95.392324
Petersham Friday Market,Fruit and Vegetable Markets,445230,, Petersham,Worcester County,Massachusetts,1366,22FMTS270105,42.488744,-72.186669
Piedmont Triad Farmers Market,Fruit and Vegetable Markets,445230,2914 Sandy Ridge Road, Colfax,Guilford County,North Carolina,27409,22FMTS270022,36.087691,-79.992657
Pike Central Farm Market,Fruit and Vegetable Markets,445230,910 Rose Avenue, North Potomac,Montgomery County,Maryland,20852,22FMTS270057,39.049352,-77.117929
Pinecrest Farmers Market,Fruit and Vegetable Markets,445230,11000 S. Red Road, Pinecrest,Miami-Dade County,Florida,33156,22FMTS270065,25.669124,-80.285895
Plainfield Township Farmers Market Hale,Fruit and Vegetable Markets,445230,220 West Washington, Hale,Iosco County,Michigan,48739,22FMTS270217,44.380388,-83.804474
Plainwell Farmers Market,Fruit and Vegetable Markets,445230,554 Allegan St. , Plainwell ,Allegan County,Michigan,49080,22FMTS270112,42.452003,-85.650721
Plainwell Indoor Market,Fruit and Vegetable Markets,445230,211 N. Main St. , Plainwell,Allegan County,Michigan,49080,22FMTS270220,42.44491,-85.643297
Plymouth Farmers Market,Fruit and Vegetable Markets,445230,Garro St., Plymouth,Marshall County,Indiana,46563,22FMTS269984,41.34065,-86.307641
Portland Farmers Market - Kenton,Fruit and Vegetable Markets,445230,N McClellan & N Denver , Portland,Multnomah County,Oregon,97217,22FMTS270159,45.583224,-122.68679
Portland Farmers Market - King,Fruit and Vegetable Markets,445230,NE 7th and Wygant, Portland,Multnomah County,Oregon,97211,22FMTS270160,45.557097,-122.65898
Portland Farmers Market - Lents International,Fruit and Vegetable Markets,445230,SE 92nd and Reedway, Portland,Multnomah County,Oregon,97266,22FMTS270161,45.4813183,-122.56858
Portland Farmers Market - Portland State University,Fruit and Vegetable Markets,445230,SW Park and Montgomery, Portland ,Multnomah County,Oregon,97201,22FMTS270162,45.512348,-122.68483
Portland Farmers Market - Shemanski Park,Fruit and Vegetable Markets,445230,SW Park and Main, Portland ,Multnomah County,Oregon,97205,22FMTS270163,45.517125,-122.68223
Prairie Township Farmer's Market,Fruit and Vegetable Markets,445230,5955 W. Broad Street, Galloway,Franklin County,Ohio,43215,22FMTS270248,39.9695356,-83.009303
Putnam Farmers Market,Fruit and Vegetable Markets,445230,1 Valley Way, Hurricane,Putnam County,West Virginia,25526,22FMTS270091,38.441892,-81.99554
Puyallup Farmers' Market,Fruit and Vegetable Markets,445230,300  S Meridian (COVID operations at corner of  2nd and Main, Puyallup,Pierce County,Washington,98371,22FMTS269968,47.191241,-122.29243
Queen Anne Farmers Market,Fruit and Vegetable Markets,445230,W Crockett Street and Queen Anne Ave N, Seattle ,King County,Washington,98119,22FMTS270053,47.637172,-122.3576
Red Oak Farmers Market,Fruit and Vegetable Markets,445230,307 East Reed Street, Red Oak,Montgomery County,Iowa,51566,22FMTS269940,41.009641,-95.228044
Red Stick Farmers Market - Thursday Year Round,Fruit and Vegetable Markets,445230,6400 Perkins Road, Baton Rouge,East Baton Rouge Parish,Louisiana,70808,22FMTS269970,30.399197,-91.121067
Rensselaer Farmers Market,Fruit and Vegetable Markets,445230,110 W Harrison St., Rensselaer,Jasper County,Indiana,47978,22FMTS270035,40.9356403,-87.150106
Richmond Farmers Market - Summer Season (May-October),Fruit and Vegetable Markets,445230,47 N 6th St, Richmond,Wayne County,Indiana,47374,22FMTS270167,39.829996,-84.893377
Riverdale Park Farmers Market,Fruit and Vegetable Markets,445230,4650 Queensbury Road, Riverdale Park,Prince George's County,Maryland,20737,22FMTS269977,38.962979,-76.935311
Rockmart Farmers Market,Fruit and Vegetable Markets,445230,108 Water St., Rockmart,Polk County,Georgia,30153,22FMTS270196,33.997669,-85.053094
Roslindale Village Main Street Winter Farmers Market,Fruit and Vegetable Markets,445230,32 Birch St, Roslindale,Suffolk County,Massachusetts,2131,22FMTS270209,42.286072,-71.130709
RT 639 Farmers Market,Fruit and Vegetable Markets,445230,7278 Ladysmith Road Ruther Glen, Virginia,Caroline County,Virginia,22546,22FMTS270202,38.016661,-77.518506
Rusk County Farmers Market,Fruit and Vegetable Markets,445230,US Highway 8 & W. 2nd  Street, Ladysmith,Rusk County,Wisconsin,54848,22FMTS269975,45.464998,-91.09924
Russellville Community Market,Fruit and Vegetable Markets,445230,320 West C St. , Russellville,Pope County,Arkansas,72801,22FMTS270235,35.280402,-93.135468
Saint Mary Farmers Market,Fruit and Vegetable Markets,445230,700 s third st, Columbus ,Franklin County,Ohio,43206,22FMTS270258,39.948137,-82.994617
Salamanca Farmers market,Fruit and Vegetable Markets,445230,768 Broad st, Salamanca,Cattaraugus County,New York,14779,22FMTS269947,42.164734,-78.741263
Salem Farmers Market,Fruit and Vegetable Markets,445230,3 East Main Street, Salem,Salem city,Virginia,24153,22FMTS269995,37.292997,-80.058606
Saline Farmers Market,Fruit and Vegetable Markets,445230,S. Ann Arbor Street, Saline,Washtenaw County,Michigan,48176,22FMTS269988,42.165956,-83.781146
Saline Farmers Market,Fruit and Vegetable Markets,445230,7265 Saline Ann Arbor Road, Saline,Washtenaw County,Michigan,48176,22FMTS269989,42.179728,-83.785094
Saugerties Farmers Market,Fruit and Vegetable Markets,445230,115 Main Street, Saugerties,Ulster County,New York,12477,22FMTS270023,42.080345,-73.946818
Seacoast Eat Local Winter Farmers' Market - Exeter High School,Fruit and Vegetable Markets,445230,1 Blue Hawk Drive, Exeter,Rockingham County,New Hampshire,3833,22FMTS270140,43.0168516,-71.000312
Sedalia Area Farmers' Market,Fruit and Vegetable Markets,445230,2233 W 16th St, Sedalia,Pettis County,Missouri,65301,22FMTS270176,38.698011,-93.255481
Seneca Falls Farmers Market,Fruit and Vegetable Markets,445230,15 Water Street, Seneca Falls,Seneca County,New York,13148,22FMTS270226,42.909109,-76.800314
Shallotte Farmers Market/Market on Mulberry,Fruit and Vegetable Markets,445230,123 Mulberry Street, Shallotte,Brunswick County,North Carolina,28470,22FMTS270068,33.975058,-78.386035
Shawano Farmers Market,Fruit and Vegetable Markets,445230,235 S. Washington Street, Shawano,Shawano County,Wisconsin,54166,22FMTS270228,44.777707,-88.612868
Shelby County Farmers Market,Fruit and Vegetable Markets,445230,Hwys 44 and 59, Harlan,Shelby County,Iowa,51537,22FMTS269931,41.645926,-95.338882
Shoreline Farmers Market,Fruit and Vegetable Markets,445230,15415 Westminster Way, Shoreline,King County,Washington,98133,22FMTS270216,47.741553,-122.34945
Shorewood Farmers Market,Fruit and Vegetable Markets,445230,3400 Estabrook Parkway, Shorewood,Milwaukee County,Wisconsin,53212,22FMTS270111,43.091905,-87.898448
Silver City Farmers' Market Downtown,Fruit and Vegetable Markets,445230,901 N Pope ST, Silver City,Grant County,New Mexico,88061,22FMTS270174,32.774517,-108.27618
Sioux City Farmers Market,Fruit and Vegetable Markets,445230,100 Pearl Street, Sioux City,Woodbury County,Iowa,51101,22FMTS270061,42.490552,-96.408445
Sitka Farmers Market,Fruit and Vegetable Markets,445230,611 Lincoln Street, Sitka,Sitka City and Borough,Alaska,99835,22FMTS269965,57.051519,-135.32674
Smith County Farmers Market,Fruit and Vegetable Markets,445230,110 Ag. Center lane, Carthage,Smith County,Tennessee,37030,22FMTS270051,36.2233523,-85.946185
Solana Beach Farmers Market,Fruit and Vegetable Markets,445230,444 South Cedros Avenue, Solana Beach,San Diego County,California,92075,22FMTS269973,32.987194,-117.2692
Soldotna Saturday Farmers Market,Fruit and Vegetable Markets,445230,193 E. Corral Ave, Soldotna,Kenai Peninsula Borough,Alaska,99669,22FMTS270261,60.49304,-151.06758
Somerville Mobile Farmers' Market - Mystic,Fruit and Vegetable Markets,445230,530 Mystic Avenue, Somerville,Middlesex County,Massachusetts,2145,22FMTS270098,42.396251,-71.091856
Somerville Mobile Farmers' Market - North Street,Fruit and Vegetable Markets,445230,24 North Street, Somerville,Middlesex County,Massachusetts,2144,22FMTS270099,42.407206,-71.131331
Soutel Community Market,Fruit and Vegetable Markets,445230,4750 Soutel Dr, Jacksonville,Duval County,Florida,32208,22FMTS270245,30.40374,-81.72001
South Miami Farmers Market,Fruit and Vegetable Markets,445230,6130 Sunset Dr, Miami,Miami-Dade County,Florida,33143,22FMTS270077,25.704072,-80.291066
South Milwaukee Downtown Market,Fruit and Vegetable Markets,445230,11th and Milwaukee Avenues, South Milwaukee ,Milwaukee County,Wisconsin,53172,22FMTS270058,42.9107287,-87.862688
Speedway Farmers Market,Fruit and Vegetable Markets,445230,1068 Main Street, Speedway,Marion County,Indiana,46224,22FMTS270206,39.793698,-86.247542
Stones River Market,Fruit and Vegetable Markets,445230,301 Spring Street, Murfreesboro ,Rutherford County,Tennessee,37129,22FMTS270052,35.852209,-86.416062
Stow Community Farmers Market,Fruit and Vegetable Markets,445230,1567 Pilgrim Drive, Stow,Summit County,Ohio,44224,22FMTS270232,41.168794,-81.452156
Stowe Farmers' Market,Fruit and Vegetable Markets,445230,1799 Mountain Road, Stowe,Lamoille County,Vermont,5672,22FMTS270157,44.473531,-72.712004
Suffolk Farmers' Market,Fruit and Vegetable Markets,445230,524 N. Main Street, Suffolk,Suffolk city,Virginia,23434,22FMTS270108,36.737572,-76.581989
Surfside Beach Farmers Market,Fruit and Vegetable Markets,445230,Intersection of Surfside Drive and Willow Drive, Surfside Beach,Horry County,South Carolina,29575,22FMTS270040,33.6069616,-78.974364
Suttons Bay Farmers Market,Fruit and Vegetable Markets,445230,Intersection of M22 & M204, Suttons Bay,Leelanau County,Michigan,49682,22FMTS269954,44.980186,-85.647075
Tahoe City Farmers Market Thursday CFM,Fruit and Vegetable Markets,445230,400 N Lake Blvd, Tahoe City,Placer County,California,96145,22FMTS270195,39.169938,-120.14113
Terra Square Farmers Market,Fruit and Vegetable Markets,445230,3380 Chicago Dr., Hudsonville,Ottawa County,Michigan,49426,22FMTS270192,42.8677383,-85.865455
Terre Haute Farmers Market,Fruit and Vegetable Markets,445230,2800 Poplar Street, Terre Haute,Vigo County,Indiana,47803,22FMTS270078,39.464145,-87.37607
Texas Farmers' Market at Lakeline,Fruit and Vegetable Markets,445230,Lakeline Mall parking lot, Cedar Park,Williamson County,Texas,78613,22FMTS269925,30.469036,-97.806683
The Original Gresham Farmers Market,Fruit and Vegetable Markets,445230,401 NE Second St., Gresham ,Multnomah County,Oregon,97030,22FMTS270259,45.499582,-122.42697
The Territory Farmers' Market,Fruit and Vegetable Markets,445230,2000 Territory Drive, Galena,Jo Daviess County,Illinois,61036,22FMTS269914,42.404443,-90.31353
The Village Farmers Market on California Street,Fruit and Vegetable Markets,445230,625 Booth Street, Reno ,Washoe County,Nevada,89509,22FMTS270067,39.514749,-119.82764
The West River Farmers Market,Fruit and Vegetable Markets,445230,2242 N. Main St., Londonderry,Windham County,Vermont,5148,22FMTS270125,43.228259,-72.821619
The Woodland Farmers Market,Fruit and Vegetable Markets,445230,250 First Street , Woodland ,Yolo County,California,95695,22FMTS270032,38.6792311,-121.77377
The Woodland Farmers Market at Woodland Healthcare,Fruit and Vegetable Markets,445230,Corner of Cottonwood and Gibson Rd, Woodland,Yolo County,California,95695,22FMTS270033,38.663686,-121.79304
Townshend Farmers Market,Fruit and Vegetable Markets,445230,6573 Route 30, West Townshend,Windham County,Vermont,5359,22FMTS270011,43.084256,-72.711717
Twin Bridges ALL YEAR Farmers' Market,Fruit and Vegetable Markets,445230,Main Street City Park and Fairgrounds, Twin Bridges ,Madison County,Montana,59754,22FMTS270117,45.542747,-112.33373
Twin City Farmers Market,Fruit and Vegetable Markets,445230,106 Avenue A, Sterling IL,Whiteside County,Illinois,61081,22FMTS269998,41.787255,-89.697172
Union County Farm & Craft Market,Fruit and Vegetable Markets,445230,106 Lakeside Drive, Union ,Union County,South Carolina,29379,22FMTS270191,34.716023,-81.614994
Union County Farmers Market,Fruit and Vegetable Markets,445230,290 Farmers Market Way, Blairsville,Union County,Georgia,30512,22FMTS270211,34.886298,-83.950669
Union Street Farmers Market @ Celebration Pointe,Fruit and Vegetable Markets,445230,4949 Celebration Pointe Ave, Gainesville ,Alachua County,Florida,32608,22FMTS270170,29.62549,-82.39552
Uptown Greenville Umbrella Market,Fruit and Vegetable Markets,445230,Fifth Street and Evans Street, Greenville,Pitt County,North Carolina,27858,22FMTS269943,35.611005,-77.373338
Urbana Farmers' Market,Fruit and Vegetable Markets,445230,102 Capitol Ave, Urbana,Benton County,Iowa,52345,22FMTS270182,42.223981,-91.873662
USDA Farmers Market,Fruit and Vegetable Markets,445230,Corner 12th St. & Independence Ave. SW, Washington,District of Columbia,District of Columbia,20004,22FMTS270003,38.887743,-77.028494
Utica Farmers Market,Fruit and Vegetable Markets,445230, Elizabeth St., Utica,Oneida County,New York,13501,22FMTS269946,43.096382,-75.225983
Vance County Regional Farmers Market,Fruit and Vegetable Markets,445230,210 Southpark Dr., Henderson,Vance County,North Carolina,27536,22FMTS270166,36.3378971,-78.424401
Vashon Farmers Market - Saturday,Fruit and Vegetable Markets,445230,17519 Vashon Highway SW, Vashon,King County,Washington,98070,22FMTS270114,47.447921,-122.46075
Vermont Farmers Market,Fruit and Vegetable Markets,445230,Depot Park (at the Walmart Shopping Plaza), Rutland ,Rutland County,Vermont,5701,22FMTS270199,43.605826,-72.980071
Victoria Farmers' Market,Fruit and Vegetable Markets,445230,2805 North Navarro, Victoria,Victoria County,Texas,77901,22FMTS270231,28.821562,-97.000968
Voluntown Farmers' Market,Fruit and Vegetable Markets,445230,195 Main Street, Voluntown,New London County,Connecticut,6384,22FMTS270164,41.573913,-71.865502
Voorheesville Farmers Market,Fruit and Vegetable Markets,445230,68 Maple Ave., Voorheesville,Albany County,New York,12186,22FMTS269944,42.649656,-73.930027
Wabasha Downtown Farmers Market,Fruit and Vegetable Markets,445230,Main Street West & Allegheny Avenue next to Hills Hardware, Wabasha ,Wabasha County,Minnesota,55981,22FMTS270055,44.384124,-92.032633
Waco Downtown Farmers Market,Fruit and Vegetable Markets,445230,500 Washington Avenue, Waco,McLennan County,Texas,76701,22FMTS270205,31.55682,-97.132941
Wapello County Farmers Market,Fruit and Vegetable Markets,445230,, Ottumwa,Wapello County,Iowa,52501,22FMTS270142,41.017422,-92.425855
Watford Market,Fruit and Vegetable Markets,445230,501 7th St SE, Watford City,McKenzie County,North Dakota,58854,22FMTS270151,47.797315,-103.27139
Waukon Farmers Market,Fruit and Vegetable Markets,445230,850 Rossville Road, Waukon,Allamakee County,Iowa,52172,22FMTS269945,43.260191,-91.472878
Way Green Local Fare Market,Fruit and Vegetable Markets,445230,1460 n Augusta Ave, Waycross,Ware County,Georgia,31503,22FMTS270085,31.235752,-82.381851
Wayland Winter Farmers' Market,Fruit and Vegetable Markets,445230,397 Boston Post Road, Wayland,Middlesex County,Massachusetts,1778,22FMTS269983,42.363071,-71.369892
Webster Springs Farmer's Market,Fruit and Vegetable Markets,445230,Baker's Island, Webster Springs,Webster County,West Virginia,26288,22FMTS270008,38.47842,-80.415459
"Webster's Joe Obbie Farmers' Market, Inc.",Fruit and Vegetable Markets,445230,1028 Ridge Road, Webster,Monroe County,New York,14580,22FMTS269917,43.212229,-77.452948
"Wednesday, Indiana County Farmers' Market",Fruit and Vegetable Markets,445230,Wayne Avenue & Hospital Rd,,Indiana County,Indiana,15701,22FMTS270284,40.610507,-79.159344
West Lafayette Farmers Market,Fruit and Vegetable Markets,445230,3065 N Salisbury St, West Lafayette,Tippecanoe County,Indiana,47906,22FMTS270084,40.461469,-86.915836
Westerville Saturday Farmers Market,Fruit and Vegetable Markets,445230,21 South State Street, Westerville,Franklin County,Ohio,43081,22FMTS270227,40.123435,-82.913324
Westgate Farmers Market,Fruit and Vegetable Markets,445230,2925 W. Broad Street, Columbus,Franklin County,Ohio,43204,22FMTS270243,39.954491,-83.078781
Westside Community Market,Fruit and Vegetable Markets,445230,750 University Row, Madison,Dane County,Wisconsin,53705,22FMTS269939,43.076159,-89.470061
Wilkes County Farmers' Market,Fruit and Vegetable Markets,445230,842 CBD Loop, North Wilkesboro,Wilkes County,North Carolina,28659,22FMTS270146,36.159075,-81.1452
Williamson Farmers Market,Fruit and Vegetable Markets,445230,54 3rd. Ave. W., Williamson,Mingo County,West Virginia,25661,22FMTS270219,37.674029,-82.277984
Winter Farmers Market by Grow Oak Ridge,Fruit and Vegetable Markets,445230,323 Vermont Avenue, Oak Ridge,Anderson County,Tennessee,37830,22FMTS270272,36.017239,-84.251024
WNC Farmers Market,Fruit and Vegetable Markets,445230,570 Brevard Road, Asheville,Buncombe County,North Carolina,28806,22FMTS270270,35.555133,-82.598648
Wolfeboro Area Farmers Market,Fruit and Vegetable Markets,445230,233 South Main St, Wolfeboro,Carroll County,New Hampshire,3894,22FMTS270036,43.580593,-71.202747
Woodward Farmers' Market Association,Fruit and Vegetable Markets,445230,13th St. and Locust Ave. , Woodward,Woodward County,Oklahoma,73801,22FMTS270088,36.4314963,-99.39578
Wrightstown Farmers Market,Fruit and Vegetable Markets,445230,Middletown Grange 576 Penns Park Road, Wrightstown (use Newtown for GPS),Bucks County,Pennsylvania,18902,22FMTS270025,40.336871,-75.106815
Market of Life,Fruit and Vegetable Markets,445230,3510 W 15th Ave, Gary,Lake County,Indiana,46402,22FMTS270285,41.595883,-87.344853
Purcellville Farmers' Market,Fruit and Vegetable Markets,445230,717 E Main Street, Purcellville,Loudoun County,Virginia,20132,22FMTS270286,39.136603,-77.703843
Slippery Rock Farmers Market,Fruit and Vegetable Markets,445230, 100 Midway Street, Slippery Rock,Butler County,Pennsylvania,16057,22FMTS270287,41.062533,-80.050842
Eagle Farmers Market,Fruit and Vegetable Markets,445230,5th St. and Hwy 34,Eagle village,Cass County,Nebraska,68347,22FMTS270288,40.816121,-96.432729
Bassett Farmers Market,Fruit and Vegetable Markets,445230,200 Clark St.,Bassett city,Rock County,Nebraska,68714,22FMTS270289,42.582541,-99.536625
Beatrice Farmers Market Indian Creek Mall,Fruit and Vegetable Markets,445230,Indian Creek Mall 2205 N 6th St,Beatrice city,Gage County,Nebraska,68310,22FMTS270290,40.273594,-96.747301
Beaver City Farmers Market,Fruit and Vegetable Markets,445230,,Beaver City city,Furnas County,Nebraska,68926,22FMTS270291,40.138332,-99.827615
Market on the Square (BrokenkBow),Fruit and Vegetable Markets,445230,,Broken Bow city,Custer County,Nebraska,68822,22FMTS270292,41.40541,-99.63987
West Point Farmers Market,Fruit and Vegetable Markets,445230,,West Point city,Cuming County,Nebraska,68788,22FMTS270293,41.837741,-96.705918
Wilber Farmers Market,Fruit and Vegetable Markets,445230,,Dorchester village,Saline County,Nebraska,68343,22FMTS270294,40.64738,-97.114886
New Grand Island Farmers Market,Fruit and Vegetable Markets,445230,,Grand Island city,Hall County,Nebraska,68801,22FMTS270295,40.922193,-98.357951
David City Farmers Market,Fruit and Vegetable Markets,445230,,David City city,Butler County,Nebraska,68632,22FMTS270296,41.264759,-97.129955
Chatter Box Farmers Market in Tekamah,Fruit and Vegetable Markets,445230,,Tekamah city,Burt County,Nebraska,68061,22FMTS270297,41.775832,-96.222387
Norfolk Farmers Market,Fruit and Vegetable Markets,445230,,Stanton city,Stanton County,Nebraska,68779,22FMTS270298,41.948007,-97.212686
Plattsmouth Downtown Farmers Market,Fruit and Vegetable Markets,445230,,Plattsmouth city,Cass County,Nebraska,68048,22FMTS270299,41.005653,-95.894144
Plainview Farmers Market,Fruit and Vegetable Markets,445230,,Plainview city,Pierce County,Nebraska,68769,22FMTS270300,42.353346,-97.787145
Henderson Farmers Market,Fruit and Vegetable Markets,445230,,Henderson city,York County,Nebraska,68371,22FMTS270301,40.778922,-97.811491
Fleming County Farmers Market,Fruit and Vegetable Markets,445230,1384 Elizaville Rd,Flemingsburg city,Fleming County,Kentucky,41041,22FMTS270302,38.421407,-83.759523
Rock Valley Farmers Market,Fruit and Vegetable Markets,445230,1013 13th Ave,Rock Valley city,Sioux County,Iowa,51247,22FMTS270303,43.200223,-96.300832
Mason County Farmers Market,Fruit and Vegetable Markets,445230,2114 Old Main Street,Maysville city,Mason County,Kentucky,41056,22FMTS270304,38.615073,-83.80842
Armory Farmers Market,Fruit and Vegetable Markets,445230,85 Parade St,Providence city,Providence County,Rhode Island,2909,22FMTS270305,41.814767,-71.4316
Broad St. Farmers Market,Fruit and Vegetable Markets,445230,807 Broad St.,Providence city,Providence County,Rhode Island,2907,22FMTS270306,41.801869,-71.41892
Brown University Farmers Market,Fruit and Vegetable Markets,445230,201 Thayer St,Providence city,Providence County,Rhode Island,2906,22FMTS270307,41.826418,-71.400031
Central Falls Farmers Market,Fruit and Vegetable Markets,445230,559 Dexter St,Central Falls city,Providence County,Rhode Island,2863,22FMTS270308,41.885605,-71.39565
Neutaconkanut Farmers Market,Fruit and Vegetable Markets,445230,675 Plainfield St,Providence city,Providence County,Rhode Island,2909,22FMTS270309,41.8118,-71.461775
Pawtucket Farmers Market,Fruit and Vegetable Markets,445230,374 Main ST,Pawtucket city,Providence County,Rhode Island,2860,22FMTS270310,41.877734,-71.387274
West Warwick Farmers Market,Fruit and Vegetable Markets,445230,186 Providence St,West Warwick,Kent County,Rhode Island,2893,22FMTS270311,41.713691,-71.516856
Woonsocket Farmers Market,Fruit and Vegetable Markets,445230,450 Clinton St,Woonsocket city,Providence County,Rhode Island,2895,22FMTS270312,42.007654,-71.504321
Sankofa World Market,Fruit and Vegetable Markets,445230,224 Dexter St,Providence city,Providence County,Rhode Island,2907,22FMTS270313,41.811066,-71.42853
Fisherman's Memorial Park Farmers Market,Fruit and Vegetable Markets,445230,1011 Point Judith Rd,Narragansett,Washington County,Rhode Island,2882,22FMTS270314,41.380339,-71.488239
South Kingstown Farmers Market  at Marina Park,Fruit and Vegetable Markets,445230,2 Salt Pond Rd,South Kingstown,Washington County,Rhode Island,2879,22FMTS270315,41.428192,-71.49696
Pawtuxet Village Farmers Market,Fruit and Vegetable Markets,445230,60 Rhodes Pl,Cranston city,Providence County,Rhode Island,2905,22FMTS270316,41.767977,-71.391872
Elgin Farmers' Market,Fruit and Vegetable Markets,445230,,Elgin city,Bastrop County,Texas,78621,22FMTS270317,30.346425,-97.370756
CalaverasGROWN Certified Farmers' Market San Andreas,Fruit and Vegetable Markets,445230,891 Mountain Ranch Road,San Andreas,Calaveras County,California,95249,22FMTS270318,38.191243,-120.66782
Marksville Main Street Fresh Market,Fruit and Vegetable Markets,445230,317 North Main Street,Marksville city,Avoyelles Parish,Louisiana,71351,22FMTS270319,31.12742,-92.066002
Union County Farmers' Market,Fruit and Vegetable Markets,445230,115 Durham Drive,Maynardville city,Union County,Tennessee,37807,22FMTS270320,36.237614,-83.8228
Sodus Farmers' Market,Fruit and Vegetable Markets,445230,58 West Main Street,Sodus village,Wayne County,New York,14551,22FMTS270321,43.237102,-77.062753
Riverview Farmers Market,Fruit and Vegetable Markets,445230,320 Ogden Avenue,Jersey City city,Hudson County,New Jersey,7307,22FMTS270322,40.744736,-74.042798
"The Marketplace at Lee Branch, Lee Branch Farmers Market",Fruit and Vegetable Markets,445230,611 Doug Baker Blvd,Hoover city,Shelby County,Alabama,35242,22FMTS270323,33.40644,-86.666868
Ridgeway Farmers Market,Fruit and Vegetable Markets,445230,299 Hughitt Street,Ridgeway village,Iowa County,Wisconsin,53582,22FMTS270324,42.998521,-89.993242
the Farm Market,Fruit and Vegetable Markets,445230,Main St,Hillsboro,Sierra County,New Mexico,88042,22FMTS270325,32.920178,-107.5691
Blue Ash Farmers Market,Fruit and Vegetable Markets,445230,4335 Glendale Milford Road,Blue Ash city,Hamilton County,Ohio,45242,22FMTS270326,39.251798,-84.389892
The Berlin Farmers Market,Fruit and Vegetable Markets,445230,Pitts Street and Commerce Street,Berlin town,Worcester County,Maryland,21811,22FMTS270327,38.325383,-75.219388
El Monte Farmers' Market,Fruit and Vegetable Markets,445230,10700 Main Street,El Monte city,Los Angeles County,California,91731,22FMTS270328,34.075484,-118.03995
3rd Day Farmer's Market,Fruit and Vegetable Markets,445230,3234 S. LaChance Rd,Lake City,Missaukee County,Michigan,49651,22FMTS270329,44.292952,-85.296147
Paseo Farmers Market,Fruit and Vegetable Markets,445230,3100 N Walker Ave,Oklahoma City city,Oklahoma County,Oklahoma,73103,22FMTS270330,35.501891,-97.52482
Lynchburg Community Market,Fruit and Vegetable Markets,445230,1219 Main St,Lynchburg city,Lynchburg city,Virginia,24504,22FMTS270331,37.411517,-79.140379
Downtown Chico Thursday Night Market,Fruit and Vegetable Markets,445230,,Chico city,Butte County,California,95928,22FMTS270332,39.728991,-121.84046
The Farm Market at Mill No. 5,Fruit and Vegetable Markets,445230,250 Jackson Street, Lowell,Middlesex County,Massachusetts,1852,22FMTS270333,42.641166,-71.312805
Fulton Stall Market - Indoor Farmers Market,Fruit and Vegetable Markets,445230,91 South St.,New York city,New York County,New York,10038,22FMTS270334,40.706222,-74.003474
Vernon Hills Park District Farmers Market,Fruit and Vegetable Markets,445230,Lakeview Parkway and Hawthorn Parkway,Vernon Hills village,Lake County,Illinois,60061,22FMTS270335,42.241619,-87.962265
Eureka Springs Farmers Market,Fruit and Vegetable Markets,445230,44 Kingshighway,Eureka Springs city,Carroll County,Arkansas,72632,22FMTS270336,36.398616,-93.746149
White St. Saturday Market,Fruit and Vegetable Markets,445230,26 White St.,Eureka Springs city,Carroll County,Arkansas,72632,22FMTS270337,36.404902,-93.741728
29 Palms Farmers' Market,Fruit and Vegetable Markets,445230,73484 Twentynine Palms Hwy,Twentynine Palms city,San Bernardino County,California,92277,22FMTS270338,34.13576,-116.05894
Hillsboro Farmers' Markets - Downtown Hillsboro,Fruit and Vegetable Markets,445230,1st Ave and NW Lincoln St,Hillsboro city,Washington County,Oregon,97124,22FMTS270339,45.524375,-122.99036
Hillsboro Farmers' Markets - Orenco Station,Fruit and Vegetable Markets,445230,6125 NE Cornell Rd,Hillsboro city,Washington County,Oregon,97124,22FMTS270340,45.534675,-122.91755
Torrington WY Farmers Market,Fruit and Vegetable Markets,445230,21st & Main Street,Torrington city,Goshen County,Wyoming,82240,22FMTS270341,42.064541,-104.18407
Donnelly Farmers Market,Fruit and Vegetable Markets,445230,FW Gestrin and E. Roseberry Rd,Donnelly city,Valley County,Idaho,83615,22FMTS270342,44.730034,-116.07672
Burlington Farmers Market,Fruit and Vegetable Markets,445230,345 Pine Street,Burlington city,Chittenden County,Vermont,5401,22FMTS270343,44.46973,-73.215415
The Market at Second Stage,Fruit and Vegetable Markets,445230,194 Second St.,Amherst town,Amherst County,Virginia,24521,22FMTS270344,37.583162,-79.048809
Bethalto Market In The Park,Fruit and Vegetable Markets,445230,213 N Priaire St,Bethalto village,Madison County,Illinois,62010,22FMTS270345,38.902967,-90.053468
Mauston Farmers' Market,Fruit and Vegetable Markets,445230,220 East State Street,Mauston city,Juneau County,Wisconsin,53948,22FMTS270346,43.801304,-90.082332
Manchester's Spruce Street Market,Fruit and Vegetable Markets,445230,163 Spruce St.,Hartford,Hartford County,Connecticut,6040,22FMTS270347,41.781503,-72.518324
Decatur Farmers Market,Fruit and Vegetable Markets,445230,308 Clairemont Ave,Decatur city,DeKalb County,Georgia,30030,22FMTS270348,33.778773,-84.296808
Oakhurst Farmers Market,Fruit and Vegetable Markets,445230,630 East Lake Drive, Decatur ,DeKalb County,Georgia,30030,22FMTS270349,33.760143,-84.304799
Rosa Parks Farmers Market,Fruit and Vegetable Markets,445230,2020 Beatties Ford Road, Charlotte ,Mecklenburg County,North Carolina,28216,22FMTS270350,35.262802,-80.854493
The Peoples Market,Fruit and Vegetable Markets,445230,3220 E 3rd St., Bloomington ,Monroe County,Indiana,47401,22FMTS270351,39.164192,-86.491053
Shelby County Farmers Market,Fruit and Vegetable Markets,445230,151 W Washington Street, Shelbyville,Shelby County,Indiana,46176,22FMTS270352,39.52422,-85.780478
CalaverasGROWN Murphys Certified Farmers' Market,Fruit and Vegetable Markets,445230,505 S. Algiers St. , Murphys,Calaveras County,California,95247,22FMTS270353,38.13686,-120.46381
Southshore Outdoor Market,Fruit and Vegetable Markets,445230,8505 Durand Ave, Sturtevant,Racine County,Wisconsin,53177,22FMTS270354,42.697348,-87.888847
Caledonia Outdoor Market,Fruit and Vegetable Markets,445230,3920 N Greenbay Rd, Caledonia,Racine County,Wisconsin,53404,22FMTS270355,42.769605,-87.822883
Suwanee Farmers Market,Fruit and Vegetable Markets,445230,330 Town Center Ave, Suwanee,Gwinnett County,Georgia,30024,22FMTS270356,34.05617,-84.063354
Brockton Farmers Market,Fruit and Vegetable Markets,445230,45 School St, Brockton,Plymouth County,Massachusetts,2301,22FMTS270357,42.082799,-71.018866
La Familia Verde Market,Fruit and Vegetable Markets,445230,Tremont Ave between Arthur Ave & LaFontaine Ave, Bronx,Bronx County,New York,10457,22FMTS270358,40.849357,-73.891978
Grass Roots Farmers Market,Fruit and Vegetable Markets,445230,W.145th. Street between Edgecombe & Bradhurst Aves.,New York City,New York County,New York,10039,22FMTS270359,40.823804,-73.943475
Huguenot-Robious Farmers Market @ The Great Big Greenhouse,Fruit and Vegetable Markets,445230,2051 Huguenot Road, Richmond,Chesterfield County,Virginia,23235,22FMTS270360,37.519378,-77.610901
Farmers Market on Green River,Fruit and Vegetable Markets,445230,1099 Legion Park Road, Greensburg,Green County,Kentucky,42743,22FMTS270361,37.244082,-85.482096
Duluth's Downtown Farmers' Market,Fruit and Vegetable Markets,445230,Gitch ode' Akiing formerly known as Lake Place Park 214 E Superior Street, Duluth,St. Louis County,Minnesota,55802,22FMTS270362,46.788805,-92.093948
Little Italy Mercato CFM,Fruit and Vegetable Markets,445230,555 W Date Street, San Diego ,San Diego County,California,92101,22FMTS270363,32.723123,-117.16757
Camarillo Hospice Certified Farmers Market,Fruit and Vegetable Markets,445230,2220 Ventura Blvd., Camarillo ,Ventura County,California,93010,22FMTS270364,34.216518,-119.04157
Downtown Bloomington Farmers Market- Indoor,Fruit and Vegetable Markets,445230,101 S. Madison, Bloomington,McLean County,Illinois,61701,22FMTS270365,40.478127,-88.996165
Shreveport Farmers' Market,Fruit and Vegetable Markets,445230,101 Crockett Street, Shreveport,Caddo Parish,Louisiana,71101,22FMTS270366,32.514186,-93.744962
Pittsfield Township Farmers Market,Fruit and Vegetable Markets,445230,6201 W. Michigan Ave, Ann Arbor,Washtenaw County,Michigan,48176,22FMTS270367,42.197733,-83.700262
Franklin Street Bazaar,Fruit and Vegetable Markets,445230,2000 W. Franklin Street, Evansville,Vanderburgh County,Indiana,47712,22FMTS270368,37.980191,-87.594742
Fightingville Fresh,Fruit and Vegetable Markets,445230,315 W Simcoe, Lafayette,Lafayette Parish,Louisiana,70506,22FMTS270369,30.211573,-92.031394
White House Farmers Market,Fruit and Vegetable Markets,445230,105 College Street, White House,Sumner County,Tennessee,37188,22FMTS270370,36.467683,-86.653004
Kensington Farmers Market,Fruit and Vegetable Markets,445230,Kensington train station parking lot  , Kensington,Montgomery County,Maryland,20895,22FMTS270371,39.026476,-77.073728
The Township of Little Falls Farmers Market,Fruit and Vegetable Markets,445230,225 Main St, Little Falls,Passaic County,New Jersey,7424,22FMTS270372,40.882225,-74.234683
Natick Winter Market,Fruit and Vegetable Markets,445230,Common Street, Natick,Middlesex County,Massachusetts,1760,22FMTS270373,42.290237,-71.341206
Playa Vista Farmers' Market,Fruit and Vegetable Markets,445230,12775 W. Millennium, Playa Vista,Los Angeles County,California,90094,22FMTS270374,33.975922,-118.41662
Westwood Village Farmers Market,Fruit and Vegetable Markets,445230,1030 Broxton St, Los Angeles,Los Angeles County,California,90024,22FMTS270375,34.061784,-118.44653
Waterloo Rotary Farm Market,Fruit and Vegetable Markets,445230,22 Locust Street, Waterloo,Seneca County,New York,13165,22FMTS270376,42.903737,-76.865814
SOCO Farmers' Market,Fruit and Vegetable Markets,445230,3315 Hyland , Costa Mesa,Orange County,California,92626,22FMTS270377,33.694867,-117.92709
Ovid Farmers Market,Fruit and Vegetable Markets,445230,Main Street, Ovid,Seneca County,New York,14521,22FMTS270378,42.676729,-76.822157
Red Stick Farmers Market  - Seasonal Tuesdays,Fruit and Vegetable Markets,445230,7711 Goodwood Boulevard, Baton Rouge,East Baton Rouge Parish,Louisiana,70806,22FMTS270379,30.442682,-91.106845
Hickory Point UMC Produce Market,Fruit and Vegetable Markets,445230,2001 Lock B Road North, Clarksville,Montgomery County,Tennessee,37043,22FMTS270380,36.433597,-87.24862
Barrow County Farmers Market,Fruit and Vegetable Markets,445230,30 N. Broad St, Winder,Barrow County,Georgia,30680,22FMTS270381,33.993074,-83.721123
Kingwood Farmers Market,Fruit and Vegetable Markets,445230,2814 Town Center Circle, Kingwood,Harris County,Texas,77339,22FMTS270382,30.047327,-95.184629
Milk Lady Derwood Fall 2020 Pickup/Delivery,Fruit and Vegetable Markets,445230,16501 Redland Road, Rockville,Montgomery County,Maryland,20855,22FMTS270383,39.126727,-77.150329
Milk Lady Derwood Farmers Market,Fruit and Vegetable Markets,445230,16501 Redland Road, Rockville,Montgomery County,Maryland,20855,22FMTS270384,39.126885,-77.150144
Tamarack Junction Casino Farmers' Market,Fruit and Vegetable Markets,445230,13101 So. Virginia Street, RENO,Washoe County,Nevada,89511,22FMTS270385,39.416292,-119.75538
Port Townsend Farmers Market,Fruit and Vegetable Markets,445230,600 Block Tyler St, PORT TOWNSEND,Jefferson County,Washington,98368,22FMTS270386,48.11702,-122.7603
Milk Lady Shady Grove Farmers Market,Fruit and Vegetable Markets,445230,9601 Medical Center Drive, Rockville,Montgomery County,Maryland,20850,22FMTS270387,39.104422,-77.199488
Somerville Mobile Farmers' Market - Council on Aging,Fruit and Vegetable Markets,445230,167 Holland Street, Somerville,Middlesex County,Massachusetts,2144,22FMTS270388,42.40098,-71.125686
Somerville Mobile Farmers' Market - East Somerville Community School,Fruit and Vegetable Markets,445230,50 Cross Street, Somerville,Middlesex County,Massachusetts,2145,22FMTS270389,42.385778,-71.087099
New Harvest Farmers' Market,Fruit and Vegetable Markets,445230,4775 New Harvest Lane, Knoxville,Knox County,Tennessee,37918,22FMTS270390,36.039471,-83.883624
Haymaker Farmers' Market,Fruit and Vegetable Markets,445230,1435 E Main St Kent,Kent city,Portage County,Ohio,44240,22FMTS270391,41.155218,-81.337712
Waynesboro Farmers Market,Fruit and Vegetable Markets,445230,215 McElroy St., Waynesboro,Waynesboro city,Virginia,22980,22FMTS270392,38.068559,-78.885734
Verona Farmers Market,Fruit and Vegetable Markets,445230,18 Gov Center Ln, Verona,Augusta County,Virginia,24482,22FMTS270393,38.193744,-79.010219
The American Legion Farmers Market,Fruit and Vegetable Markets,445230,2 S Artillery Dr, Sumter,Sumter County,South Carolina,29150,22FMTS270394,33.919521,-80.361114
Etna Farmers Market,Fruit and Vegetable Markets,445230,514 N Hwy 3, Etna,Siskiyou County,California,96027,22FMTS270395,41.458263,-122.89585
NOVA Central Farm Market,Fruit and Vegetable Markets,445230,543 Beulah Road, Vienna,Fairfax County,Virginia,22180,22FMTS270396,38.915538,-77.264712
Narrowsburg Farmers' Market,Fruit and Vegetable Markets,445230,7 Erie Avenue, Narrowsburg,Sullivan County,New York,12764,22FMTS270397,41.596136,-75.05512
CFFMA - River Park Farmers Market - Tuesday,Fruit and Vegetable Markets,445230,SE Corner Blackstone and Nees, Fresno ,Fresno County,California,93720,22FMTS270398,36.849308,-119.78909
CFFMA - River Park Farmers Market - Saturday,Fruit and Vegetable Markets,445230,SE Corner Blackstone and Nees, Fresno,Fresno County,California,93720,22FMTS270399,36.849327,-119.78909
CFFMA - Ft Washington Farmers Market - Sunday,Fruit and Vegetable Markets,445230,NE Corner Friant and Ft Washington, Fresno ,Fresno County,California,93730,22FMTS270400,36.874654,-119.77688
Andover Farmers Market,Fruit and Vegetable Markets,445230,41 Central Street, Andover,Essex County,Massachusetts,1810,22FMTS270401,42.653616,-71.143138
Delano Neighborhood Market,Fruit and Vegetable Markets,445230,1709 W Douglas , Wichita,Sedgwick County,Kansas,67213,22FMTS270402,37.683757,-97.360349
Downtown Berkeley,Fruit and Vegetable Markets,445230,1947 Center St., Berkeley,Alameda County,California,94704,22FMTS270403,37.869819,-122.2716
Floyd County Farmers Market (Floyds Knobs),Fruit and Vegetable Markets,445230,400 Block Lafollette Station, floyds knobs,Floyd County,Indiana,47119,22FMTS270404,38.315002,-85.896109
North Berkeley Farmers' Market,Fruit and Vegetable Markets,445230,Shattuck and Vine, Berkeley,Alameda County,California,94709,22FMTS270405,37.880337,-122.26907
South Berkeley Farmers' Market,Fruit and Vegetable Markets,445230,Adeline at 63rd Street, Berkeley ,Alameda County,California,94703,22FMTS270406,37.847765,-122.27193
Artistlane Farmers Market,Fruit and Vegetable Markets,445230,1966 Broad Street, Augusta-Richmond County consolidated government (balance),Richmond County,Georgia,30815,22FMTS270407,33.365531,-82.073422
Westport Rd Baptist Farmers Market,Fruit and Vegetable Markets,445230,9705 Westport Road, Louisville,Jefferson County,Kentucky,40241,22FMTS270408,38.288727,-85.571695
Carter County Farmers Market - Grayson,Fruit and Vegetable Markets,445230,94 FAIRGROUND DR, GRAYSON,Carter County,Kentucky,41143,22FMTS270409,38.331557,-82.904359
Pendleton County Farmers Market,Fruit and Vegetable Markets,445230,68 Fairgrounds Road, Falmouth,Pendleton County,Kentucky,41040,22FMTS270410,38.671615,-84.332926
Taylorsville Farmers Market Inc.,Fruit and Vegetable Markets,445230,751 Taylorsville Rd, Taylorsville,Spencer County,Kentucky,40071,22FMTS270411,38.03192,-85.344893
Carter County Farmers Market - Olive Hill,Fruit and Vegetable Markets,445230,131 Jessica Lane, Olive Hill,Carter County,Kentucky,41164,22FMTS270412,38.29761,-83.180887
Knox County Farmers' Market,Fruit and Vegetable Markets,445230,34 Bond Hill Rd, Barbourville,Knox County,Kentucky,40906,22FMTS270413,36.849364,-83.867633
Farmers Market on the Square,Fruit and Vegetable Markets,445230,105 Merchant Street, Columbia,Adair County,Kentucky,42728,22FMTS270414,37.103437,-85.307537
Farmers Market on the Square,Fruit and Vegetable Markets,445230,105 Merchant Street, Columbia,Adair County,Kentucky,42728,22FMTS270415,37.103437,-85.307537
Meade County Farmers Market,Fruit and Vegetable Markets,445230,1041 Old Ekron Rd, Brandenburg ,Meade County,Kentucky,40108,22FMTS270416,37.988637,-86.166136
Anderson County Farmers Market,Fruit and Vegetable Markets,445230,1505 US-127 N, Lawrenceburg ,Anderson County,Kentucky,40342,22FMTS270417,38.076447,-84.917629
Montgomery County Farmers' Market,Fruit and Vegetable Markets,445230,153 South Maysville Street, Mt. Sterling,Montgomery County,Kentucky,40353,22FMTS270418,38.054333,-83.941302
Prospect Area Farmer's Market,Fruit and Vegetable Markets,445230,12900 W. Hwy 42, Prospect ,Oldham County,Kentucky,40059,22FMTS270419,38.37102,-85.58996
middletown farmer's Market,Fruit and Vegetable Markets,445230,, Middletown,Jefferson County,Kentucky,40243,22FMTS270420,38.242222,-85.543717
Scott County Farmers' Market,Fruit and Vegetable Markets,445230,corner of North Broadway and Washington Street, Georgetown,Scott County,Kentucky,40324,22FMTS270421,38.211492,-84.559554
Cadiz/Trigg County Farmers Market,Fruit and Vegetable Markets,445230,7 0 Main Street, Cadiz,Trigg County,Kentucky,42211,22FMTS270422,36.862889,-87.835998
Johnson County Farmers Market,Fruit and Vegetable Markets,445230,826 F. M. Stafford Ave., Paintsville,Johnson County,Kentucky,41240,22FMTS270423,37.812048,-82.8042
Floyd County Farmers Market,Fruit and Vegetable Markets,445230,361 N. Lake Drive, Prestonsburg,Floyd County,Kentucky,41653,22FMTS270424,37.670674,-82.775995
Franklin Simpson Farmers' Market,Fruit and Vegetable Markets,445230,304 N Main St, Franklin,Simpson County,Kentucky,42134,22FMTS270425,36.724368,-86.577261
Red Bird Farmers Market,Fruit and Vegetable Markets,445230,70 Queendale Center, Beverly,Clay County,Kentucky,40962,22FMTS270426,37.009793,-83.526289
Logan County Farmer's Market,Fruit and Vegetable Markets,445230,255 John Paul Avenue, Russellville,Logan County,Kentucky,42276,22FMTS270427,36.866286,-86.884185
Garrard County Farmers Market,Fruit and Vegetable Markets,445230,117 Lexington RD, Lancaster,Garrard County,Kentucky,40444,22FMTS270428,37.614373,-84.583209
Boyd County Farmers Market - King's Daughters Medical Center,Fruit and Vegetable Markets,445230,2420 Center Street, Catlettsburg,Boyd County,Kentucky,41101,22FMTS270429,38.470783,-82.630489
Beaver Dam Farmer's Market,Fruit and Vegetable Markets,445230,Hwy 231 South , Beaver Dam,Ohio County,Kentucky,42320,22FMTS270430,37.407199,-86.877647
"Bluegrass Farmers Market, Inc",Fruit and Vegetable Markets,445230,1837 Plaudit Place, Lexington ,Fayette County,Kentucky,40509,22FMTS270431,38.014875,-84.418747
Boyd County Farmers Market - KYOVA Mall,Fruit and Vegetable Markets,445230,10699 US-60, Ashland,Boyd County,Kentucky,41102,22FMTS270432,38.400138,-82.712555
Hopkinsville-Christian County Downtown Farmers Market,Fruit and Vegetable Markets,445230,110 W 9th Street, HOPKINSVILLE,Christian County,Kentucky,42240,22FMTS270433,36.866111,-87.489438
Boone County Farmers Market,Fruit and Vegetable Markets,445230,1961 Burlington Pike, Burlington,Boone County,Kentucky,41005,22FMTS270434,39.022231,-84.721563
Beattyville Main Street Marketplace Locally Made Market,Fruit and Vegetable Markets,445230,26 Hwy 52 W, Beattyville,Lee County,Kentucky,41311,22FMTS270435,37.591129,-83.705633
Shepherdsville farmer's Market,Fruit and Vegetable Markets,445230,170 W. Joe B. Hall Avenue , Shepherdsville ,Bullitt County,Kentucky,40165,22FMTS270436,37.988053,-85.709198
Farmers Market at the Depot,Fruit and Vegetable Markets,445230,101 E. Depot Street, Springfield,Washington County,Kentucky,40069,22FMTS270437,37.683658,-85.217676
Jackson County Farmers Market,Fruit and Vegetable Markets,445230,1296South Main St., Mckee,Jackson County,Kentucky,40447,22FMTS270438,37.430289,-83.988324
Hart County Farmers Market,Fruit and Vegetable Markets,445230,Main Street, Munfordville,Hart County,Kentucky,42765,22FMTS270439,37.271492,-85.889578
Jackson County Farmers Market,Fruit and Vegetable Markets,445230,3034 Welchburg Rd., Tyner,Jackson County,Kentucky,40402,22FMTS270440,37.330559,-83.922703
Cumberland County Farmers' Market,Fruit and Vegetable Markets,445230,819 S Main Street, Burkesville,Cumberland County,Kentucky,42717,22FMTS270441,36.790074,-85.364614
Elliott County Farmers Market,Fruit and Vegetable Markets,445230,2944 S KY 7, Sandy Hook,Elliott County,Kentucky,41171,22FMTS270442,38.093439,-83.122634
Breathitt County Farmers' Market,Fruit and Vegetable Markets,445230,3215 Quicksand Road, Jackson,Breathitt County,Kentucky,41339,22FMTS270443,37.535327,-83.348327
Orange Home Grown Farmers & Artisans Market,Fruit and Vegetable Markets,445230,303 W. Palm Ave., Orange ,Orange County,California,92866,22FMTS270444,33.791554,-117.85586
Campbell County Farmers Market Association,Fruit and Vegetable Markets,445230,7634 Alexandria Pike, Alexandria ,Campbell County,Kentucky,41001,22FMTS270445,38.97801,-84.392139
Campbell County Farmers Market Association,Fruit and Vegetable Markets,445230,3504 Alexandria Pike, Highland Heights ,Campbell County,Kentucky,41076,22FMTS270446,39.028829,-84.451866
Campbell County Farmers Market Association,Fruit and Vegetable Markets,445230,709 Monmouth St, Newport ,Campbell County,Kentucky,41071,22FMTS270447,39.090164,-84.491761
Harrison County Farmers Market - Saturday,Fruit and Vegetable Markets,445230,364 Oddville Ave, Cynthiana,Harrison County,Kentucky,41031,22FMTS270448,38.394075,-84.286978
La Grange Farmers' Market & Artisans,Fruit and Vegetable Markets,445230,100 East Main Street, La Grange,Oldham County,Kentucky,40031,22FMTS270449,38.407465,-85.379458
Colusa Certified Farmers Market,Fruit and Vegetable Markets,445230,10th Street Memorial Park, Colusa,Colusa County,California,95932,22FMTS270450,39.214999,-122.01403
Harrison County Farmers Market - Wednesday,Fruit and Vegetable Markets,445230,111 S Main St, Cynthiana,Harrison County,Kentucky,41031,22FMTS270451,38.390005,-84.297879
Phelan Certified Farmers Market,Fruit and Vegetable Markets,445230,4128 Warbler Road, Phelan,San Bernardino County,California,92371,22FMTS270452,34.439822,-117.52483
Chico Certified Farmers Market - Paradise Tuesday,Fruit and Vegetable Markets,445230,6491 Clark Road, Paradise,Butte County,California,95969,22FMTS270453,39.77368,-121.59544
Chico Certified Farmers Market - Chico Saturday,Fruit and Vegetable Markets,445230,2nd and Wall Streets, Chico,Butte County,California,95928,22FMTS270454,39.730823,-121.83832
Chico Certified Farmers Market - Chico Wednesday,Fruit and Vegetable Markets,445230,North Valley Plaza Mall, Chico,Butte County,California,95926,22FMTS270455,39.758425,-121.84845
Old L.A. Certified Farmers Market,Fruit and Vegetable Markets,445230,North Figueroa & Ave. 58, Los Angeles ,Los Angeles County,California,90042,22FMTS270456,34.110124,-118.1919
Old L.A. Certified Farmers Market,Fruit and Vegetable Markets,445230,N Figueroa & Ave. 58, Los Angeles ,Los Angeles County,California,90042,22FMTS270457,34.110171,-118.19193
Lincoln Heights Certified Farmers Market,Fruit and Vegetable Markets,445230,N. Broadway & Sichel, Los Angeles ,Los Angeles County,California,90031,22FMTS270458,34.073591,-118.2131
East Hollywood Certified Farmers' Market,Fruit and Vegetable Markets,445230,Hollywood Blvd. and Western Ave., Los Angeles,Los Angeles County,California,90027,22FMTS270459,34.10151,-118.30887
McKinleyville CFM,Fruit and Vegetable Markets,445230,2165 Central Ave, McKinleyville,Humboldt County,California,95519,22FMTS270460,40.944643,-124.10056
Coastside Farmers' Market - Half Moon Bay,Fruit and Vegetable Markets,445230,225 Cabrillo Highway, Half Moon Bay ,San Mateo County,California,94019,22FMTS270461,37.46677,-122.43737
Imogene Stout Market on Main,Fruit and Vegetable Markets,445230,139 North Main Street, Marion,Crittenden County,Kentucky,42064,22FMTS270462,37.334578,-88.081353
"Coastside Farmers' Market - Rockaway Beach, Pacifica",Fruit and Vegetable Markets,445230,450 Old County Road, Pacifica ,San Mateo County,California,94044,22FMTS270463,37.609415,-122.49508
Woodford County Farmers Market,Fruit and Vegetable Markets,445230,N. Gratz St., Midway ,Woodford County,Kentucky,40347,22FMTS270464,38.149925,-84.682308
Certified Farmers' Market Palm Springs - Outdoor,Fruit and Vegetable Markets,445230,2300 E. Baristo Rd, Palm Springs,Riverside County,California,92262,22FMTS270465,33.820251,-116.52118
Certified Farmers' Market Palm Springs - Indoor,Fruit and Vegetable Markets,445230,401 S. Pavilion Way, Palm Springs,Riverside County,California,92262,22FMTS270466,33.817078,-116.52525
McCreary County Farmers Market,Fruit and Vegetable Markets,445230,299 Wilburn Ross Hwy, Stearns,McCreary County,Kentucky,42647,22FMTS270467,36.694321,-84.474473
Old Oakland Farmers' Market,Fruit and Vegetable Markets,445230,492 9th street, Oakland,Alameda County,California,94607,22FMTS270468,37.801382,-122.27459
Temescal Urban Village Farmers' Market,Fruit and Vegetable Markets,445230,5300 Claremont Ave., Oakland,Alameda County,California,94618,22FMTS270469,37.839774,-122.25973
Surprise Valley Farmers Market,Fruit and Vegetable Markets,445230,501 Main , Cedarville,Modoc County,California,96104,22FMTS270470,41.527832,-120.17166
Alturas Farmers Market,Fruit and Vegetable Markets,445230,108 S Main St, Alturas,Modoc County,California,96101,22FMTS270471,41.483907,-120.5422
Whitley County Farmers Market (WCFM),Fruit and Vegetable Markets,445230,Billwoods Park , Williamsburg ,Whitley County,Kentucky,40769,22FMTS270472,36.741975,-84.159267
Whitley County Farmers Market,Fruit and Vegetable Markets,445230,NIBROC Park, Corbin ,Whitley County,Kentucky,40701,22FMTS270473,36.947,-84.096509
Wolfe County Farmers Market,Fruit and Vegetable Markets,445230,640 S KY 15, Campton ,Wolfe County,Kentucky,41301,22FMTS270474,37.727015,-83.542778
SoKY Marketplace Farmer's Market,Fruit and Vegetable Markets,445230,636 Center Street , Bowling Green,Warren County,Kentucky,42104,22FMTS270475,36.970919,-86.438462
Cambria Farmers Market,Fruit and Vegetable Markets,445230,1000 Main Street, Cambria,San Luis Obispo County,California,93428,22FMTS270476,35.564323,-121.09662
Morro Bay Main Street Farmers Market,Fruit and Vegetable Markets,445230,Main St. and Morro Bay Blvd., Morro Bay,San Luis Obispo County,California,93442,22FMTS270477,35.365976,-120.84995
SLO Farm Supply Farmers Market,Fruit and Vegetable Markets,445230,224 Tank Farm Rd, San Luis Obispo,San Luis Obispo County,California,93401,22FMTS270478,35.247189,-120.66718
Pikeville Farmers Market,Fruit and Vegetable Markets,445230,130 Adams Lane, Pikeville,Pike County,Kentucky,41501,22FMTS270479,37.485971,-82.544326
Montclair Village Farmers' Market,Fruit and Vegetable Markets,445230,6131 La Salle Ave, Oakland,Alameda County,California,94611,22FMTS270480,37.826522,-122.20992
Woodford County Farmers' Market,Fruit and Vegetable Markets,445230,525 Marsailles Road , VERSAILLES,Woodford County,Kentucky,40383,22FMTS270481,38.050275,-84.733856
East Palo Alto Community Farmers Market,Fruit and Vegetable Markets,445230,2555 Pulgas Avenue , East Palo Alto,San Mateo County,California,94303,22FMTS270482,37.469415,-122.13255
Rockford Midtown Market,Fruit and Vegetable Markets,445230,503 Seventh Street, Rockford,Winnebago County,Illinois,61104,22FMTS270483,42.262526,-89.08098
Heritage Farmers' Market,Fruit and Vegetable Markets,445230,1313 N. Mill St., London ,Laurel County,Kentucky,40741,22FMTS270484,37.135019,-84.096167
Peaceful Valley Farmers Market,Fruit and Vegetable Markets,445230,14888 Peaceful Valley Road, Sonora,Tuolumne County,California,95370,22FMTS270485,37.974304,-120.33807
St. Matthews Farmers Market,Fruit and Vegetable Markets,445230,4100 Shelbyville Rd, Louisville,Jefferson County,Kentucky,40207,22FMTS270486,38.251785,-85.646194
Phoenix Hill NuLu Farmers' Market,Fruit and Vegetable Markets,445230,1007 E. Jefferson St, Louisville,Jefferson County,Kentucky,40206,22FMTS270487,38.251583,-85.733398
Cambrian Park Farmers' Market,Fruit and Vegetable Markets,445230,Camden Avenue and Union Avenue, San Jose,Santa Clara County,California,95121,22FMTS270488,37.296867,-121.8193
Campbell Farmers' Market,Fruit and Vegetable Markets,445230,Campbell Avenue & Central Avenue, Campbell,Santa Clara County,California,95008,22FMTS270489,37.280232,-121.95435
Santa Clara Farmers' Market,Fruit and Vegetable Markets,445230,Jackson Street at Homestead Road, Santa Clara,Santa Clara County,California,95051,22FMTS270490,37.364613,-121.96793
Sunnyvale Farmers' Market,Fruit and Vegetable Markets,445230,Murphy Avenue at Washington Avenue, Sunnyvale,Santa Clara County,California,94085,22FMTS270491,37.385784,-122.02632
Willow Glen Farmers' Market,Fruit and Vegetable Markets,445230,1425 Lincoln Avenue, San Jose,Santa Clara County,California,95121,22FMTS270492,37.296867,-121.8193
California Avenue Farmers' Market,Fruit and Vegetable Markets,445230,California Avenue, Palo Alto,San Mateo County,California,94306,22FMTS270493,37.46778,-122.13255
Marshall County Farmers Market,Fruit and Vegetable Markets,445230,1933 Mayfield Highway, Benton,Marshall County,Kentucky,42025,22FMTS270494,36.842165,-88.378744
Delray GreenMarket,Fruit and Vegetable Markets,445230,NE 2nd Avenue, Delray Beach,Palm Beach County,Florida,33444,22FMTS270495,26.462365,-80.071595
Jeffersontown Farmers Market,Fruit and Vegetable Markets,445230,10434 watterson trail, Jeffersontown,Jefferson County,Kentucky,40299,22FMTS270496,38.19521,-85.562797
Ferry Plaza Farmers Market,Fruit and Vegetable Markets,445230,1 Ferry Building, San Francisco,San Francisco County,California,94111,22FMTS270497,37.795162,-122.39352
Mission Community Market,Fruit and Vegetable Markets,445230,84 Bartlett Street, San Francisco,San Francisco County,California,94110,22FMTS270498,37.755373,-122.41988
Beverly Hills Farmers Market,Fruit and Vegetable Markets,445230,9300 Civic Center Dr, Beverly Hills ,Los Angeles County,California,90210,22FMTS270499,34.073685,-118.39874
Menifee County Farmers Market,Fruit and Vegetable Markets,445230,62 Back Street, Frenchburg,Menifee County,Kentucky,40322,22FMTS270500,37.951788,-83.62783
Main Street DeFuniak Farmer's Market,Fruit and Vegetable Markets,445230,Baldwin Avenue between 7th and 8th St., DeFuniak Springs,Walton County,Florida,32435,22FMTS270501,30.720266,-86.1137
Linda Vista Certified Farmers Market,Fruit and Vegetable Markets,445230,6939 Linda Vista Rd., San Diego,San Diego County,California,92111,22FMTS270502,32.785209,-117.17056
City Heights Certified Farmers Market,Fruit and Vegetable Markets,445230,4325 Wightman St., San Diego,San Diego County,California,92105,22FMTS270503,32.747817,-117.10152
Pajaro Valley CFM,Fruit and Vegetable Markets,445230,Peck and Union st., Watsonville,Santa Cruz County,California,95076,22FMTS270504,36.910275,-121.75536
Canal Village Farmers' Market,Fruit and Vegetable Markets,445230,127 West Center Street, Medina,Orleans County,New York,14103,22FMTS270505,43.220102,-78.388368
The BLVD Market,Fruit and Vegetable Markets,445230,Lancaster BLVD, LANCASTER,Los Angeles County,California,93534,22FMTS270506,34.69773,-118.14251
The Albemarle Farmers Market,Fruit and Vegetable Markets,445230,Towncenter lane, Charlottesville,Albemarle County,Virginia,22911,22FMTS270507,38.126837,-78.445556
Elmwood Bidwell Farmers' Market,Fruit and Vegetable Markets,445230,Elmwood and Bidwell, Buffalo,Erie County,New York,14222,22FMTS270508,42.923862,-78.877625
Historic Downtown Jersey City Farmers Market,Fruit and Vegetable Markets,445230,Grove PATH Plaza, Jersey City,Hudson County,New Jersey,7302,22FMTS270509,40.719659,-74.042428
Memphis Farmers Market,Fruit and Vegetable Markets,445230,540 S. Front Street, Memphis,Shelby County,Tennessee,38103,22FMTS270510,35.132038,-90.06008
Brookline Farmers' Market,Fruit and Vegetable Markets,445230,Centre Street West PArking Lot, Brookline,Norfolk County,Massachusetts,2446,22FMTS270511,42.34219,-71.123782
Heathsville Farmers Market,Fruit and Vegetable Markets,445230,73 Monument Place, Heathsville,Northumberland County,Virginia,22473,22FMTS270512,37.916391,-76.473204
Carson Farmers Market @3rd & Curry St.,Fruit and Vegetable Markets,445230,3rd & Curry St. , Carson City,Carson City,Nevada,89703,22FMTS270513,39.162841,-119.76816
South End Market at Atherton,Fruit and Vegetable Markets,445230,2000 South Blvd., Charlotte,Mecklenburg County,North Carolina,28203,22FMTS270514,35.20911,-80.860801
Overbrook Farmers Market,Fruit and Vegetable Markets,445230,Maple & Market St, Overbrook,Osage County,Kansas,66524,22FMTS270515,38.777419,-95.556782
Westside Community Market,Fruit and Vegetable Markets,445230,750 University Row, Madison,Dane County,Wisconsin,53705,22FMTS270516,43.076385,-89.470022
Route One Farmers Market,Fruit and Vegetable Markets,445230,3745 Constellation Rd, LOMPOC,Santa Barbara County,California,93436,22FMTS270517,34.700679,-120.46622
Silver City Farmers' Market Midweek Market,Fruit and Vegetable Markets,445230,3025 Highway 180 E, Silver City,Grant County,New Mexico,88061,22FMTS270518,32.787733,-108.24248
Atwater Village Farmers' Market,Fruit and Vegetable Markets,445230,3528 Larga Ave, Los Angeles ,Los Angeles County,California,90039,22FMTS270519,34.117828,-118.26015
Central Avenue Farmers' Market,Fruit and Vegetable Markets,445230,4301 S Central Ave, Los Angeles ,Los Angeles County,California,90011,22FMTS270520,34.005326,-118.25679
Crenshaw Farmers' Market,Fruit and Vegetable Markets,445230,3650 W Martin Luther King Jr Blvd, Los Angeles ,Los Angeles County,California,90008,22FMTS270521,34.008706,-118.33542
Echo Park Farmers' Market,Fruit and Vegetable Markets,445230,1146 Logan St, Los Angeles ,Los Angeles County,California,90026,22FMTS270522,34.076409,-118.25827
Hollywood Farmers' Market,Fruit and Vegetable Markets,445230,1600 Ivar Ave, Los Angeles ,Los Angeles County,California,90028,22FMTS270523,34.099639,-118.32819
Windmill Park Farmers Market in Cornville,Fruit and Vegetable Markets,445230,9950 E CORNVILLE RD, CORNV,Yavapai County,Arizona,86325,22FMTS270524,34.739119,-111.90859
College Place Farmers & Artisan Market,Fruit and Vegetable Markets,445230,801 SE Larch Avenue, College Place,Walla Walla County,Washington,99324,22FMTS270525,46.041708,-118.37784
Secotan Market,Fruit and Vegetable Markets,445230,2868 NC-345, Wanchese,Dare County,North Carolina,27981,22FMTS270526,35.854615,-75.645391
The 'Whee Market,Fruit and Vegetable Markets,445230,113 Market Street, Cullowhee ,Jackson County,North Carolina,28723,22FMTS270527,35.301188,-83.18569
Church St Farmers Market,Fruit and Vegetable Markets,445230,6730 Church St, Douglasville,Douglas County,Georgia,30134,22FMTS270528,33.749649,-84.750061
Buy Local Farmers Market - Fall Creek,Fruit and Vegetable Markets,445230,7930 Fall Creek Bend, Humble,Harris County,Texas,77396,22FMTS270529,29.93294,-95.269976
North Canton Farmers' Market,Fruit and Vegetable Markets,445230,1447 North Main Street, North Canton,Stark County,Ohio,44720,22FMTS270530,40.892548,-81.409572
KSQ Farmers Market,Fruit and Vegetable Markets,445230,401 Birch St, Kennett Square,Chester County,Pennsylvania,19348,22FMTS270531,39.842787,-75.705331
Westland Farmers & Artisan Market,Fruit and Vegetable Markets,445230,1901 N. Carlson, Westland,Wayne County,Michigan,48185,22FMTS270532,42.319173,-83.380778
Growing Augusta Pop-Up Market,Fruit and Vegetable Markets,445230,3647 Karleen Rd, Hephzibah,Richmond County,Georgia,30815,22FMTS270533,33.387808,-82.11834
Braeswood Farmers Market,Fruit and Vegetable Markets,445230,5401 south braeswood, Houston,Harris County,Texas,77096,22FMTS270534,29.676944,-95.477537
Hillsdale Farmers' Market,Fruit and Vegetable Markets,445230,1405 SW Vermont St, Portland,Multnomah County,Oregon,97239,22FMTS270535,45.477581,-122.6928
L. A Mercado Agricola,Fruit and Vegetable Markets,445230,, Carolina,,Puerto Rico,979,22FMTS270536,18.431395,-66.011273
Vizcaya Village Farmers Market,Fruit and Vegetable Markets,445230,3250 S. Miami Ave, Miami,Miami-Dade County,Florida,33133,22FMTS270537,25.747026,-80.212735
Morgan County Winter Farmers' Market Association,Fruit and Vegetable Markets,445230,240 E Washington St., Martinsville,Morgan County,Indiana,46151,22FMTS270538,39.422141,-86.420904
The Corner Farmers Market,Fruit and Vegetable Markets,445230,2200 Walker Avenue, Greensboro,Guilford County,North Carolina,27403,22FMTS270539,36.069019,-79.828293
Ludington Farmer's Market,Fruit and Vegetable Markets,445230,, LUDINGTON,Mason County,Michigan,49431,22FMTS270540,43.955713,-86.447744
Weymouth Farmers Market,Fruit and Vegetable Markets,445230,1 Wildcat Way, Weymouth,Norfolk County,Massachusetts,2190,22FMTS270541,42.181987,-70.941897
Dillsboro Farmers Market,Fruit and Vegetable Markets,445230,12921 North Street, Dillsboro,Dearborn County,Indiana,47018,22FMTS270542,39.018037,-85.059414
Broome County Regional Farmers Market,Fruit and Vegetable Markets,445230,840 Upper Front St, Binghamton,Broome County,New York,13905,22FMTS270543,42.129759,-75.904648
Prescott Farmers Market,Fruit and Vegetable Markets,445230,900 Iron Springs Road, Prescott ,Yavapai County,Arizona,86305,22FMTS270544,34.557395,-112.4828
Kamuela Farmers Market,Fruit and Vegetable Markets,445230,67-139 Pukalani Road, Kamuela,Hawaii County,Hawaii,96743,22FMTS270545,20.017794,-155.66266
Batesville Farmers Market,Fruit and Vegetable Markets,445230,Main and Boehringer Street, Batesville ,Ripley County,Indiana,47006,22FMTS270546,39.298852,-85.221859
Putnam Farmer's Market,Fruit and Vegetable Markets,445230,1 Valley Park Drive, Hurricane,Putnam County,West Virginia,25526,22FMTS270547,38.440335,-81.995042
Champlain Islands Farmers' Market - Wednesday,Fruit and Vegetable Markets,445230,501 U.S Route 2, South Hero,Grand Isle County,Vermont,5486,22FMTS270548,44.661841,-73.323048
Carrboro Farmers' Market,Fruit and Vegetable Markets,445230,301 W Main St, Carrboro,Orange County,North Carolina,27510,22FMTS270549,35.910781,-79.077607
Richmond Winter Farmers Market - Winter Season (November - April),Fruit and Vegetable Markets,445230,204 S Second St, Richmond,Wayne County,Indiana,47374,22FMTS270550,39.825813,-84.900398
Westfield Farmers Market,Fruit and Vegetable Markets,445230,36 Court St, Westfield ,Hampden County,Massachusetts,1085,22FMTS270551,42.119742,-72.751662
Eagle Springs Farmers Market,Fruit and Vegetable Markets,445230,13555 Valley Lodge Parkway, Atascocita,Harris County,Texas,77346,22FMTS270552,29.975941,-95.194557
The Groves Marketplace,Fruit and Vegetable Markets,445230,11939 Madera Run Pkwy , Atascocita,Harris County,Texas,77346,22FMTS270553,29.957574,-95.188057
Red Stick Farmers Market - Saturday Downtown Year Round,Fruit and Vegetable Markets,445230,5th Street and Main Street, Baton Rouge,East Baton Rouge Parish,Louisiana,70802,22FMTS270554,30.45195,-91.185787
North Albany Farmer's Market,Fruit and Vegetable Markets,445230,6980 nw hwy 20, Albany,Benton County,Oregon,97321,22FMTS270555,44.63664,-123.17882
Jackson Food & Farm Market,Fruit and Vegetable Markets,445230,2708 Sherman Rd, Jackson,Washington County,Wisconsin,53037,22FMTS270556,43.309792,-88.171891
Heritage Acres Drive-thru Market,Fruit and Vegetable Markets,445230,507 W B St, McCook,Red Willow County,Nebraska,69001,22FMTS270557,40.199476,-100.63187
Gilmanton Community Farmers Market Association,Fruit and Vegetable Markets,445230,1385 NH Route 140, Gilmanton,Belknap County,New Hampshire,3837,22FMTS270558,43.425347,-71.332318
Hendricks Farmers Market,Fruit and Vegetable Markets,445230,Main Street, Hendricks,Lincoln County,Minnesota,56136,22FMTS270559,44.508647,-96.426422
Mt. Pleasant Farmers' Market - Island Park,Fruit and Vegetable Markets,445230,331 N. Main Street, Mount Pleasant,Isabella County,Michigan,48858,22FMTS270560,43.607074,-84.780178
Mt. Pleasant Farmers' Market - Broadway Street,Fruit and Vegetable Markets,445230,Broadway Street between Main & University Streets, Mount Pleasant,Isabella County,Michigan,48858,22FMTS270561,43.604433,-84.776052
Greeley Farmers Market,Fruit and Vegetable Markets,445230,902 7th Ave., Greeley,Weld County,Colorado,80631,22FMTS270562,40.424001,-104.6891
Larimer County Farmers' Market,Fruit and Vegetable Markets,445230,200 W. Oak St., Fort Collins,Larimer County,Colorado,80521,22FMTS270563,40.586073,-105.08019
Cape Coral Farmers Market,Fruit and Vegetable Markets,445230,SE 47th Terrace & SE 10th Place, Cape Coral,Lee County,Florida,33904,22FMTS270564,26.564457,-81.954459
Down to Earth Cunningham Park Farmers Market,Fruit and Vegetable Markets,445230,Parking lot off Union Turnpike, Queens,Queens County,New York,11423,22FMTS270565,40.7308,-73.773482
Vine Street Market at O'Fallon Station,Fruit and Vegetable Markets,445230,212 E 1st Street, O'Fallon,St. Clair County,Illinois,62269,22FMTS270566,38.591615,-89.908925
East Vancouver Farmers Market,Fruit and Vegetable Markets,445230,17701 SE Mill Plain Blvd., Vancouver,Clark County,Washington,98683,22FMTS270567,45.615372,-122.49377
Rittenhouse Tuesday Market,Fruit and Vegetable Markets,445230,1800 Walnut Street, Philadelphia,Philadelphia County,Pennsylvania,19103,22FMTS270568,39.950045,-75.170843
East Boston Farmers Market - Summer/Early Fall,Fruit and Vegetable Markets,445230,Across from 201 Border St., East Boston,Suffolk County,Massachusetts,2128,22FMTS270569,42.374945,-71.039467
The Fountain Farmers' Market,Fruit and Vegetable Markets,445230,The Singing Fountain, Philadelphia,Philadelphia County,Pennsylvania,19147,22FMTS270570,39.929934,-75.163171
University Square Farmers' Market,Fruit and Vegetable Markets,445230,3600 Walnut Street, Philadelphia,Philadelphia County,Pennsylvania,19104,22FMTS270571,39.953276,-75.194883
Jefferson Farmers' Market,Fruit and Vegetable Markets,445230,925 Chestnut Street, Philadelphia,Philadelphia County,Pennsylvania,19107,22FMTS270572,39.94994,-75.156213
Mt Airy Farmers' Market,Fruit and Vegetable Markets,445230,601 Carpenter Lane, Philadelphia,Philadelphia County,Pennsylvania,19119,22FMTS270573,40.046156,-75.196253
Gorgas Park Farmers' Market,Fruit and Vegetable Markets,445230,6300 Ridge Avenue, Philadelphia,Philadelphia County,Pennsylvania,19128,22FMTS270574,40.037308,-75.221221
Ambler Farmers' Market,Fruit and Vegetable Markets,445230,29 West Butler Pike, Ambler,Montgomery County,Pennsylvania,19002,22FMTS270575,40.153501,-75.225298
Chestnut Hill Farmers' Market,Fruit and Vegetable Markets,445230,7673 Germantown Avenue, Philadelphia,Philadelphia County,Pennsylvania,19118,22FMTS270576,40.06776,-75.196931
Bryn Mawr Farmers' Market,Fruit and Vegetable Markets,445230,775 Lancaster Avenue, Bryn Mawr,Montgomery County,Pennsylvania,19010,22FMTS270577,40.021168,-75.317067
Rittenhouse Saturday Farmers' Market,Fruit and Vegetable Markets,445230,1800 Walnut Street, Philadelphia,Philadelphia County,Pennsylvania,19103,22FMTS270578,39.950039,-75.170836
Swarthmore Farmers Market,Fruit and Vegetable Markets,445230,121 Park Avenue, Swarthmore,Delaware County,Pennsylvania,19081,22FMTS270579,39.901671,-75.348771
Media Farmers' Market,Fruit and Vegetable Markets,445230,Edgemont Street, Media,Delaware County,Pennsylvania,19063,22FMTS270580,39.917838,-75.385551
Woodstock Farmers Market - Winter,Fruit and Vegetable Markets,445230,11900 Country Club Rd., Woodstock,McHenry County,Illinois,60098,22FMTS270581,42.310266,-88.435654
Dickinson Square Farmers' Market,Fruit and Vegetable Markets,445230,1600 East Moyamensing Avenue, Philadelphia,Philadelphia County,Pennsylvania,19148,22FMTS270582,39.927056,-75.151276
Green City Market Lincoln Park,Fruit and Vegetable Markets,445230,1817 N. Clark St, Chicago,Cook County,Illinois,60614,22FMTS270583,41.915854,-87.633865
Green City Market West Loop,Fruit and Vegetable Markets,445230,115 S. Sangamon St, Chicago,Cook County,Illinois,60607,22FMTS270584,41.880039,-87.650439
"BETHANY BEACH FARMERS' MARKET, INC.",Fruit and Vegetable Markets,445230,601 castle court, Bethany Beach,Sussex County,Delaware,19930,22FMTS270585,38.538397,-75.056515
Lawrence Farmers' Market - Saturday Downtown Market,Fruit and Vegetable Markets,445230,824 New Hampshire Street, Lawrence,Douglas County,Kansas,66044,22FMTS270586,38.96859,-95.23448
Lawrence Farmers' Market - Tuesday Market,Fruit and Vegetable Markets,445230,1140 Massachusetts Street, Lawrence,Douglas County,Kansas,66044,22FMTS270587,38.963018,-95.235986
Southwest Plaza Farmers Market,Fruit and Vegetable Markets,445230,Wadsworth and Bowles, Littleton ,Jefferson County,Colorado,80123,22FMTS270588,39.611904,-105.09573
Highlands Ranch Farmers Market,Fruit and Vegetable Markets,445230,Highlands Ranch Pkwy and Dorchester Rd, Highlands Ranch ,Douglas County,Colorado,80129,22FMTS270589,39.547023,-104.99968
Woolery Farmers' Market,Fruit and Vegetable Markets,445230,2250 W Sunstone Dr, Bloomington,Monroe County,Indiana,47403,22FMTS270590,39.138753,-86.559788
Aurora Farmers Market,Fruit and Vegetable Markets,445230,170 Main Street, Aurora,Cayuga County,New York,13026,22FMTS270591,42.744684,-76.699995
Crawfordsville Farmers Market,Fruit and Vegetable Markets,445230,100 W Pike St., Crawfordsville,Montgomery County,Indiana,47933,22FMTS270592,40.040652,-86.903732
Crawfordsville Winter Market,Fruit and Vegetable Markets,445230,400 Parke Avenue, Crawfordsville,Montgomery County,Indiana,47933,22FMTS270593,40.04604,-86.896007
Knox County Farmers Market,Fruit and Vegetable Markets,445230,107 N 4th St, Edina,Knox County,Missouri,63537,22FMTS270594,40.167824,-92.172403
Steelville Farmer & Artist Saturday Morning Market,Fruit and Vegetable Markets,445230,392 Main St, Steelville,Crawford County,Missouri,65565,22FMTS270595,37.967138,-91.358368
Steelville Farmer & Artist Wednesday Night Market,Fruit and Vegetable Markets,445230, Church Street, Steelville,Crawford County,Missouri,65565,22FMTS270596,37.966076,-91.359291
Oxford Farmers Market,Fruit and Vegetable Markets,445230,E. Park Place, Oxford,Butler County,Ohio,45056,22FMTS270597,39.510915,-84.741544
New Orleans East Hospital Farmer's Market,Fruit and Vegetable Markets,445230,5620 Read Boulevard, New Orleans,Orleans Parish,Louisiana,70127,22FMTS270598,30.030672,-89.975013
Ballard Farmers Market,Fruit and Vegetable Markets,445230,5300 Ballard AVE NW, Seattle ,King County,Washington,98107,22FMTS270599,47.667512,-122.3845
Madrona Farmers Market,Fruit and Vegetable Markets,445230,1126 Martin Luther King Jr Way  , Seattle ,King County,Washington,98122,22FMTS270600,47.612616,-122.29575
Wallingford Farmers Market,Fruit and Vegetable Markets,445230,4800 Meridian Ave N , Seattle ,King County,Washington,98103,22FMTS270601,47.663924,-122.33335
Market on the Green,Fruit and Vegetable Markets,445230,105 Norton Park Drive, Whitehall,Franklin County,Ohio,43213,22FMTS270602,39.97423,-82.875408
Tremont Farmers Market,Fruit and Vegetable Markets,445230,1200 Startkweather Ave, Cleveland,Cuyahoga County,Ohio,44113,22FMTS270603,41.479328,-81.690301
North End Farmers Market,Fruit and Vegetable Markets,445230,311 Bowman St., Mansfield,Richland County,Ohio,44903,22FMTS270604,40.766123,-82.523336
La Cienega Farmers Market,Fruit and Vegetable Markets,445230,1835 La Cienega Blvd, Los Angele,Los Angeles County,California,90035,22FMTS270605,34.044973,-118.37983
Culver City Farmers Market,Fruit and Vegetable Markets,445230,Main Street in Culver City, Culver City,Los Angeles County,California,90232,22FMTS270606,34.024936,-118.39464
Kenosha Public Market - Summer Outdoor,Fruit and Vegetable Markets,445230,625 52nd Street, Kenosha,Kenosha County,Wisconsin,53140,22FMTS270607,42.587205,-87.819945
Kenosha Public Market - Winter Indoor,Fruit and Vegetable Markets,445230,625 57th Street, Kenosha,Kenosha County,Wisconsin,53140,22FMTS270608,42.584009,-87.819183
Gooding Farmer's Market,Fruit and Vegetable Markets,445230,Corner of 13th and Main, Gooding,Gooding County,Idaho,83330,22FMTS270609,42.932194,-114.71252
Freight House Farmers' Market,Fruit and Vegetable Markets,445230,421 West River Drive 32, Davenport,Scott County,Iowa,52801,22FMTS270610,41.519748,-90.582083
Herriman Farmers Market,Fruit and Vegetable Markets,445230,5355 W. Herriman Main St., Herriman,Salt Lake County,Utah,84096,22FMTS270611,40.515537,-112.01503
Old Capitol Farmers Market,Fruit and Vegetable Markets,445230,4th and Adams, Springfield ,Sangamon County,Illinois,62701,22FMTS270612,39.800581,-89.650662
Menominee Historic Downtown Farmers Market  Association,Fruit and Vegetable Markets,445230,, Menominee,Menominee County,Michigan,49858,22FMTS270613,45.107233,-87.604562
Marinette Artisan & Farm Market,Fruit and Vegetable Markets,445230,1607 Main Street, Marinette ,Marinette County,Wisconsin,54143,22FMTS270614,45.098174,-87.628231
Aquidneck Growers Market - Wednesday,Fruit and Vegetable Markets,445230,Memorial Blvd, Newport,Newport County,Rhode Island,2840,22FMTS270615,41.483658,-71.305831
Aquidneck Growers Market- Saturday Summer,Fruit and Vegetable Markets,445230,35 Dexter St, Newport,Newport County,Rhode Island,2840,22FMTS270616,41.509139,-71.304641
Celina Farmers Market,Fruit and Vegetable Markets,445230,1001 W Market St., Celina,Mercer County,Ohio,45822,22FMTS270617,40.549633,-84.582827
Belleville Farmers Market,Fruit and Vegetable Markets,445230,Main and 4th, Belleville,Wayne County,Michigan,48111,22FMTS270618,42.201917,-83.482812
Goddard Memorial State Park Farmers Market,Fruit and Vegetable Markets,445230,1095 Ives Rd, Warwick,Kent County,Rhode Island,2818,22FMTS270619,41.649602,-71.444335
Tiverton Farmer's Market,Fruit and Vegetable Markets,445230,43 Muse Way, Tiverton,Newport County,Rhode Island,2878,22FMTS270620,41.622867,-71.150045
Washington on the Brazos Farmers Market,Fruit and Vegetable Markets,445230,23400 Park Road 12, Washington,Washington County,Texas,77833,22FMTS270621,30.2145775,-96.403458
Westerly Land Trust Farmers Market,Fruit and Vegetable Markets,445230,61-85 Main Street, Westerly,Washington County,Rhode Island,2891,22FMTS270622,41.375089,-71.83172
Kenosha Public Market,Fruit and Vegetable Markets,445230,Outdoor Summer Market 625 52nd Street- Indoor Winter Market 625 57th Street, Kenosha,Kenosha County,Wisconsin,53140,22FMTS270623,42.587189,-87.819902
Monticello Market on the Square,Fruit and Vegetable Markets,445230,119 W. Washington St., Monticello,Jasper County,Georgia,31064,22FMTS270624,33.304642,-83.683495
Northside Farmers' Market,Fruit and Vegetable Markets,445230,2901 N. Sherman Ave., Madison,Dane County,Wisconsin,53704,22FMTS270625,43.128145,-89.362808
Pine City Farmers Market,Fruit and Vegetable Markets,445230,Main Street and 1st Ave NW, Pine City,Pine County,Minnesota,55063,22FMTS270626,45.832364,-92.970689
Grinnell Farmers Market,Fruit and Vegetable Markets,445230,833 4th Ave, Grinnell,Poweshiek County,Iowa,50112,22FMTS270627,41.743189,-92.724057
Owen County Farmers Market,Fruit and Vegetable Markets,445230,459 W. Morgan Street (SR46), Spencer,Owen County,Indiana,47460,22FMTS270628,39.286121,-86.769484
Woodstock Farmers Market-Tuesday Summer,Fruit and Vegetable Markets,445230,112 S. Benton St., Woodstock,McHenry County,Illinois,60098,22FMTS270629,42.310266,-88.435654
Woodstock Farmers Market-Saturday Summer,Fruit and Vegetable Markets,445230,112 S. Benton St., Woodstock,McHenry County,Illinois,60098,22FMTS270630,42.310266,-88.435654
Cumberland Farmers Market,Fruit and Vegetable Markets,445230,11501 E Washington Street, Cumberland,Marion County,Indiana,46229,22FMTS270631,39.77586,-85.961539
Farmers Market at the Fairgrounds,Fruit and Vegetable Markets,445230,620 N Apple Street, Greenfield,Hancock County,Indiana,46140,22FMTS270632,39.791832,-85.75624
"Payson Farmers Market, LLC - Twilight Tuesdays",Fruit and Vegetable Markets,445230,816 S. Beeline Hwy, Payson,Gila County,Arizona,85541,22FMTS270633,34.229808,-111.3276
Little River County Farmers Market,Fruit and Vegetable Markets,445230,, Ashdown,Little River County,Arkansas,71822,22FMTS270634,33.661403,-94.1176
Cross County Farmer's Market,Fruit and Vegetable Markets,445230,705 E. Union Avenue, Wynne,Cross County,Arkansas,72396,22FMTS270635,35.223532,-90.786483
Grand Prairie Farmers Market,Fruit and Vegetable Markets,445230,505 S. Main St., Stuttgart ,Arkansas County,Arkansas,72160,22FMTS270636,34.49802,-91.55237
Springdale Farmers Market,Fruit and Vegetable Markets,445230,992 E. Emma Ave., Springdale ,Washington County,Arkansas,72764,22FMTS270637,36.18745,-94.11845
Conway Farmers' Market,Fruit and Vegetable Markets,445230,150 Amity Rd., Conway,Faulkner County,Arkansas,72032,22FMTS270638,35.077695,-92.41257
Siloam Springs Farmers Market,Fruit and Vegetable Markets,445230,205 Jefferson Street, Siloam Springs ,Benton County,Arkansas,72761,22FMTS270639,36.181621,-94.541074
Paragould Farmers' Market,Fruit and Vegetable Markets,445230,100 W. Emerson, Paragould,Greene County,Arkansas,72450,22FMTS270640,36.05557,-90.486623
Downtown Conway Farmers' & Crafts Market,Fruit and Vegetable Markets,445230,718 Parkway, Conway,Faulkner County,Arkansas,72034,22FMTS270641,35.088507,-92.440867
Bentonville Farmers Market,Fruit and Vegetable Markets,445230,100 N. Main Street , Bentonville ,Benton County,Arkansas,72712,22FMTS270642,36.372637,-94.208458
Farmers Market of Gravette,Fruit and Vegetable Markets,445230,Hwy. 72 east, Gravette,Benton County,Arkansas,72736,22FMTS270643,36.419093,-94.446383
Dallas County Farmer's Market,Fruit and Vegetable Markets,445230,206 West 3rd St., Fordyce,Dallas County,Arkansas,71742,22FMTS270644,33.812858,-92.41424
Riverside Farmers Market,Fruit and Vegetable Markets,445230,2800 Riverside Drive, indianapolis,Marion County,Indiana,46208,22FMTS270645,39.806671,-86.192041
Downtown Rogers Farmers Market,Fruit and Vegetable Markets,445230,Railyard Park, ROGERS,Benton County,Arkansas,72756,22FMTS270646,36.332762,-94.116
Ohio Valley Farmers' Market,Fruit and Vegetable Markets,445230,3200 Union St, Bellaire,Belmont County,Ohio,43906,22FMTS270647,40.014375,-80.74212
Ohio Valley Farmers' Market,Fruit and Vegetable Markets,445230,67800 Mall Rd, St. Clairsville ,Belmont County,Ohio,43950,22FMTS270648,40.069884,-80.865892
East Boston Farmers On-line Market - Winter/Spring,Fruit and Vegetable Markets,445230,250 Sumner street, East Boston,Suffolk County,Massachusetts,2119,22FMTS270649,42.3313532,-71.076514
General Store Market,Fruit and Vegetable Markets,445230,1327 S. 18th Street, Barron,Barron County,Wisconsin,54812,22FMTS270650,45.402192,-91.844351
"Patch & Pasture, LLC",Fruit and Vegetable Markets,445230,17004 Path Valley Rd, Spring Run,Franklin County,Pennsylvania,17220,22FMTS270651,40.151488,-77.766771
City of St. Clair Shores Farmers Market,Fruit and Vegetable Markets,445230,24800 Jeffereson, St. Clair Shores,Macomb County,Michigan,48080,22FMTS270652,42.6958071,-82.932268
Williamsburg Farmers Market,Fruit and Vegetable Markets,445230,401 W. Francis Street, Williamsburg,Williamsburg city,Virginia,23185,22FMTS270653,37.269293,-76.706717
Shawnee Farmers Market,Fruit and Vegetable Markets,445230,11110 Johnson Drive, Shawnee,Johnson County,Kansas,66218,22FMTS270654,39.017779,-94.805322
Moonlight Market,Fruit and Vegetable Markets,445230,11110 Johnson Drive, Shawnee,Johnson County,Kansas,66218,22FMTS270655,39.017779,-94.805322
Healthway Park Farmers Market,Fruit and Vegetable Markets,445230,4055 South Roy Wilson Way, New Palestine,Hancock County,Indiana,46163,22FMTS270656,39.726276,-85.91723
Superior Farm-to-Fantastic Farmer's Market,Fruit and Vegetable Markets,445230, Main Street, Superior,Pinal County,Arizona,85173,22FMTS270657,33.285146,-111.1103
City of Seven Hills Farmers Market,Fruit and Vegetable Markets,445230,7221 Broadview Road, Seven Hills,Cuyahoga County,Ohio,44131,22FMTS270658,41.369164,-81.684217
North Canton Farmers' Market,Fruit and Vegetable Markets,445230,1000 West Maple St, North Canton,Stark County,Ohio,44720,22FMTS270659,40.875871,-81.417769
Canton Farmers' Market,Fruit and Vegetable Markets,445230,300 Market Ave N, Canton,Stark County,Ohio,44702,22FMTS270660,40.80065,-81.374888
Clay Center Farmers Market,Fruit and Vegetable Markets,445230,720 5th Street, Clay Center,Clay County,Kansas,67432,22FMTS270661,39.376936,-97.126471
Adams County Farmer's Market,Fruit and Vegetable Markets,445230,110 W. Main St. , West Union,Adams County,Ohio,45693,22FMTS270662,38.795296,-83.546357
Galena KS Farmer's Market,Fruit and Vegetable Markets,445230,210 W 7th St, Galena,Cherokee County,Kansas,66739,22FMTS270663,37.075194,-94.635517
Tontitown Farmers' Market,Fruit and Vegetable Markets,445230,235 E. Henri De Tonti Blvd, Tontitown,Washington County,Arkansas,72770,22FMTS270664,36.175764,-94.232501
Athol Farmers Market,Fruit and Vegetable Markets,445230,30355 N 3rd Street, Athol,Kootenai County,Idaho,83801,22FMTS270665,47.944594,-116.7079
Running Springs Farmers Market and Artisan Faire,Fruit and Vegetable Markets,445230,2645 Whispering Pines Drive, Running Springs,San Bernardino County,California,92382,22FMTS270666,34.206855,-117.10491
Webb City Farmers Market,Fruit and Vegetable Markets,445230,106 East Tracy Street, Webb City,Jasper County,Missouri,64870,22FMTS270667,37.140206,-94.462592
Fondy Farmers Market,Fruit and Vegetable Markets,445230,2200 W Fond du Lac Ave, Milwaukee,Milwaukee County,Wisconsin,53206,22FMTS270668,43.061843,-87.939701
Milwaukee Winter Farmers Market,Fruit and Vegetable Markets,445230,524 S Layton Blvd, Milwaukee,Milwaukee County,Wisconsin,53204,22FMTS270669,43.025865,-87.944924
Pleasantville Farmers Market - Outdoor,Fruit and Vegetable Markets,445230,Memorial Plaza (next to the train station), Pleasantville,Westchester County,New York,10570,22FMTS270670,41.135051,-73.793652
Greater Washington County Food Bank Farmers' Market,Fruit and Vegetable Markets,445230,909 National Pike West, Brownsville,Washington County,Pennsylvania,15417,22FMTS270671,40.041867,-79.977907
De Soto Farmers' Market,Fruit and Vegetable Markets,445230,520 N. Main St., DeSoto,Jefferson County,Missouri,63020,22FMTS270672,38.143674,-90.552205
Metuchen Farmers Market,Fruit and Vegetable Markets,445230,New Street and Pearl Street, METUCHEN,Middlesex County,New Jersey,8840,22FMTS270673,40.541112,-74.363008
Fayette County Farmers Market,Fruit and Vegetable Markets,445230,101 E East St, Washington Court House,Fayette County,Ohio,43160,22FMTS270674,39.53886,-83.427938
Gilbert Farmers Market,Fruit and Vegetable Markets,445230,222 N Ash St, Gilbert,Maricopa County,Arizona,85233,22FMTS270675,33.354527,-111.79094
Pontiac Farmers' Market,Fruit and Vegetable Markets,445230,, Pontiac,Livingston County,Illinois,61764,22FMTS270676,40.880177,-88.629562
Morris County Winter Farmers' Market,Fruit and Vegetable Markets,445230,6 Normandy Heights Rd, Morristown,Morris County,New Jersey,7960,22FMTS270677,40.796595,-74.448694
San Antonio Food Bank Farmers' Market,Fruit and Vegetable Markets,445230,5200 Enrique M. Barrera Pkwy, San Antonio,Bexar County,Texas,78227,22FMTS270678,29.418102,-98.59179
Lexington Farmers' Market,Fruit and Vegetable Markets,445230,Worthen Road Practice Field, Lexington,Middlesex County,Massachusetts,2421,22FMTS270679,42.444009,-71.235394
New Braunfels Food Bank Farmers' Market,Fruit and Vegetable Markets,445230,1620 S. Seguin Ave, New Braunfels,Comal County,Texas,78130,22FMTS270680,29.699301,-98.115109
St. Phillips Plaza Market,Fruit and Vegetable Markets,445230,4280 N. Campbell Rd, Tucson,Pima County,Arizona,85718,22FMTS270681,32.285766,-110.94208
Grant Park Farmers Market,Fruit and Vegetable Markets,445230,1040 Grant Street SE, Atlanta,Fulton County,Georgia,30315,22FMTS270682,33.725504,-84.376724
Ponce City Farmers Market on the BeltLine,Fruit and Vegetable Markets,445230,675 Ponce de Leon Ave, Atlanta,Fulton County,Georgia,30306,22FMTS270683,33.772425,-84.364611
Virginia Highland Farmers Market,Fruit and Vegetable Markets,445230,1017 North Highland Avenue NE, Atlanta,Fulton County,Georgia,30306,22FMTS270684,33.782208,-84.354177
White Mountains Market,Fruit and Vegetable Markets,445230,1501 W White Mountain Blvd, Pinetop-Lakeside ,Navajo County,Arizona,85929,22FMTS270685,34.146798,-109.97074
Tosa Farmers Market,Fruit and Vegetable Markets,445230,7720 Harwood Ave, Wauwatosa,Milwaukee County,Wisconsin,53213,22FMTS270686,43.048733,-88.008791
Paola Farmers Market,Fruit and Vegetable Markets,445230,Park Square, Paola ,Miami County,Kansas,66071,22FMTS270687,38.572307,-94.878291
Mission Marquee Plaza Farmers' Market,Fruit and Vegetable Markets,445230,3100 Roosevelt Ave, San Antonio,Bexar County,Texas,78201,22FMTS270688,29.472403,-98.525142
Pica Pica Plaza Farmers' Market,Fruit and Vegetable Markets,445230,910 SE Military Dr, San Antonio,Bexar County,Texas,78201,22FMTS270689,29.472403,-98.525142
WIC Clinic Callaghan Farmers' Market,Fruit and Vegetable Markets,445230,4412 Callaghan Rd, San Antonio,Bexar County,Texas,78201,22FMTS270690,29.472403,-98.525142
WIC Clinic Salinas Farmers' Market,Fruit and Vegetable Markets,445230,630 S General McMullen, San Antonio,Bexar County,Texas,78201,22FMTS270691,29.472403,-98.525142
WIC Clinic Naco-Perrin Farmers' Market,Fruit and Vegetable Markets,445230,4020 Naco Perrin, San Antonio,Bexar County,Texas,78201,22FMTS270692,29.472403,-98.525142
WIC Clinic Pecan Valley Farmers' Market,Fruit and Vegetable Markets,445230,802 Pecan Valley, San Antonio,Bexar County,Texas,78201,22FMTS270693,29.472403,-98.525142
The St. James Farmers Market,Fruit and Vegetable Markets,445230,304 Armstrong Blvd n, St.james,Watonwan County,Minnesota,56081,22FMTS270694,43.9784291,-94.614044
Pretzel Park Farmers Market,Fruit and Vegetable Markets,445230,4300 Silverwood Street, Philadelphia ,Philadelphia County,Pennsylvania,19127,22FMTS270695,40.025446,-75.220985
Russiaville Farmers Market,Fruit and Vegetable Markets,445230,250 N Union St, Russiaville,Howard County,Indiana,46979,22FMTS270696,40.419151,-86.270804
Forest Hills Farmers Market,Fruit and Vegetable Markets,445230,1840 Ardmore Blvd, Pittsburgh,Allegheny County,Pennsylvania,15221,22FMTS270697,40.425019,-79.86111
Birdsboro Farmers Market,Fruit and Vegetable Markets,445230,226 N Water St, Birdsboro,Berks County,Pennsylvania,19508,22FMTS270698,40.262329,-75.810113
Farm to Fork Farmers' Market,Fruit and Vegetable Markets,445230,120 S Kimball Ave, Caldwell,Canyon County,Idaho,83605,22FMTS270699,43.666163,-116.68885
Brookville Farmer's Market,Fruit and Vegetable Markets,445230,116 Main Street, BROOKVILLE,Franklin County,Indiana,47012,22FMTS270700,39.412804,-85.012083
Historic Lewes Farmers Market,Fruit and Vegetable Markets,445230,Dupont and Johnson Avenues, Lewes,Sussex County,Delaware,19958,22FMTS270701,38.772404,-75.147503
North Branch Farmers Market,Fruit and Vegetable Markets,445230,6241 Main Street, North Branch,Chisago County,Minnesota,55056,22FMTS270702,45.510887,-92.982014
Bamberg Farmers Market,Fruit and Vegetable Markets,445230,12205 Heritage Hwy, Bamberg ,Bamberg County,South Carolina,29003,22FMTS270703,33.300136,-81.031222
Burke Area Farmers Market,Fruit and Vegetable Markets,445230,626 County Road, Burke,Gregory County,South Dakota,57523,22FMTS270704,43.185042,-99.299066
Stayton Farmers Market,Fruit and Vegetable Markets,445230,Third Ave & Florence St, Stayton ,Marion County,Oregon,97383,22FMTS270705,44.796453,-122.79192
Backyard Market in Black Forest,Fruit and Vegetable Markets,445230,12530 Black Forest Rd, Colorado Springs,El Paso County,Colorado,80908,22FMTS270706,39.014791,-104.70238
Backyard Market in Black Forest - Winter,Fruit and Vegetable Markets,445230,6845 Shoup Road , Colorado Springs ,El Paso County,Colorado,80908,22FMTS270707,39.013991,-104.69826
Backyard Market in Black Forest - Holiday,Fruit and Vegetable Markets,445230,13710 Black Forest Road , Colorado Springs,El Paso County,Colorado,80908,22FMTS270708,39.029861,-104.70169
Historic Lafayette Farmers Market,Fruit and Vegetable Markets,445230,5th Street, Lafayette,Tippecanoe County,Indiana,47901,22FMTS270709,40.418803,-86.891858
AUSTIN FARMERS MARKET,Fruit and Vegetable Markets,445230,9607 RESEARCH BLVD, AUSTIN,Travis County,Texas,78759,22FMTS270710,30.387094,-97.741448
Round Rock Farmers' Market,Fruit and Vegetable Markets,445230,201 University Oaks Blvd, Round Rock,Williamson County,Texas,78665,22FMTS270711,30.557966,-97.688209
Grove Farm Market,Fruit and Vegetable Markets,445230,4411 Kikowaena St, Lihue,Kauai County,Hawaii,96766,22FMTS270712,21.965378,-159.39557
Wagoner Farmers Market,Fruit and Vegetable Markets,445230,115 S Main Street , Wagoner ,Wagoner County,Oklahoma,74467,22FMTS270713,35.963528,-95.379596
Farmers Market Ogden,Fruit and Vegetable Markets,445230,Historic 25th Street and Grant Avenue, Ogden,Weber County,Utah,84401,22FMTS270714,41.220677,-111.97327
Batavia Farmers' Market,Fruit and Vegetable Markets,445230,North River Street, Batavia,Kane County,Illinois,60510,22FMTS270715,41.851028,-88.306027
Come Thru Market,Fruit and Vegetable Markets,445230,831 SE Salmon St, Portland,Multnomah County,Oregon,97214,22FMTS270716,45.514708,-122.65725
Yucaipa Certified Farmers Market,Fruit and Vegetable Markets,445230,12062 California St, Yucaipa,San Bernardino County,California,92399,22FMTS270717,34.032512,-117.04491
Salinas City Center Certified Organic Farmer's Market,Fruit and Vegetable Markets,445230,Gabilan Street, Salinas,Monterey County,California,93901,22FMTS270718,36.675383,-121.65603
Hollidaysburg Farmers Market,Fruit and Vegetable Markets,445230,Montgomery and Allegheny Street (near the Diamond), Hollidaysburg,Blair County,Pennsylvania,16648,22FMTS270719,40.429065,-78.394591
Newburgh Farmers' Market,Fruit and Vegetable Markets,445230,97 Broadway, Newburgh,Orange County,New York,12550,22FMTS270720,41.49981,-74.011014
Ft. Thomas Farmers Market,Fruit and Vegetable Markets,445230,801 Cochran Ave, Ft. Thomas,Campbell County,Kentucky,41075,22FMTS270721,39.06822,-84.444349
South Orange Farmers Market,Fruit and Vegetable Markets,445230,12 Sloan Street, SOUTH ORANGE,Essex County,New Jersey,7052,22FMTS270722,40.7881258,-74.248205
Northville Farmers Market,Fruit and Vegetable Markets,445230,Corner of 7 Mile and Center Streets, Northville,Wayne County,Michigan,48167,22FMTS270723,42.42637,-83.483407
Harrison City Market,Fruit and Vegetable Markets,445230,121 E. Main Street, Harrison,Clare County,Michigan,48625,22FMTS270724,44.019859,-84.800573
Scituate Farmers Market,Fruit and Vegetable Markets,445230,600 Chief Justice Cushing Hwy, Scituate,Plymouth County,Massachusetts,2066,22FMTS270725,42.19847,-70.769256
Wayne County Farmers Market,Fruit and Vegetable Markets,445230,200 Willow Ave. Route 6, Honesdale ,Wayne County,Pennsylvania,18431,22FMTS270726,41.566626,-75.251698
Titusville Open Air Market,Fruit and Vegetable Markets,445230,11652 Hydetown Road, Titusville,Crawford County,Pennsylvania,16354,22FMTS270727,41.636919,-79.701982
South Waterfront Farmers Market,Fruit and Vegetable Markets,445230,3508 S Moody Avenue, Portland,Multnomah County,Oregon,97239,22FMTS270728,45.496936,-122.67104
Champlain Islands Farmers' Market-Saturday,Fruit and Vegetable Markets,445230,185 US Route 2, Grand Isle,Grand Isle County,Vermont,5474,22FMTS270729,44.7968758,-73.294874
Frankton Town Market,Fruit and Vegetable Markets,445230,102 S Church St, Frankton,Madison County,Indiana,46044,22FMTS270730,40.222745,-85.779261
Oak Hill Hops,Fruit and Vegetable Markets,445230,3051 W STREETSBORO RD, RICHFIELD,Summit County,Ohio,44286,22FMTS270731,41.244993,-81.600093
Kershaw County Farmers Market,Fruit and Vegetable Markets,445230,906 Broad Street, Camden,Kershaw County,South Carolina,29020,22FMTS270732,34.243195,-80.606634
Sparks United Methodist Church Farmer's Market,Fruit and Vegetable Markets,445230,1231 Pyramid Way , Sparks,Washoe County,Nevada,89431,22FMTS270733,39.544248,-119.75339
West Haven Farmers Market,Fruit and Vegetable Markets,445230,355 Main Street, West Haven,New Haven County,Connecticut,6516,22FMTS270734,41.271879,-72.949946
Mt.Washington Farmer's Market,Fruit and Vegetable Markets,445230,320 N.Bardstown rd, Mt.Washington,Bullitt County,Kentucky,40165,22FMTS270735,37.9700281,-85.695776
Placerville Certified Farmers Market,Fruit and Vegetable Markets,445230,337 Placerville Drive, Placerville,El Dorado County,California,95667,22FMTS270736,38.731615,-120.82185
South Lake Tahoe Certified Farmers Market,Fruit and Vegetable Markets,445230,2748 Young Street, South Lake Tahoe ,El Dorado County,California,96150,22FMTS270737,38.927079,-119.98204
El Dorado Hills Town Center Certified Farmers Market,Fruit and Vegetable Markets,445230,Town Center Blvd., El Dorado Hills,El Dorado County,California,95762,22FMTS270738,38.651318,-121.06429
Cameron Park Burke Junction Certified Farmers Market,Fruit and Vegetable Markets,445230,Burke Junction Shopping Certer, Cameron Park,El Dorado County,California,95682,22FMTS270739,38.657829,-120.97361
Tuesday Market in Library Park,Fruit and Vegetable Markets,445230,200 Park Street, Lakeport,Lake County,California,95453,22FMTS270740,39.043583,-122.91387
Saturday Market at Steele,Fruit and Vegetable Markets,445230,4350 Thomas Drive, Finley,Lake County,California,95453,22FMTS270741,38.992994,-122.87531
Albany Square Farmers Market,Fruit and Vegetable Markets,445230,, Albany,Gentry County,Missouri,64402,22FMTS270742,40.247729,-94.333605
Rail Yards Market,Fruit and Vegetable Markets,445230,777 1st street SW, Albuquerque,Bernalillo County,New Mexico,87102,22FMTS270743,35.075615,-106.64902
Farmers Market on Grand Parkway,Fruit and Vegetable Markets,445230,1225 W Grand Parkway S, Katy,Harris County,Texas,77494,22FMTS270744,29.761952,-95.775167
Barm Bargains Market,Fruit and Vegetable Markets,445230,3782 Winding Creek Ln, Garden Valley,El Dorado County,California,95633,22FMTS270745,38.840227,-120.87815
Hana Farmers Market,Fruit and Vegetable Markets,445230,Hana Highway, Hana,Maui County,Hawaii,96713,22FMTS270746,20.750751,-155.98694
Hamilton Park Farmers Market,Fruit and Vegetable Markets,445230,Hamilton Park, Jersey City,Hudson County,New Jersey,7302,22FMTS270747,40.72781,-74.044847
The Wilmington Farmers Market,Fruit and Vegetable Markets,445230,5329 Oleander Dr, Wilmington,New Hanover County,North Carolina,28403,22FMTS270748,34.20895,-77.860425
Elkhart Farmers Market,Fruit and Vegetable Markets,445230,301 NIBCO Parkway, Elkhart,Elkhart County,Indiana,46516,22FMTS270749,41.687093,-85.970818
South Windsor Farmers' Market,Fruit and Vegetable Markets,445230,220 Nevers Rd., South Windsor,Hartford County,Connecticut,6074,22FMTS270750,41.842841,-72.55179
Fuquay-Varina Growers Market,Fruit and Vegetable Markets,445230,121 N Main St., Fuquay-Varina,Wake County,North Carolina,27526,22FMTS270751,35.585512,-78.800147
Delridge Farmers Market,Fruit and Vegetable Markets,445230,9421 18th Ave SW, Seattle,King County,Washington,98106,22FMTS270752,47.518781,-122.35812
Farmers Market Partners,Fruit and Vegetable Markets,445230,5855 Sienna Springs Way,Missouri City,Fort Bend County,Texas,77459,22FMTS270753,29.533266,-95.543858
Algoma Sunday Farmers Market,Fruit and Vegetable Markets,445230,Clark St. and Lake St., Algoma ,Kewaunee County,Wisconsin,54201,22FMTS270754,44.607438,-87.435983
Pahrump Saturday Farmers' Market,Fruit and Vegetable Markets,445230,900 E Hwy 372, Pahrump ,Nye County,Nevada,89048,22FMTS270755,36.205326,-115.9979
New Era Farmers Market,Fruit and Vegetable Markets,445230,1820 Ray Avenue, New Era,Oceana County,Michigan,49446,22FMTS270756,43.559633,-86.347156
Rocky Mount Farmers Market,Fruit and Vegetable Markets,445230,435 Franklin St, Rocky Mount,Franklin County,Virginia,24151,22FMTS270757,36.994866,-79.888073
4 Veggies & 3 Fruits Farmers Market,Fruit and Vegetable Markets,445230,140 W 62nd Street, Chicago ,Cook County,Illinois,60621,22FMTS270758,41.781896,-87.629595
Open Air Farmers Market+ At The Dole Mansion,Fruit and Vegetable Markets,445230,401 Country Club Road, Crystal Lake,McHenry County,Illinois,60014,22FMTS270759,42.232554,-88.335331
Humpday Farmers Market,Fruit and Vegetable Markets,445230,1237 E Main St, Carbondale,Jackson County,Illinois,62901,22FMTS270760,37.730073,-89.193194
Humpday Farmers Market,Fruit and Vegetable Markets,445230,2421 W Main St, Carbondale,Jackson County,Illinois,62901,22FMTS270761,37.731906,-89.247353
Salem Farmers Market,Fruit and Vegetable Markets,445230,32 Derby Square, Salem,Essex County,Massachusetts,1970,22FMTS270762,42.520767,-70.894541
C & C Garden,Fruit and Vegetable Markets,445230,2022 S Scott St, South Bend ,St. Joseph County,Indiana,46613,22FMTS270763,41.657676,-86.26681
Reisterstown Farmers Market,Fruit and Vegetable Markets,445230,120 Main Street, Reisterstown,Baltimore County,Maryland,21136,22FMTS270764,39.465227,-76.8297
Texas Farmers' Market at Mueller,Fruit and Vegetable Markets,445230,2006 Philomena St., Austin,Travis County,Texas,78723,22FMTS270765,30.300107,-97.703135
Pullman Farmers Market,Fruit and Vegetable Markets,445230,150 E Spring St, Pullman,Whitman County,Washington,99163,22FMTS270766,46.729751,-117.17404
QC Farmers' Market,Fruit and Vegetable Markets,445230,1700 1st ave, Rock Island,Rock Island County,Illinois,61201,22FMTS270767,41.51278,-90.576384
The Historic City Market,Fruit and Vegetable Markets,445230,213 Market St SE 3rd Floor, Roanoke,Roanoke city,Virginia,24011,22FMTS270768,37.271606,-79.939064
"Farmers Market of Madison, IN",Fruit and Vegetable Markets,445230,412 West Main Street, Madison ,Jefferson County,Indiana,47250,22FMTS270769,38.737406,-85.382985
Rocky Butte Farmers Market,Fruit and Vegetable Markets,445230,9200 NE Fremont St, Portland,Multnomah County,Oregon,97220,22FMTS270770,45.551352,-122.56801
Main Street Saturday Market,Fruit and Vegetable Markets,445230,South Public Square, Murfreesboro,Rutherford County,Tennessee,37130,22FMTS270771,35.845982,-86.392158
Astoria Sunday Market,Fruit and Vegetable Markets,445230,12th and Commercial St., Astoria,Clatsop County,Oregon,97103,22FMTS270772,46.188719,-123.83015
Berwick Winter Farmers Market,Fruit and Vegetable Markets,445230,11 Sullivan St., Berwick,York County,Maine,3901,22FMTS270773,43.269956,-70.86243
Beaverdale Farmers Market,Fruit and Vegetable Markets,445230,4801 Franklin Avenue, Des Moines,Polk County,Iowa,50310,22FMTS270774,41.612479,-93.68471
Downtown Evanston Farmers Market,Fruit and Vegetable Markets,445230,University Place at Oak Street, Evanston,Cook County,Illinois,60201,22FMTS270775,42.05062,-87.686152
New Harmony Farmers & Artisans Market,Fruit and Vegetable Markets,445230,407 West Tavern St., New Harmony,Posey County,Indiana,47631,22FMTS270776,38.12899,-87.936384
Netcong Community Marketplace/Farmers Market,Fruit and Vegetable Markets,445230,Rt. 46 & Main Street, Netcong,Morris County,New Jersey,7857,22FMTS270777,40.897787,-74.707004
Hwy 80 Produce,Fruit and Vegetable Markets,445230,903 E. US Hwy 80, Clarksville City ,Gregg County,Texas,75693,22FMTS270778,32.528217,-94.8938
Forest Grove Farmers Market,Fruit and Vegetable Markets,445230,2030 Main St, Forest Grove,Washington County,Oregon,97116,22FMTS270779,45.520653,-123.11204
Cornelius Farmers Market,Fruit and Vegetable Markets,445230,1370 N Adair St, Cornelius,Washington County,Oregon,97113,22FMTS270780,45.521314,-123.05516
Pittsburg Area Farmers' Market,Fruit and Vegetable Markets,445230,119 E. 11St., Pittsburg,Crawford County,Kansas,66762,22FMTS270781,37.418249,-94.703397
Nederland Farmers Market,Fruit and Vegetable Markets,445230,80 E. Second St., Nederland ,Boulder County,Colorado,80466,22FMTS270782,39.962418,-105.50892
Sustainable Food Center Farmers' Market Downtown,Fruit and Vegetable Markets,445230,422 Guadalupe St, Austin,Travis County,Texas,78701,22FMTS270783,30.26766,-97.747306
Sustainable Food Center Farmers' Market Sunset Valley,Fruit and Vegetable Markets,445230,3200 Jones Rd, Austin,Travis County,Texas,78745,22FMTS270784,30.230977,-97.807494
Santa Rosa Certified Farmers Market,Fruit and Vegetable Markets,445230,50 Mark West Springs Rd., Santa Rosa ,Sonoma County,California,95403,22FMTS270785,38.495737,-122.75197
Russian River Farmers Market,Fruit and Vegetable Markets,445230,16290 5th St , Guerneville ,Sonoma County,California,95446,22FMTS270786,38.503197,-122.99878
LEAF Food Hub,Fruit and Vegetable Markets,445230,9535 US Hwy 51 N, Cobden,Union County,Illinois,62920,22FMTS270787,37.533392,-89.254353
Palmas Farmers Market,Fruit and Vegetable Markets,445230,170 Canderlero Dr, Humacao,,Puerto Rico,791,22FMTS270788,18.088831,-65.797119
Denton Community Market,Fruit and Vegetable Markets,445230,317 w Mulberry St, Denton,Denton County,Texas,76201,22FMTS270789,33.213317,-97.136334
El Cajon Farmers Market   Non-Certified,Fruit and Vegetable Markets,445230,1051 Greenfield Drive El cajon,El Cajon,San Diego County,California,92021,22FMTS270790,32.801659,-116.96048
Circle Square Commons Farmers Market,Fruit and Vegetable Markets,445230,8445 SW 80th Street, Ocala,Marion County,Florida,34481,22FMTS270791,29.106489,-82.257895
Franklin Park Conservatory and Botanical Gardens Farmers' Market,Fruit and Vegetable Markets,445230,1777 East Broad Street, Columbus,Franklin County,Ohio,43203,22FMTS270792,39.965067,-82.950712
Cape Riverfront Market,Fruit and Vegetable Markets,445230,35 S Spanish Street, Cape Girardeau,Cape Girardeau County,Missouri,63703,22FMTS270793,37.302782,-89.519952
Morningside Farmers Market,Fruit and Vegetable Markets,445230,1411 N. Morningside Drive NE, Atlanta ,Fulton County,Georgia,30306,22FMTS270794,33.793194,-84.356113
The LMH Market,Fruit and Vegetable Markets,445230,1408 Short Eleventh St, Lincoln,Logan County,Illinois,62656,22FMTS270795,40.154175,-89.385624
Latah Farmers Market,Fruit and Vegetable Markets,445230,State Highway 8, Troy,Latah County,Idaho,83871,22FMTS270796,46.736826,-116.77598
Garfield Park Neighborhood Market - Indoor Season,Fruit and Vegetable Markets,445230,135 N Kedzie Ave., Chicago,Cook County,Illinois,60612,22FMTS270797,41.883908,-87.705713
Seaside Farmers Market,Fruit and Vegetable Markets,445230,1140 Broadway, Seaside,Clatsop County,Oregon,97138,22FMTS270798,45.993667,-123.91986
Fernley Poolside Farmers Market,Fruit and Vegetable Markets,445230,300 Cottonwood Lane, Fernley,Lyon County,Nevada,89408,22FMTS270799,39.594402,-119.24733
Farmers Market - Covington,Fruit and Vegetable Markets,445230,301 4th St , Covington ,Fountain County,Indiana,47932,22FMTS270800,40.137063,-87.39709
Olde Pickerington Farmers' Market,Fruit and Vegetable Markets,445230,89 N Center St , Pickerington,Fairfield County,Ohio,43147,22FMTS270801,39.886046,-82.754075
St. John Farmers Market,Fruit and Vegetable Markets,445230,9660 Wicker Avenue, St. John,Lake County,Indiana,46373,22FMTS270802,41.444077,-87.468144
Snookz block mini market,Fruit and Vegetable Markets,445230,225 Elm St, Santa Paula,Ventura County,California,93060,22FMTS270803,34.342681,-119.08404
Ferndale Farmers Market,Fruit and Vegetable Markets,445230,27021 Kanis Rd, Little Rock,Pulaski County,Arkansas,72223,22FMTS270804,34.776925,-92.556803
Gateway Farmers Market,Fruit and Vegetable Markets,445230,602 East Jefferson Ave, Texarkana ,Miller County,Arkansas,71854,22FMTS270805,33.430713,-94.029739
Fort Smith Farmer's Market,Fruit and Vegetable Markets,445230,2nd and Gartison Ave, Fort Smith ,Sequoyah County,Arkansas,72901,22FMTS270806,35.534732,-94.80361
Lanark Farmers Market,Fruit and Vegetable Markets,445230,101 N Broad St, Lanark,Carroll County,Illinois,61046,22FMTS270807,42.102271,-89.832636
One African! One Nation! Farmers Market,Fruit and Vegetable Markets,445230,4031 W. Florissant Ave., St Louis,St. Louis city,Missouri,63107,22FMTS270808,38.674084,-90.218914
Pendleton Indiana Farmers Market,Fruit and Vegetable Markets,445230,Falls Park Drive, Pendleton ,Madison County,Indiana,46064,22FMTS270809,40.005635,-85.744734
Albany Farmers' Market,Fruit and Vegetable Markets,445230,4th & Ellsworth, Albany,Linn County,Oregon,97321,22FMTS270810,44.635052,-123.10609
Corvallis Farmers' Market,Fruit and Vegetable Markets,445230,1st & Jackson, Corvallis,Benton County,Oregon,97330,22FMTS270811,44.564828,-123.25824
Searcy County Farmers Market,Fruit and Vegetable Markets,445230,200 W Fair Street, Marshall,Searcy County,Arkansas,72650,22FMTS270812,35.911945,-92.632893
Tenino Farmers Market,Fruit and Vegetable Markets,445230,po Box 554, Tenino,Thurston County,Washington,98589,22FMTS270813,46.853829,-122.86037
Harlingen Farmers Market,Fruit and Vegetable Markets,445230,218 E Tyler Ave, Harlingen,Cameron County,Texas,78550,22FMTS270814,26.189375,-97.694079
South Collier Farmer's Market,Fruit and Vegetable Markets,445230,6060 Collier Blvd, Naples,Collier County,Florida,34114,22FMTS270815,26.045266,-81.698398
Easthampton Farmers' Market,Fruit and Vegetable Markets,445230,50 Payson Ave, Easthampton,Hampshire County,Massachusetts,1027,22FMTS270816,42.265213,-72.669332
Oswego Country Market,Fruit and Vegetable Markets,445230,15 Main Street, Oswego,Kendall County,Illinois,60543,22FMTS270817,41.684774,-88.351584
Seward Farmer's Market,Fruit and Vegetable Markets,445230,529 Seward St, Seward,Seward County,Nebraska,68434,22FMTS270818,40.907721,-97.098509
The Market at White River State Park,Fruit and Vegetable Markets,445230,801 W Washington St., Indianapolis,Marion County,Indiana,46204,22FMTS270819,39.767371,-86.171313
Hyde Park Farmers' Market,Fruit and Vegetable Markets,445230,2700 Erie Avenue, Cincinnati,Hamilton County,Ohio,45208,22FMTS270820,39.139569,-84.442416
Hope & Main's Schoolyard Market,Fruit and Vegetable Markets,445230,691 Main Street, Warren,Bristol County,Rhode Island,2885,22FMTS270821,41.725289,-71.28193
Scituate Rotary Farmers Market,Fruit and Vegetable Markets,445230,46 Institute Lane, North Scituate,Providence County,Rhode Island,2857,22FMTS270822,41.848902,-71.579083
Newcastle Farmers Market,Fruit and Vegetable Markets,445230,, Newcastle,Weston County,Wyoming,82701,22FMTS270823,43.849469,-104.18498
Weaver Library Farmers' Market,Fruit and Vegetable Markets,445230,41 Grove Avenue, East Providence,Providence County,Rhode Island,2914,22FMTS270824,41.818333,-71.37757
Hope Street Farmers Market,Fruit and Vegetable Markets,445230,1015 Hope St, Providence ,Providence County,Rhode Island,2906,22FMTS270825,41.799956,-71.356584
Marion Farmers Market,Fruit and Vegetable Markets,445230,2200 31st St, Marion,Linn County,Iowa,52302,22FMTS270826,42.044309,-91.580645
Navarro Farm,Fruit and Vegetable Markets,445230,22155 S.104th Ave., Frankfort,Will County,Illinois,60423,22FMTS270827,41.488007,-87.867562
PC Sunday Farmers Market,Fruit and Vegetable Markets,445230,Madison Street, Port Clinton ,Ottawa County,Ohio,43452,22FMTS270828,41.512209,-82.941236
Pike Farmers Market,Fruit and Vegetable Markets,445230,5429 Lafayette Road, Indianapolis,Marion County,Indiana,46254,22FMTS270829,39.849755,-86.258818
Aquidneck Growers Market- Saturday Summer,Fruit and Vegetable Markets,445230,35 Dexter St, Newport,Newport County,Rhode Island,2840,22FMTS270830,41.509123,-71.304555
Aquidneck Growers Market Miantonomi Community Farmers Market,Fruit and Vegetable Markets,445230,120 Hillside Avenue, Newport,Newport County,Rhode Island,2840,22FMTS270831,41.509894,-71.30979
Farmers Market - Covington,Fruit and Vegetable Markets,445230,301 4th St, Covington ,Fountain County,Indiana,47932,22FMTS270832,40.13712,-87.39697
Martin Farmers Market,Fruit and Vegetable Markets,445230,101 Main Street, Martin,Weakley County,Tennessee,38237,22FMTS270833,36.3430031,-88.850455
Kenosha Public Market,Fruit and Vegetable Markets,445230,625 52nd Street, Kenosha,Kenosha County,Wisconsin,53140,22FMTS270834,42.587876,-87.820499
King Street Farmers Market,Fruit and Vegetable Markets,445230,126 Poplar Grove Connector, Boone,Watauga County,North Carolina,28607,22FMTS270835,36.2198305,-81.6931234
Boone Winter Farmers Market,Fruit and Vegetable Markets,445230,252 Poplar Grove Road, Boone,Watauga County,North Carolina,28607,22FMTS270836,36.2204478,-81.6887158
The Chapel Hill Farmers' Market,Fruit and Vegetable Markets,445230,201 South Estes Drive, Chapel Hill,Orange County,North Carolina,27514,22FMTS270837,35.927587,-79.026717
Richfield Farmers Market,Fruit and Vegetable Markets,445230,6335 Portland Avenue, Richfield,Hennepin County,Minnesota,55423,22FMTS270838,44.8883623,-93.266024
Richfield Winter Market,Fruit and Vegetable Markets,445230,7000 Nicollet Ave, Richfield,Hennepin County,Minnesota,55423,22FMTS270839,44.876064,-93.278795
Danbury Farmers\' Market,Fruit and Vegetable Markets,445230,1 Patriot Drive, Danbury,Fairfield County,Connecticut,6810,22FMTS270840,41.3961518,-73.4487846
Gray Street Farmers Market,Fruit and Vegetable Markets,445230,400 East Gray Street, Louisville,Jefferson County,Kentucky,40202,22FMTS270841,38.2460179,-85.746515
Duvall Farmers Market,Fruit and Vegetable Markets,445230,16201 Main St. NE at Taylor Landing, Duvall,King County,Washington,98019,22FMTS270842,47.744679,-121.98641
Hood River Farmers Market,Fruit and Vegetable Markets,445230,501 Columbia Street, Hood River,Hood River County,Oregon,97031,22FMTS270843,45.70978,-121.515977
Eat Drink RI Market at Blackbird Farm,Fruit and Vegetable Markets,445230,660 Douglas Pike, Smithfield,Providence County,Rhode Island,2917,22FMTS270844,41.901787,-71.505011
Koreshan State Park Farmers Market,Fruit and Vegetable Markets,445230,Koreshan State Park, 3800 Corkscrew Rd,Lee County,Florida,33928,22FMTS270845,26.434777,-81.8156127
Waterfront Farmers Market of Gig Harbor,Fruit and Vegetable Markets,445230,3211 Harborview Drive, Gig Harbor ,,Washington,98335,22FMTS270846,47.330952,-122.58127
Lilburn Farmers Market,Fruit and Vegetable Markets,445230,1400 Killian Hill Rd, Lilburn,Gwinnett County,Georgia,30047,22FMTS270847,33.859588,-84.081093
Mountain Fresh Oakland Farmers Market,Fruit and Vegetable Markets,445230,5 Town Park Lane, Oakland,Garrett County,Maryland,21550,22FMTS270848,39.408747,-79.409554
Walnut Creek Certified Farmers\' Market,Fruit and Vegetable Markets,445230,1799 Locust Street, Walnut Creek,Contra Costa County,California,94596,22FMTS270849,37.902666,-122.04047
Orinda Famers Market,Fruit and Vegetable Markets,445230,28 Orinda Way , Orinda ,Contra Costa County,California,94563,22FMTS270850,37.882764,-122.17454
Historic Lewes Farmers Market,Fruit and Vegetable Markets,445230,36707 Crooked Hammock Way, Lewes,Sussex County,Delaware,19958,22FMTS270851,38.746394,-75.150657
Historic Lewes Farmers Market,Fruit and Vegetable Markets,445230,820 Savannah Road, Lewes,Sussex County,Delaware,19958,22FMTS270852,38.7700964,-75.1435337
Battle Creek Farmers Market,Fruit and Vegetable Markets,445230,25 S McCamly St, Battle Creek,Calhoun County,Michigan,49017,22FMTS270853,42.32009,-85.18515
St. Louis Farmers Market,Fruit and Vegetable Markets,445230,300 North Mill Street, St. Louis,Gratiot County,Michigan,48880,22FMTS270854,43.410742,-84.608462
Hope Farms First Wednesday Market,Fruit and Vegetable Markets,445230,10401 Scott Street, Houston,Harris County,Texas,77051,22FMTS270855,29.6467189,-95.368292
Camellia City Farmers Market,Fruit and Vegetable Markets,445230,333 Erlanger Ave. (corner of 3rd. St.), Olde Towne Slidell,St. Tammany Parish,Louisiana,70458,22FMTS270856,30.275994,-89.780754
Bloomington Winter Farmers\' Market,Fruit and Vegetable Markets,445230,1601 S Rogers St, Bloomington,Monroe County,Indiana,47403,22FMTS270857,39.149906,-86.539649
Downtown Novato Community Farmers Market,Fruit and Vegetable Markets,445230,7th Street behind the CVS between Grant Ave & Novato Blvd , Novato ,Marin County,California,94947,22FMTS270858,38.107536,-122.57874
Fairfax Community Farmers\' Market,Fruit and Vegetable Markets,445230,142 Bolinas Road, Fairfax,Marin County,California,94930,22FMTS270859,37.9853196,-122.5905814
The Springs Community Farmers\' Market,Fruit and Vegetable Markets,445230,Parking lot at Boyes Blvd & Hwy 12, Boyes Hot Springs ,Sonoma County,California,95476,22FMTS270860,38.31433,-122.48205
Santa Rosa Community Farmers Market at the Veterans Building,Fruit and Vegetable Markets,445230,1501 Farmers Lane , Santa Rosa ,Sonoma County,California,95404,22FMTS270861,38.434379,-122.68939
Petaluma Evening Farmers\' Market,Fruit and Vegetable Markets,445230,175 Fairgrounds Drive, Petaluma,Sonoma County,California,94952,22FMTS270862,38.2420797,-122.6302082
Petaluma Farmers Market,Fruit and Vegetable Markets,445230,Petaluma Blvd S and D St, Petaluma ,Sonoma County,California,94952,22FMTS270863,38.231796,-122.63679
The Petaluma East Side Farmers\' Market,Fruit and Vegetable Markets,445230,320 N McDowell Blvd, Petaluma ,Sonoma County,California,94954,22FMTS270864,38.252337,-122.63089
Cotati Community Farmers Market,Fruit and Vegetable Markets,445230,Old Redwood Hwy and W Sierra, Cotati ,Sonoma County,California,94931,22FMTS270865,38.326544,-122.70729
Rohnert Park Farmers\' Market,Fruit and Vegetable Markets,445230,500 City Center Dr , Rohnert Park ,Sonoma County,California,94928,22FMTS270866,38.349284,-122.70394
Troy Waterfront Farmers Market,Fruit and Vegetable Markets,445230,Monument Square, Troy,Rensselaer County,New York,12180,22FMTS270867,42.7316427,-73.6916048
Good Local Markets White Rock Farmers Market,Fruit and Vegetable Markets,445230,1450 Old Gate Lane, Dallas,Dallas County,Texas,75218,22FMTS270868,32.8248108,-96.7034198
Lakewood Village Farmers Market,Fruit and Vegetable Markets,445230,6434 E Mockingbird Lane, Dallas,Dallas County,Texas,75218,22FMTS270869,32.835725,-96.751083
Huntley Farmers Market,Fruit and Vegetable Markets,445230,11712 Coral Street, Huntley,McHenry County,Illinois,60142,22FMTS270870,42.168577,-88.424435
Evart Farmers\' Market,Fruit and Vegetable Markets,445230,200 South Main Street, Evart,Osceola County,Michigan,49631,22FMTS270871,43.899648,-85.259592
Galena KS Farmer\'s Market,Fruit and Vegetable Markets,445230,210 W 7th St, Galena,Cherokee County,Kansas,66739,22FMTS270872,37.074792,-94.640914
Charles City Farmers Market,Fruit and Vegetable Markets,445230,300 N Main St, Charles City,Floyd County,Iowa,50616,22FMTS270873,43.068022,-92.6776165
FRESHFARM Arlington Market,Fruit and Vegetable Markets,445230,1400 N Courthouse Rd, Arlington,Arlington County,Virginia,22201,22FMTS270874,38.8897553,-77.0840474
Siloam Springs Farmers Market ,Fruit and Vegetable Markets,445230,311 South Mount Olive Street, Siloam Springs,Benton County,Arkansas,72761,22FMTS270875,36.1828276,-94.5408272
Corvallis Indoor Winter Market,Fruit and Vegetable Markets,445230,110 Southwest 53rd Street, Corvallis,Benton County,Oregon,97370,22FMTS270876,44.5682522,-123.3133643
Roseland Mercadito Farmers' Market,Fruit and Vegetable Markets,445230,665 Sebastopol Road, Santa Rosa,Sonoma County,California,95407,22FMTS270877,38.430669,-122.728721
South Valley Farmers Market,Fruit and Vegetable Markets,445230,North 7th Street & East Main Street, Cottage Grove,Lane County,Oregon,97424,22FMTS270878,43.7972757,-123.06096
Riverside Farmers\' Market,Fruit and Vegetable Markets,445230,10 Pine Ave., Riverside,Cook County,Illinois,60546,22FMTS270879,41.8277856,-87.820102
Dimondale Farmers\' Market,Fruit and Vegetable Markets,445230,136 N Bridge St, Dimondale,Eaton County,Michigan,48821,22FMTS270880,42.646201,-84.647388
Columbia Farmers Market,Fruit and Vegetable Markets,445230,1769 West Ash Street, Columbia,Boone County,Missouri,65203,22FMTS270881,38.958293,-92.364624
Fulshear Farmers\' Market,Fruit and Vegetable Markets,445230,9035 Bois d\'Arc Lane, Fulshear ,Fort Bend County,Texas,77406,22FMTS270882,29.690226,-95.888475
Downtown Bloomington Farmers Market,Fruit and Vegetable Markets,445230,200 N. Main, Bloomington,McLean County,Illinois,61701,22FMTS270883,40.480014,-88.994107
Dorey Park Farmers Market,Fruit and Vegetable Markets,445230,2999 Darbytown Road, Henrico,Richmond city,Virginia,23231,22FMTS270884,37.5380571,-77.405887
CAVE SPRING FARMERS MARKET,Fruit and Vegetable Markets,445230,6770 Cave Spring Road Southwest, Cave Spring,Floyd County,Georgia,30124,22FMTS270885,34.1332366,-85.3086334
Alexandria Farmers Market,Fruit and Vegetable Markets,445230,2727 JACKSON STREET, Alexandria ,Rapides Parish,Louisiana,71301,22FMTS270886,31.294467,-92.466488
Decorah Farmers Market,Fruit and Vegetable Markets,445230,Heivly Street, Decorah,Winneshiek County,Iowa,52101,22FMTS270887,43.301618,-91.78475
Healthy New Albany Farmers Market,Fruit and Vegetable Markets,445230,200 Market Square, New Albany,Franklin County,Ohio,43054,22FMTS270888,40.083073,-82.798908
Healthy New Albany Indoor Farmers Market,Fruit and Vegetable Markets,445230,150 W Main St, New Albany,Franklin County,Ohio,43054,22FMTS270889,40.083073,-82.798908
Wytheville Farmers Market,Fruit and Vegetable Markets,445230,210 W. Spring Street, Wytheville ,Wythe County,Virginia,24382,22FMTS270130,36.9486397,-81.083367
Yardley Farmers Market,Fruit and Vegetable Markets,445230,Buttonwood Drive, Yardley borough,Bucks County,Pennsylvania,19067,22FMTS270165,40.240829,-74.839997
Brattleboro Winter Farmers' Market,Fruit and Vegetable Markets,445230,,Morrisville village,Lamoille County,Vermont,5661,22FMTS270892,44.5588028,-72.5778415
FRESHFARM Columbia Heights (Saturday) ,Fruit and Vegetable Markets,445230,Park Rd NW & 14th St NW, Washington,District of Columbia,District of Columbia,20010,22FMTS270893,38.9302925,-77.0327462
Coffee Creek Farmers Market,Fruit and Vegetable Markets,445230,178 E Sidewalk Rd., Chesterton,,Indiana,46304,22FMTS270894,,
FRESHFARM Foggy Bottom,Fruit and Vegetable Markets,445230,901 23rd St NW, Washington,District of Columbia,District of Columbia,20052,22FMTS270895,38.9004805,-77.0505776
FRESHFARM H St NE,Fruit and Vegetable Markets,445230,800 13th St NE, Washington,District of Columbia,District of Columbia,20002,22FMTS270896,38.9007086,-76.9883903
FRESHFARM Downtown Silver Spring,Fruit and Vegetable Markets,445230,1 Veterans Pl, Silver Spring,Montgomery County,Maryland,20910,22FMTS270897,38.9974686,-77.0245554
Grove Street farmers Market,Fruit and Vegetable Markets,445230,1001 Northwest 4th Street, Gainesville,Alachua County,Florida,32601,22FMTS270898,29.6613472,-82.3284448
FRESHFARM Monroe Street ,Fruit and Vegetable Markets,445230,716 Monroe St NE, Washington,District of Columbia,District of Columbia,20017,22FMTS270899,38.9323776,-76.994985
FRESHFARM Mosaic (Sunday),Fruit and Vegetable Markets,445230,2920 District Ave, Fairfax,Fairfax County,Virginia,22031,22FMTS270900,38.8714011,-77.2307258
FRESHFARM Mount Vernon Triangle,Fruit and Vegetable Markets,445230,499 I St NW, Washington,District of Columbia,District of Columbia,20001,22FMTS270901,38.9013863,-77.0190138
FRESHFARM Oakton,Fruit and Vegetable Markets,445230,2951 Chain Bridge Rd, Oakton,Fairfax County,Virginia,22124,22FMTS270902,38.880203,-77.3013443
Yellow Green Farmers Market,Fruit and Vegetable Markets,445230,1940 North 30th Road, Hollywood,Broward County,Florida,33021,22FMTS269950,26.03026,-80.169243
FRESHFARM Reston,Fruit and Vegetable Markets,445230,11900 Lawyers Rd, Reston,Fairfax County,Virginia,20191,22FMTS270904,38.9242303,-77.3581045
Golden Villa Farmers' Market,Fruit and Vegetable Markets,445230,255 S Sutter St, Stockton,,California,95203,22FMTS270905,,
Audubon Farmers Market,Fruit and Vegetable Markets,445230,2844 Johnson St NE, Minneapolis,Hennepin County,Minnesota,55418,22FMTS270906,45.0199925,-93.2374381
FRESHFARM Dupont Circle (Sunday),Fruit and Vegetable Markets,445230,1600 20th St NW, Washington,District of Columbia,District of Columbia,20009,22FMTS270907,38.9112925,-77.045201
Zebulon Farm Fresh Market,Fruit and Vegetable Markets,445230,103 N Arendell Ave, Zebulon,Wake County,North Carolina,27597,22FMTS270283,35.821835,-78.314111
