Name,NAICS Code Description,NAICS Code,Address,City,County,State,Zip Code,Phone,Website,UniqueID
2nd II None TRAnsport&logistics LLC,Refrigerated Warehousing and Storage,493120,2052 Fran Dr,Las Cruces,Dona Ana,NM,88007,5754056267,,22RWDS270109
32 Cold,Refrigerated Warehousing and Storage,493120,7034 Riverboat Dr,Eastvale,Riverside,CA,91752,9099693583,www.32-cold-services-and-solutions.com,22RWDS270412
"32 Cold, LLC",Refrigerated Warehousing and Storage,493120,6020 Sheila St,Commerce,Los Angeles,CA,90040,3232780094,www.32-cold-services-and-solutions.com,22RWDS270375
"32 Cold, LLC",Refrigerated Warehousing and Storage,493120,6700 S Alameda St,Huntington Park,Los Angeles,CA,90255,3232779225,www.32-cold-services-and-solutions.com,22RWDS270401
A and F Distributing Corporation,Refrigerated Warehousing and Storage,493120,1457 N Main St,Los Angeles,Los Angeles,CA,90012,3232258321,www.afproduce.com,22RWDS270031
A Leap of Faith Transportation,Refrigerated Warehousing and Storage,493120,3304 Race St,Fort Worth,Tarrant,TX,76111,8178292432,,22RWDS270240
"Achieve Global Logistics, LLC",Refrigerated Warehousing and Storage,493120,113 S Columbus St Ste 100,Alexandria,Alexandria city,VA,22314,7036069005,,22RWDS269974
Advanced Cold Storage International LLC,Refrigerated Warehousing and Storage,493120,7965 S Dowling Lake Rd E,Superior,Douglas,WI,54880,7153986357,www.advancedcoldstorage.com,22RWDS270439
Affiliated Warehouse Companies Inc,Refrigerated Warehousing and Storage,493120,22981 Canyon Lake Dr N,Canyon Lake,Riverside,CA,92587,,www.awco.com,22RWDS270141
Affordable Delta Storage,Refrigerated Warehousing and Storage,493120,1109 Main St,Delta,Delta,CO,81416,9708740101,www.deltastorage.net,22RWDS269968
Agro Merchants North America Holdings LLC,Refrigerated Warehousing and Storage,493120,220 Nordic Way,Pooler,Chatham,GA,31322,9129885891,www.agromerchants.com,22RWDS270130
"Agro Merchants Oakland, LLC",Refrigerated Warehousing and Storage,493120,1145 Sanctuary Pkwy # 150,Alpharetta,Fulton,GA,30009,5108787055,,22RWDS269976
All Medical Cold Storage LLC,Refrigerated Warehousing and Storage,493120,1410 Carroll Ave,Saint Paul,Ramsey,MN,55104,6516450398,,22RWDS270021
Allegheny Cold Storage Company Inc,Refrigerated Warehousing and Storage,493120,16 57th St,Pittsburgh,Allegheny,PA,15201,4127823670,www.alleghenycoldstorage.com,22RWDS270047
"Allentown Refrigerated Terminals, Inc.",Refrigerated Warehousing and Storage,493120,125 Seneca Trl,Boyertown,Berks,PA,19512,6103672174,,22RWDS269997
Alvin & Constance Holman,Refrigerated Warehousing and Storage,493120,1201 Poe St,Wenatchee,Chelan,WA,98801,5097823018,,22RWDS269986
America Cold Storage,Refrigerated Warehousing and Storage,493120,800 Broadway,Vineland,Cumberland,NJ,08360,8568392095,,22RWDS270444
American Automated Warehouses LLC,Refrigerated Warehousing and Storage,493120,297 Kingsbury Grade # 100,Stateline,Douglas,NV,89449,7202720628,,22RWDS270208
"American Cold Storage-North America, L.P.",Refrigerated Warehousing and Storage,493120,100 Lee St,Jackson,Madison,TN,38301,7314227100,www.americancold.com,22RWDS269923
Americold Logistics LLC,Refrigerated Warehousing and Storage,493120,2007 W Mary St,Garden City,Finney,KS,67846,6202762304,www.americold.com,22RWDS270101
"Americold Logistics, LLC",Refrigerated Warehousing and Storage,493120,10 Glenlake Pkwy Ste 324,Atlanta,Fulton,GA,30328,6784411400,www.americold.com,22RWDS269916
"Americold Logistics, LLC",Refrigerated Warehousing and Storage,493120,10 W Magnolia Blvd,Burbank,Los Angeles,CA,91502,,www.americold.com,22RWDS269918
"Americold Logistics, LLC",Refrigerated Warehousing and Storage,493120,100 Widett Cir,Boston,Suffolk,MA,02118,6172696330,www.americold.com,22RWDS269925
"Americold Logistics, LLC",Refrigerated Warehousing and Storage,493120,1000 Arctic Ave,Zumbrota,Goodhue,MN,55992,5077324224,www.americold.com,22RWDS269926
"Americold Logistics, LLC",Refrigerated Warehousing and Storage,493120,1115 W Rose St,Walla Walla,Walla Walla,WA,99362,5095257010,www.americold.com,22RWDS269970
"Americold Logistics, LLC",Refrigerated Warehousing and Storage,493120,1200 N Old Missouri Rd,Springdale,Washington,AR,72764,4797562044,www.americold.com,22RWDS269985
"Americold Logistics, LLC",Refrigerated Warehousing and Storage,493120,1211 Pump Station Rd,Kannapolis,Cabarrus,NC,28081,7049326119,www.americold.com,22RWDS269991
"Americold Logistics, LLC",Refrigerated Warehousing and Storage,493120,1301 26th Ave E,Tacoma,Pierce,WA,98424,2536207289,www.americold.com,22RWDS270005
"Americold Logistics, LLC",Refrigerated Warehousing and Storage,493120,1331 Civil War Ave,Carthage,Jasper,MO,64836,4173589027,www.americold.com,22RWDS270013
"Americold Logistics, LLC",Refrigerated Warehousing and Storage,493120,1415 N Raymond Ave,Anaheim,Orange,CA,92801,,www.americold.com,22RWDS270024
"Americold Logistics, LLC",Refrigerated Warehousing and Storage,493120,1420 Greenwood Rd,McDonough,Henry,GA,30253,,www.americold.com,22RWDS270025
"Americold Logistics, LLC",Refrigerated Warehousing and Storage,493120,1440 Silverton Rd,Woodburn,Marion,OR,97071,5039813911,www.americold.com,22RWDS270030
"Americold Logistics, LLC",Refrigerated Warehousing and Storage,493120,1646 S 4490 W,Salt Lake City,Salt Lake,UT,84104,8016062488,www.americold.com,22RWDS270060
"Americold Logistics, LLC",Refrigerated Warehousing and Storage,493120,1680 Candler Rd,Gainesville,Hall,GA,30507,7705319800,www.americold.com,22RWDS270069
"Americold Logistics, LLC",Refrigerated Warehousing and Storage,493120,1731 Morrow St,Green Bay,Brown,WI,54302,9204688311,www.americold.com,22RWDS270072
"Americold Logistics, LLC",Refrigerated Warehousing and Storage,493120,1845 Westgate Pkwy SW,Atlanta,Fulton,GA,30336,4046292430,www.americold.com,22RWDS270077
"Americold Logistics, LLC",Refrigerated Warehousing and Storage,493120,2006 Industrial Blvd,Douglas,Coffee,GA,31533,9123843397,www.americold.com,22RWDS270100
"Americold Logistics, LLC",Refrigerated Warehousing and Storage,493120,2130 Old Georgia Hwy,Gaffney,Cherokee,SC,29340,8644880880,www.americold.com,22RWDS270119
"Americold Logistics, LLC",Refrigerated Warehousing and Storage,493120,214 Industrial Dr,Greenville,Greenville,SC,29607,8642336795,www.americold.com,22RWDS270120
"Americold Logistics, LLC",Refrigerated Warehousing and Storage,493120,230 Collins Rd,Jefferson,Jefferson,WI,53549,9206743035,www.americold.com,22RWDS270142
"Americold Logistics, LLC",Refrigerated Warehousing and Storage,493120,2300 E Rice St,Sioux Falls,Minnehaha,SD,57103,,www.americold.com,22RWDS270143
"Americold Logistics, LLC",Refrigerated Warehousing and Storage,493120,240 Chester St,Saint Paul,Ramsey,MN,55107,6512270741,www.americold.com,22RWDS270156
"Americold Logistics, LLC",Refrigerated Warehousing and Storage,493120,2500 Rose Pkwy,Sikeston,Scott,MO,63801,5734717727,www.americold.com,22RWDS270167
"Americold Logistics, LLC",Refrigerated Warehousing and Storage,493120,2524 Exchange Ave,Oklahoma City,Oklahoma,OK,73108,4052354444,www.americold.com,22RWDS270172
"Americold Logistics, LLC",Refrigerated Warehousing and Storage,493120,2525 Bergey Rd,Hatfield,Montgomery,PA,19440,2157210700,www.americold.com,22RWDS270173
"Americold Logistics, LLC",Refrigerated Warehousing and Storage,493120,2707 N Mead St,Wichita,Sedgwick,KS,67219,3168389317,www.americold.com,22RWDS270190
"Americold Logistics, LLC",Refrigerated Warehousing and Storage,493120,2750 Orbiter St,Brea,Orange,CA,92821,7149933533,,22RWDS270192
"Americold Logistics, LLC",Refrigerated Warehousing and Storage,493120,291 Park Center Dr,Winchester,Frederick,VA,22603,5405457559,www.americold.com,22RWDS270206
"Americold Logistics, LLC",Refrigerated Warehousing and Storage,493120,301 S Walnut St,Burlington,Skagit,WA,98233,3607550651,www.americold.com,22RWDS270213
"Americold Logistics, LLC",Refrigerated Warehousing and Storage,493120,302 N Frontage Rd,Plant City,Hillsborough,FL,33563,8137549341,www.americold.com,22RWDS270214
"Americold Logistics, LLC",Refrigerated Warehousing and Storage,493120,3245 Road N Ne,Moses Lake,Grant,WA,98837,5097657838,www.americold.com,22RWDS270235
"Americold Logistics, LLC",Refrigerated Warehousing and Storage,493120,3543 Maple Dr,Fort Dodge,Webster,IA,50501,5159553505,www.americold.com,22RWDS270248
"Americold Logistics, LLC",Refrigerated Warehousing and Storage,493120,380 Willow Springs Ln,York,York,PA,17406,7177645630,www.americold.com,22RWDS270255
"Americold Logistics, LLC",Refrigerated Warehousing and Storage,493120,3800 Garman Rd,Salem,Salem city,VA,24153,,www.americold.com,22RWDS270256
"Americold Logistics, LLC",Refrigerated Warehousing and Storage,493120,3800 Hempland Rd,Mountville,Lancaster,PA,17554,7172854444,www.americold.com,22RWDS270257
"Americold Logistics, LLC",Refrigerated Warehousing and Storage,493120,3801 E Princess Anne Rd,Norfolk,Norfolk city,VA,23502,,www.americold.com,22RWDS270258
"Americold Logistics, LLC",Refrigerated Warehousing and Storage,493120,4095 Portland Rd Ne,Salem,Marion,OR,97301,5033631645,www.americold.com,22RWDS270284
"Americold Logistics, LLC",Refrigerated Warehousing and Storage,493120,455 John Hancock Rd,Taunton,Bristol,MA,02780,5085134400,www.americold.com,22RWDS270308
"Americold Logistics, LLC",Refrigerated Warehousing and Storage,493120,455 S 75th Ave,Phoenix,Maricopa,AZ,85043,,www.americold.com,22RWDS270309
"Americold Logistics, LLC",Refrigerated Warehousing and Storage,493120,502 N Broadway St,La Porte,Harris,TX,77571,2814710072,www.americold.com,22RWDS270335
"Americold Logistics, LLC",Refrigerated Warehousing and Storage,493120,5140 Catron Dr,Dallas,Dallas,TX,75227,2143812653,www.americold.com,22RWDS270342
"Americold Logistics, LLC",Refrigerated Warehousing and Storage,493120,525 S Kilroy Rd,Turlock,Stanislaus,CA,95380,2096683802,www.americold.com,22RWDS270347
"Americold Logistics, LLC",Refrigerated Warehousing and Storage,493120,533 Laney Walker Blvd EXT,Augusta,Richmond,GA,30901,7067220259,www.americold.com,22RWDS270351
"Americold Logistics, LLC",Refrigerated Warehousing and Storage,493120,5787 W Harold Gatty Dr,Salt Lake City,Salt Lake,UT,84116,,www.americold.com,22RWDS270366
"Americold Logistics, LLC",Refrigerated Warehousing and Storage,493120,6150 Xavier Dr SW,Atlanta,Fulton,GA,30336,,www.americold.com,22RWDS270382
"Americold Logistics, LLC",Refrigerated Warehousing and Storage,493120,6765 Imron Dr,Belvidere,Boone,IL,61008,8155445200,www.americold.com,22RWDS270402
"Americold Logistics, LLC",Refrigerated Warehousing and Storage,493120,6875 State St,Bettendorf,Scott,IA,52722,,www.americold.com,22RWDS270404
"Americold Logistics, LLC",Refrigerated Warehousing and Storage,493120,69 Rogers St Ste 3,Gloucester,Essex,MA,01930,9782836100,www.americold.com,22RWDS270405
"Americold Logistics, LLC",Refrigerated Warehousing and Storage,493120,700 S Raymond Ave,Fullerton,Orange,CA,92831,,www.americold.com,22RWDS270410
"Americold Logistics, LLC",Refrigerated Warehousing and Storage,493120,7130 Winnetka Ave N,Brooklyn Park,Hennepin,MN,55428,7635355000,www.americold.com,22RWDS270417
"Americold Logistics, LLC",Refrigerated Warehousing and Storage,493120,720 W Juniper St,Connell,Franklin,WA,99326,5092345691,www.americold.com,22RWDS270420
"Americold Logistics, LLC",Refrigerated Warehousing and Storage,493120,75 Highway 609,Delhi,Richland,LA,71232,3188783361,www.americold.com,22RWDS270428
"Americold Logistics, LLC",Refrigerated Warehousing and Storage,493120,78149 Westland Rd,Hermiston,Umatilla,OR,97838,5415673377,www.americold.com,22RWDS270437
"Americold Logistics, LLC",Refrigerated Warehousing and Storage,493120,8 Lee Blvd,Malvern,Chester,PA,19355,2676408542,www.americold.com,22RWDS270441
"Americold Logistics, LLC",Refrigerated Warehousing and Storage,493120,830 E Horizon Dr,Henderson,Clark,NV,89015,7025665810,www.americold.com,22RWDS270451
"Americold Logistics, LLC",Refrigerated Warehousing and Storage,493120,86 Jackson Concourse,Pendergrass,Jackson,GA,30567,7066934100,www.americold.com,22RWDS270458
"Americold Logistics, LLC",Refrigerated Warehousing and Storage,493120,91 1st Ave,Covington Township,Wayne,PA,18424,,www.americold.com,22RWDS270472
"Americold Logistics, LLC",Refrigerated Warehousing and Storage,493120,92 Old Highway 24,Decatur,Morgan,AL,35601,,www.americold.com,22RWDS270474
"Americold Logistics, LLC",Refrigerated Warehousing and Storage,493120,950 S Sanborn Rd,Salinas,Monterey,CA,93901,8314241537,www.americold.com,22RWDS270481
"Americold Logistics, LLC",Refrigerated Warehousing and Storage,493120,950 Schneider St,Fremont,Dodge,NE,68025,4027217882,www.americold.com,22RWDS270482
"Americold Logistics, LLC",Refrigerated Warehousing and Storage,493120,9501 SE McLoughlin Blvd,Portland,Clackamas,OR,97222,5036543124,www.americold.com,22RWDS270483
"Americold Logistics, LLC",Refrigerated Warehousing and Storage,493120,County Road I,Crete,Saline,NE,68333,4028263660,www.americold.com,22RWDS270492
Americold Realty Trust,Refrigerated Warehousing and Storage,493120,2000 W Pershing St,Appleton,Outagamie,WI,54914,9207304200,www.americold.com,22RWDS270097
Americold Realty Trust,Refrigerated Warehousing and Storage,493120,725 W Pioneer Trce,Pendleton,Madison,IN,46064,7657781020,www.americold.com,22RWDS270422
Animal Feeds International Corp,Refrigerated Warehousing and Storage,493120,6400 Procter EXT,Port Arthur,Jefferson,TX,77642,4099622457,www.animalfeeds.com,22RWDS270391
Applegate Ice Company LLC,Refrigerated Warehousing and Storage,493120,1251 E Bluebell Ln,Tempe,Maricopa,AZ,85281,4806284570,www.applegateice.com,22RWDS269999
Arctic Glacier,Refrigerated Warehousing and Storage,493120,43960 Fremont Blvd,Fremont,Alameda,CA,94538,5107662501,,22RWDS270298
Arctic Processing,Refrigerated Warehousing and Storage,493120,316 E Main St,Davis,Murray,OK,73030,5803692836,,22RWDS270227
Arctic Storage of Utica Inc,Refrigerated Warehousing and Storage,493120,4981 Commercial Dr,Yorkville,Oneida,NY,13495,3157363026,www.arcticfrozenfoods.com,22RWDS270326
"Arkansas Refrigerated Services, Inc",Refrigerated Warehousing and Storage,493120,24 N D St,Fort Smith,Sebastian,AR,72901,4797831006,www.arkansasrefrigerated.com,22RWDS270155
"Arkozya Group of Companies, LLC",Refrigerated Warehousing and Storage,493120,21145 Whitfield Pl # 201,Sterling,Loudoun,VA,20165,2024361400,www.arkozyagroup.com,22RWDS270116
"Arlington Mid-Cities Warehouses, Inc.",Refrigerated Warehousing and Storage,493120,1212 Antler Dr,Mansfield,Tarrant,TX,76063,9729880333,www.amcwhse.com,22RWDS269992
Artco Camanche,Refrigerated Warehousing and Storage,493120,1325 N Washington Blvd,Camanche,Clinton,IA,52730,,,22RWDS270010
Associates Freezers Inc,Refrigerated Warehousing and Storage,493120,7080 Express Ln,Houston,Harris,TX,77078,,,22RWDS270416
Atlanta Bonded Warehouse Corporation,Refrigerated Warehousing and Storage,493120,118 Northpoint Pkwy,Acworth,Cherokee,GA,30102,,www.atlantabonded.com,22RWDS269978
Atlanta Locker Service,Refrigerated Warehousing and Storage,493120,714 Ne 6th St,Atlanta,Logan,IL,61723,2176482333,www.atl.com,22RWDS270418
Atlantic Coast Freezers,Refrigerated Warehousing and Storage,493120,308 Fox Run CT,Mullica Hill,Gloucester,NJ,08062,6093811209,,22RWDS270219
"Auge Company, Inc.",Refrigerated Warehousing and Storage,493120,1305 S Brazos St,San Antonio,Bexar,TX,78207,2102275306,,22RWDS270008
Autopol,Refrigerated Warehousing and Storage,493120,3557 Weikel St,Philadelphia,Philadelphia,PA,19134,2157443122,,22RWDS270250
Avon Locker Plant LLC,Refrigerated Warehousing and Storage,493120,12026 State Road 23,Darlington,Lafayette,WI,53530,6087762336,www.avonlockerplant.com,22RWDS269988
"B & B Trucking Services, Inc.",Refrigerated Warehousing and Storage,493120,601 SW 33rd Ave,Ocala,Marion,FL,34474,3526200205,,22RWDS270372
B & H Fur Storage Co.,Refrigerated Warehousing and Storage,493120,22 N Centre St,Pottsville,Schuylkill,PA,17901,,,22RWDS270128
"B & M Storage and Distribution, Inc.",Refrigerated Warehousing and Storage,493120,690 Gaynor St,Winston Salem,Forsyth,NC,27105,3367674900,www.bandmstorage.com,22RWDS270406
B F & O Inc,Refrigerated Warehousing and Storage,493120,2382 Irvine Rd,Richmond,Madison,KY,40475,8596242082,,22RWDS270154
Baker Cold Storage Inc,Refrigerated Warehousing and Storage,493120,4100 Bandini Blvd,Vernon,Los Angeles,CA,90058,3239800986,www.bakercommodities.com,22RWDS270285
"Basic Industries, Inc.",Refrigerated Warehousing and Storage,493120,220490 FM 2252,Schertz,Guadalupe,TX,78154,2103534958,,22RWDS270133
"Bay Shippers, LLC",Refrigerated Warehousing and Storage,493120,4035 Jimbo Dr,Burton,Genesee,MI,48529,9897538000,www.bayshippers.com,22RWDS270281
Berkshire Brewing Com,Refrigerated Warehousing and Storage,493120,144 Benton St,Stratford,Fairfield,CT,06615,2036901710,www.berkshirebrewing.com,22RWDS270027
"Beverage Solutions and Logistics, Inc.",Refrigerated Warehousing and Storage,493120,1633 E 40th St,Cleveland,Cuyahoga,OH,44103,2162581570,,22RWDS270059
"Bevlink, LLC",Refrigerated Warehousing and Storage,493120,8620 Sorensen Ave Ste 7,Santa Fe Springs,Los Angeles,CA,90670,7146001185,www.bevlink.net,22RWDS270459
Big M Frozen Storage,Refrigerated Warehousing and Storage,493120,5625 W 12000 S,Payson,Utah,UT,84651,,,22RWDS270362
Bio Tech Refrigeration & Electronics,Refrigerated Warehousing and Storage,493120,946 Marisa Ln,Desoto,Dallas,TX,75115,2147291484,,22RWDS270479
Biorepository Resources LLC,Refrigerated Warehousing and Storage,493120,755 Central Ave 3,New Providence,Union,NJ,07974,9087908890,www.brr.us.com,22RWDS270432
Bloms Locker & Meat Processing Plant,Refrigerated Warehousing and Storage,493120,110 E Central Ave,Minot,Ward,ND,58701,7018383016,,22RWDS269961
"Blue Marlin Ice, LLC",Refrigerated Warehousing and Storage,493120,273 Walnut Shade Rd,Dover,Kent,DE,19904,3026977800,www.bluemarlinice.com,22RWDS270191
"Blue Star Growers, Inc.",Refrigerated Warehousing and Storage,493120,200 Blue Star Rd,Cashmere,Chelan,WA,98815,5097822922,www.bluestargrowers.com,22RWDS270093
Bob's Locker Plant Inc,Refrigerated Warehousing and Storage,493120,212 Ballard St,Washington,Washington,KS,66968,7853252920,www.bobslocker.weebly.com,22RWDS270117
"Boise Cold Storage Company, Inc.",Refrigerated Warehousing and Storage,493120,495 S 15th St,Boise,Ada,ID,83702,2083448477,www.boisecoldstorage.com,22RWDS270325
Bond Cold Storage Inc,Refrigerated Warehousing and Storage,493120,623 N 19th Ave E,Newton,Jasper,IA,50208,6417929962,,22RWDS270386
"Boston Fresh, LLC",Refrigerated Warehousing and Storage,493120,1020 W Chestnut St,Brockton,Plymouth,MA,02301,8442337374,www.maglioproduce.com,22RWDS269935
Boyd Trucking,Refrigerated Warehousing and Storage,493120,604 W Locust St,Oxford,Chester,PA,19363,6109325015,,22RWDS270378
Brain Freezers LLC,Refrigerated Warehousing and Storage,493120,65 Main St,Hebron,Tolland,CT,06248,8605301670,www.brainfreezersct.com,22RWDS270392
Bricco Enterprises LLC,Refrigerated Warehousing and Storage,493120,147 Geneva St,Clyde,Wayne,NY,14433,3159230002,,22RWDS270032
Bridge Terminal Inc,Refrigerated Warehousing and Storage,493120,12 Fish Is,New Bedford,Bristol,MA,02740,5089944300,www.maritimeinternational.org,22RWDS269980
"Bristol Storage, Inc.",Refrigerated Warehousing and Storage,493120,1904 N Farm Rd 185,Springfield,Greene,MO,65802,4178666065,,22RWDS270079
Broadway Associates,Refrigerated Warehousing and Storage,493120,400 Broadway,Freehold,Monmouth,NJ,07728,7324622100,,22RWDS270266
Brook Page Inc,Refrigerated Warehousing and Storage,493120,80 19th St,Brooklyn,Kings,NY,11232,7183699130,,22RWDS270442
Brown's Processing,Refrigerated Warehousing and Storage,493120,103 W Jefferson St,Fredonia,Wilson,KS,66736,6203782441,,22RWDS269940
Buckleys Lockers Inc,Refrigerated Warehousing and Storage,493120,2307 E Hawthorne Dr,Newberg,Yamhill,OR,97132,5035388896,,22RWDS270145
Burlington Coat Factory Warehouse Corporation,Refrigerated Warehousing and Storage,493120,403 Dultys Ln,Burlington,Burlington,NJ,08016,6095316752,www.burlington.com,22RWDS270280
Burris Logistics,Refrigerated Warehousing and Storage,493120,10900 Central Port Dr,Orlando,Orange,FL,32824,,www.burrislogistics.com,22RWDS269958
Burris Logistics,Refrigerated Warehousing and Storage,493120,4501 Dignan St,Jacksonville,Duval,FL,32254,9042655990,www.burrislogistics.com,22RWDS270307
"C & P Coolers & Freezers, Inc.",Refrigerated Warehousing and Storage,493120,12230 SW 103rd Ter,Miami,Miami-Dade,FL,33186,,,22RWDS269995
C.P.C. International Apple Co.,Refrigerated Warehousing and Storage,493120,909 Naches Ave,Tieton,Yakima,WA,98947,5096733113,www.cpcintlappleco.com,22RWDS270471
Calfreeze Corp.,Refrigerated Warehousing and Storage,493120,617 W Olympic Blvd,Montebello,Los Angeles,CA,90640,6262821009,www.calfreezecorp.com,22RWDS270383
California Cold Logistics,Refrigerated Warehousing and Storage,493120,700 Jones St,Yuba City,Sutter,CA,95991,5306735627,www.californiacold.com,22RWDS270409
Capitol Station 65 LLC,Refrigerated Warehousing and Storage,493120,2355 Gold Meadow Way # 160,Gold River,Sacramento,CA,95670,9162312112,,22RWDS270151
Capitol Warehousing Corporation,Refrigerated Warehousing and Storage,493120,4461 Duraform Ln,Windsor,Dane,WI,53598,6088469310,www.capitolwhse.com,22RWDS270304
Carl Thompson,Refrigerated Warehousing and Storage,493120,67 Old Farm Rd,Needham,Norfolk,MA,02492,7814558855,,22RWDS270399
Carroll County Locker,Refrigerated Warehousing and Storage,493120,122 E Carroll St,Lanark,Carroll,IL,61046,8154932370,,22RWDS269994
Cassco Ice & Cold Storage,Refrigerated Warehousing and Storage,493120,780 Pleasant Valley Rd,Harrisonburg,Harrisonburg city,VA,22801,5405646807,,22RWDS270435
"Castle & Cooke, Inc.",Refrigerated Warehousing and Storage,493120,7330 Carbide Rd,Baltimore,Anne Arundel,MD,21226,,,22RWDS270424
Central Cold Storage Corporation,Refrigerated Warehousing and Storage,493120,13526 Blackie Rd,Castroville,Monterey,CA,95012,8316334011,,22RWDS270016
Central Florida Foundry Inc,Refrigerated Warehousing and Storage,493120,964 Belle Oak Dr,Leesburg,Lake,FL,34748,3523656969,www.centralfloridafreezer.com,22RWDS270486
Central Maine Cold Storage Inc,Refrigerated Warehousing and Storage,493120,84 Heritage Park Rd,Bucksport,Hancock,ME,04416,4192157955,www.cmcs.biz,22RWDS270452
Central Storage & Warehouse Co Inc,Refrigerated Warehousing and Storage,493120,4309 Cottage Grove Rd,Madison,Dane,WI,53716,6082217600,www.csw-wi.com,22RWDS270294
Central Storage & Warehouse Company,Refrigerated Warehousing and Storage,493120,7800 95th St,Pleasant Prairie,Kenosha,WI,53158,2629477800,www.csw-wi.com,22RWDS270436
Central Storage and Warehouse Co.,Refrigerated Warehousing and Storage,493120,2650 Fortune Dr,Eau Claire,Eau Claire,WI,54703,7158742951,www.csw-wi.com,22RWDS270186
Cherokee Lockers,Refrigerated Warehousing and Storage,493120,120 E Main St,Cherokee,Cherokee,IA,51012,7122252185,www.cherokeermc.org,22RWDS269983
Cheryl's Cookies,Refrigerated Warehousing and Storage,493120,4465 Industrial Center Dr,Obetz,Franklin,OH,43207,6144092630,,22RWDS270305
Cincinnati Freezer Corp,Refrigerated Warehousing and Storage,493120,2191 Victory Pkwy Ste 1,Cincinnati,Hamilton,OH,45206,,,22RWDS270126
Cincinnati Freezer Corp,Refrigerated Warehousing and Storage,493120,2199 Victory Pkwy,Cincinnati,Hamilton,OH,45206,5137713573,,22RWDS270127
Circle K Stores Inc.,Refrigerated Warehousing and Storage,493120,5205 S Lois Ave,Tampa,Hillsborough,FL,33611,,www.circlek.com,22RWDS270345
Cjc Cold Storage LLC,Refrigerated Warehousing and Storage,493120,32 Auburn Drive Southwest,Cartersville,Bartow,GA,30120,,,22RWDS270229
Clark's Locker & Slaughter,Refrigerated Warehousing and Storage,493120,202 S Main Street,Wayne City,Wayne,IL,62895,6188952134,,22RWDS270440
"Classic Wine Storage, LLC",Refrigerated Warehousing and Storage,493120,2915 Riverglen Dr,Fort Worth,Tarrant,TX,76109,6828411669,www.classicwinestorage.com,22RWDS270207
"Cloverleaf Cold Storage Co., LLC",Refrigerated Warehousing and Storage,493120,111 Imperial Dr,Sanford,Lee,NC,27330,9197754474,www.cloverleaf.com,22RWDS269969
"Cloverleaf Cold Storage Co., LLC",Refrigerated Warehousing and Storage,493120,3110 Homeward Way,Fairfield,Butler,OH,45014,5138605992,www.cloverleaf.com,22RWDS270224
"Cloverleaf.me, Inc.",Refrigerated Warehousing and Storage,493120,434 Madison Ave,Covington,Kenton,KY,41011,5132056777,www.cloverleaf.me,22RWDS270296
Cold Chain Integrity,Refrigerated Warehousing and Storage,493120,2825 Crescent Sprng Pike,Erlanger,Kenton,KY,41018,8004471535,www.cciwarehouse.com,22RWDS270198
Cold Storage Associates Ltd,Refrigerated Warehousing and Storage,493120,500 Ne 185th St Unit 15,Miami,Miami-Dade,FL,33179,3056536678,,22RWDS270329
"Cold Storage of Nassau, Inc.",Refrigerated Warehousing and Storage,493120,425 Railroad Ave,Westbury,Nassau,NY,11590,5163334466,www.freeport-ny.findstoragefast.com,22RWDS270291
"Cold Storage Solutions I, Inc.",Refrigerated Warehousing and Storage,493120,310 Kenneth Welch Dr # 1,Lakeville,Plymouth,MA,02347,5089230700,www.cssfreezers.com,22RWDS270221
Cold Storage Warehouse Logistics,Refrigerated Warehousing and Storage,493120,7035 W 65th St,Chicago,Cook,IL,60638,7087012432,,22RWDS270413
"Cold Stream, L.L.C.",Refrigerated Warehousing and Storage,493120,285 Boggess Ln,Winchester,Frederick,VA,22603,,,22RWDS270200
"Coldwide, LLC",Refrigerated Warehousing and Storage,493120,4700 Sheridan St Ste J,Hollywood,Broward,FL,33021,7544001048,www.coldwide.com,22RWDS270315
"Commercial Distribution Center, Inc.",Refrigerated Warehousing and Storage,493120,16500 E Truman Rd,Independence,Jackson,MO,64050,8168361500,www.cdcinc.com,22RWDS270062
Conn Freezer Warehouses Inc,Refrigerated Warehousing and Storage,493120,1666 Route 9w,Milton,Ulster,NY,12547,8457952170,,22RWDS270066
Conn Refrigeration Service,Refrigerated Warehousing and Storage,493120,345 Lenity School Rd,Rostraver Township,Fayette,PA,15012,7249296682,,22RWDS270246
Connies Transfer Station,Refrigerated Warehousing and Storage,493120,305 Front St,McHenry,McHenry,IL,60050,8156796541,,22RWDS270217
"Cool-Pak Solutions, L.P.",Refrigerated Warehousing and Storage,493120,1071 E 233rd St,Carson,Los Angeles,CA,90745,3102216300,www.coolpaksolutions.com,22RWDS269951
"Corning Meat Processing Service, Inc.",Refrigerated Warehousing and Storage,493120,501 Davis Ave,Corning,Adams,IA,50841,6413223614,,22RWDS270331
Country Butcher,Refrigerated Warehousing and Storage,493120,760 6th St,Dawson,Lac qui Parle,MN,56232,3207692238,,22RWDS270434
Creapharm Inc,Refrigerated Warehousing and Storage,493120,2130 NW Pkwy SE Ste Bcd,Marietta,Cobb,GA,30067,6783836165,,22RWDS270118
"Creation Gardens, Inc.",Refrigerated Warehousing and Storage,493120,925 Cowan St,Nashville,Davidson,TN,37207,5025879012,www.whatchefswant.com,22RWDS270475
Cumberland Freezers,Refrigerated Warehousing and Storage,493120,6 N Industrial Blvd,Bridgeton,Cumberland,NJ,08302,8564518300,www.shorelinefreezers.com,22RWDS270369
"Custom Cold Storage, Inc.",Refrigerated Warehousing and Storage,493120,211 Caillavet St,Biloxi,Harrison,MS,39530,2283748122,,22RWDS270113
"Customized Distribution Services, Inc.",Refrigerated Warehousing and Storage,493120,8400 Industrial Blvd,Breinigsville,Lehigh,PA,18031,6103360500,www.cdslogistics.com,22RWDS270453
Cuyler Leonard H,Refrigerated Warehousing and Storage,493120,844 S Leonard Ave,Sanger,Fresno,CA,93657,5596967719,,22RWDS270456
Daeffler's Quality Meats Inc,Refrigerated Warehousing and Storage,493120,315 Oak St W,Frederic,Polk,WI,54837,7153274456,,22RWDS270225
Davis Insulated Building Inc,Refrigerated Warehousing and Storage,493120,300 SW A St,Stigler,Haskell,OK,74462,9189672042,www.davisbuildings.com,22RWDS270211
"Dela, Inc.",Refrigerated Warehousing and Storage,493120,9635 Heinrich Hertz Dr # 1,San Diego,San Diego,CA,92154,6195919359,,22RWDS270485
"Delaware Avenue Enterprises, Inc.",Refrigerated Warehousing and Storage,493120,3301 S Columbus Blvd,Philadelphia,Philadelphia,PA,19148,2155512600,www.holtlogistics.com,22RWDS270239
Delmart Cold Storage,Refrigerated Warehousing and Storage,493120,33342 Dresser Ave,Bakersfield,Kern,CA,93308,6613918191,www.topbrassmarketing.com,22RWDS270242
Delmart Cold Storage Co Inc,Refrigerated Warehousing and Storage,493120,30988 Riverside Ave,Shafter,Kern,CA,93263,6617462148,www.topbrassmarketing.com,22RWDS270220
Delphos Food Lockers Inc,Refrigerated Warehousing and Storage,493120,528 N Washington St,Delphos,Allen,OH,45833,,www.delphosherald.com,22RWDS270349
Dennis McWells,Refrigerated Warehousing and Storage,493120,4616 Main St,Denair,Stanislaus,CA,95316,2096325141,,22RWDS270311
Dennison Meat Lockers LLC,Refrigerated Warehousing and Storage,493120,109 375th Street Way,Dennison,Goodhue,MN,55018,5076458734,www.dennisonmeatlocker.com,22RWDS269956
"Des Moines Cold Storage Co., Inc.",Refrigerated Warehousing and Storage,493120,3805 Vandalia Rd,Des Moines,Polk,IA,50317,5156974700,www.dmcoldstorage.com,22RWDS270259
Dnata Perishable Center,Refrigerated Warehousing and Storage,493120,19577 Lee Rd Ste 200,Humble,Harris,TX,77338,2816452140,,22RWDS270088
Dole Fresh Fruit Company,Refrigerated Warehousing and Storage,493120,5351 Rd 236,Ducor,Tulare,CA,93218,,www.dole.com,22RWDS270352
Donato Farms Inc,Refrigerated Warehousing and Storage,493120,2036 Route 44 55,Modena,Ulster,NY,12548,8458837037,,22RWDS270106
Don's Lockers LLC,Refrigerated Warehousing and Storage,493120,2004 E Irvington Rd,Tucson,Pima,AZ,85714,5208881337,,22RWDS270099
"E Street Cold Logistics, LLC",Refrigerated Warehousing and Storage,493120,301 S Neptune Ave,Wilmington,Los Angeles,CA,90744,,www.kpaccoldstorage.com,22RWDS270212
"E Street Cold Logistics, LLC",Refrigerated Warehousing and Storage,493120,901 E E St,Wilmington,Los Angeles,CA,90744,3102337300,www.kpaccoldstorage.com,22RWDS270467
"E.J. Dairy Marketing, Inc.",Refrigerated Warehousing and Storage,493120,500 River Rd,Mosinee,Marathon,WI,54455,7156936662,www.ejdairymarketing.com,22RWDS270330
Earth Locker,Refrigerated Warehousing and Storage,493120,Main St Hwy 70,Earth,Lamb,TX,79031,8062573393,,22RWDS270493
Eastern Market Cold Storage Co,Refrigerated Warehousing and Storage,493120,2531 Riopelle St,Detroit,Wayne,MI,48207,,www.easternmarket.org,22RWDS270175
Eastern Pro Pak L.L.C.,Refrigerated Warehousing and Storage,493120,800 Ellis Mill Rd Ste C,Glassboro,Gloucester,NJ,08028,8568813553,www.easternpropak.biz,22RWDS270445
Eugene Freezing & Storage Co.,Refrigerated Warehousing and Storage,493120,310 Seneca Rd,Eugene,Lane,OR,97402,5413431694,www.snotemp.com,22RWDS270222
Eugene Freezing & Storage Co.,Refrigerated Warehousing and Storage,493120,3815 Marion St SE,Albany,Linn,OR,97322,5419285755,www.snotemp.com,22RWDS270260
Eurofreezer Corp.,Refrigerated Warehousing and Storage,493120,4400 E 10th CT,Hialeah,Miami-Dade,FL,33013,3053925555,www.eurofreezer.com,22RWDS270301
"Evergreen Cold Storage, LLC",Refrigerated Warehousing and Storage,493120,9102 S Cage Blvd,Pharr,Hidalgo,TX,78577,9567839029,www.evergreencold.com,22RWDS270473
Exel Inc.,Refrigerated Warehousing and Storage,493120,9414 Clay Rd,Houston,Harris,TX,77080,,www.dhl.com,22RWDS270477
Express Cold Storage Inc,Refrigerated Warehousing and Storage,493120,4606 4th Ave S,Seattle,King,WA,98134,,www.expresscoldstorage.com,22RWDS270310
Fairmont Refrigerated Service Co,Refrigerated Warehousing and Storage,493120,1400 E 8th St,Fairmont,Martin,MN,56031,5072384211,www.fairmont.org,22RWDS270018
Farmers Storage Co Inc,Refrigerated Warehousing and Storage,493120,6032 Joyfield Rd,Frankfort,Benzie,MI,49635,2318824421,,22RWDS270376
Father & Son Storage Whse.,Refrigerated Warehousing and Storage,493120,4173 Ne 80th Ave,Okeechobee,Okeechobee,FL,34972,8634670055,,22RWDS270288
Florida Fur Cold Storage & Cleaning Inc,Refrigerated Warehousing and Storage,493120,2810 Larranaga Dr,Lady Lake,Sumter,FL,32162,7278223653,,22RWDS270197
Foley Locker,Refrigerated Warehousing and Storage,493120,270 4th Ave N,Foley,Benton,MN,56329,3209687267,www.grandchampionmeats.com,22RWDS270189
Food Locker Service Inc,Refrigerated Warehousing and Storage,493120,504 N Main St,Holstein,Ida,IA,51025,7123684621,www.tqmeats.com,22RWDS270337
Fountain Inn Frozen Food Plant Inc,Refrigerated Warehousing and Storage,493120,11 Glen Willow CT,Greer,Greenville,SC,29650,8648623582,www.fountaininn.com,22RWDS269960
"Freedom Fresh, LLC",Refrigerated Warehousing and Storage,493120,11001 NW 124th St Ste 100,Medley,Miami-Dade,FL,33178,3057155700,www.freedomfresh.com,22RWDS269965
Freezer's Mobile Dj Service LLC,Refrigerated Warehousing and Storage,493120,26628 W Allison Dr,Channahon,Will,IL,60410,8154830080,www.freezersmobiledj.com,22RWDS270188
Frema USA Inc,Refrigerated Warehousing and Storage,493120,10502 Interstate 35,Laredo,Webb,TX,78045,9567533646,,22RWDS269946
"Fresh Mark, Inc.",Refrigerated Warehousing and Storage,493120,950 Cloverleaf St SE,Massillon,Stark,OH,44646,3308339870,www.freshmark.com,22RWDS270480
"Frez-N-Stor, Inc.",Refrigerated Warehousing and Storage,493120,610 Porter Ave,Springdale,Washington,AR,72764,4797503298,www.fnscold.com,22RWDS270381
Frigid Freeze,Refrigerated Warehousing and Storage,493120,149 Walnut Ln,Riegelsville,Bucks,PA,18077,6107492483,,22RWDS270034
Frozen Food Lockers,Refrigerated Warehousing and Storage,493120,604 Rose Ave,Wshngtn CT Hs,Fayette,OH,43160,7403356650,www.morrisfrozenfoodlocker.com,22RWDS270377
Fulton Market Cold Storage Co LLC,Refrigerated Warehousing and Storage,493120,8424 47th St,Lyons,Cook,IL,60534,3127389330,,22RWDS270454
Fussell's Frozen Food Inc,Refrigerated Warehousing and Storage,493120,6548 Wuthrich Ave N,Arcadia,DeSoto,FL,34266,8634942112,www.fussell-s-frozen-food-inc.hub.biz,22RWDS270397
"Fwprw, LLC",Refrigerated Warehousing and Storage,493120,1101 Ne 23rd St,Fort Worth,Tarrant,TX,76164,8175460912,www.premierrefrigerated.com,22RWDS269966
"Garden State Cold Storage, LLC",Refrigerated Warehousing and Storage,493120,474 Wilson Ave Ste 7,Newark,Essex,NJ,07105,9732702653,www.gscoldstorage.com,22RWDS270317
Garden State Cold Storage-Carteret LLC,Refrigerated Warehousing and Storage,493120,580 Port Carteret Dr,Carteret,Middlesex,NJ,07008,9732702653,www.gscoldstorage.com,22RWDS270368
"Gardner Trucking, LLC",Refrigerated Warehousing and Storage,493120,7502 State Hwy 13 E,Pittsville,Wood,WI,54466,7158842651,,22RWDS270429
Gary F. Lyons and Associates,Refrigerated Warehousing and Storage,493120,2510 N Grand Ave Ste 112,Santa Ana,Orange,CA,92705,7145383177,www.zerotempcoldstorage.com,22RWDS270170
Georgia Cold Storage Co.,Refrigerated Warehousing and Storage,493120,193 Basket Factory Dr,Americus,Sumter,GA,31709,2299246136,www.gulfstatescs.com,22RWDS270084
Gimme Shelter Inc,Refrigerated Warehousing and Storage,493120,130 S Church St,Smithfield,Isle of Wight,VA,23430,,,22RWDS270003
Gloucester Cold Storage Inc.,Refrigerated Warehousing and Storage,493120,159 E Main St,Gloucester,Essex,MA,01930,,www.capeseafoods.com,22RWDS270046
Golden Pacific Cold Storage LLC,Refrigerated Warehousing and Storage,493120,100 3rd St,Exeter,Tulare,CA,93221,5595922146,,22RWDS269919
Golden Sea Company,Refrigerated Warehousing and Storage,493120,9630 Clarewood Dr Ste B5,Houston,Harris,TX,77036,7137792399,,22RWDS270484
Golden Sierra Cold Storage LLC,Refrigerated Warehousing and Storage,493120,12582 Avenue 384,Cutler,Tulare,CA,93615,5595286901,,22RWDS270000
Good Harvest LLC,Refrigerated Warehousing and Storage,493120,188 E Garvey Ave,Monterey Park,Los Angeles,CA,91755,,,22RWDS270078
Gorbett Enterprises of Solon Inc,Refrigerated Warehousing and Storage,493120,263 W Kensinger Dr,Cranberry Township,Butler,PA,16066,7247420201,www.glcsinc.com,22RWDS270185
Gorbett Enterprises of Solon Inc,Refrigerated Warehousing and Storage,493120,6531 Cochran Rd,Solon,Cuyahoga,OH,44139,4402483950,www.glcsinc.com,22RWDS270396
"Grand Cru, LLC",Refrigerated Warehousing and Storage,493120,3607 La Habra Way,Sacramento,Sacramento,CA,95864,9164838398,www.grandcru.ws,22RWDS270252
Green County Locker,Refrigerated Warehousing and Storage,493120,512 18th Ave,Monroe,Green,WI,53566,6083253456,,22RWDS270339
"Gress Poultry, Inc.",Refrigerated Warehousing and Storage,493120,992 N South Rd,Scranton,Lackawanna,PA,18504,5703467607,www.gresscold.com,22RWDS270491
Growers' Refrigeration Company,Refrigerated Warehousing and Storage,493120,2050 Galvez Ave,San Francisco,San Francisco,CA,94124,4156478383,www.sfbaycoldstorage.com,22RWDS270108
Gulf Producers Inc,Refrigerated Warehousing and Storage,493120,2001 Palm Blvd,Brownsville,Cameron,TX,78520,,,22RWDS270098
Gulf States Cold Storage Co.,Refrigerated Warehousing and Storage,493120,106 Eli Whitney Blvd,Savannah,Chatham,GA,31408,9125080739,www.gulfstatescs.com,22RWDS269948
"H & F Logistics, LLC",Refrigerated Warehousing and Storage,493120,9307 E 56th St,Indianapolis,Marion,IN,46216,3178134845,www.hflog.com,22RWDS270476
H & H Orchard,Refrigerated Warehousing and Storage,493120,9073 Deadman Hill Rd,Cashmere,Chelan,WA,98815,5097823018,,22RWDS270470
"Hall Street Cold Storage Warehouses, Inc.",Refrigerated Warehousing and Storage,493120,12 Hall St Ste 38,Brooklyn,Kings,NY,11205,7188553636,www.hallstreetstorage.com,22RWDS269981
Hall Street Storage LLC,Refrigerated Warehousing and Storage,493120,4 Hall St 46,Brooklyn,Kings,NY,11205,7188553636,www.hallstreetstorage.com,22RWDS270265
Hammond/Mercantile Cold Storage Corp.,Refrigerated Warehousing and Storage,493120,1800 W Hawthorne Ln,West Chicago,DuPage,IL,60185,6308762611,www.dcpsmd.org,22RWDS270075
Hansen's Meat Market Ltd,Refrigerated Warehousing and Storage,493120,412 Main St,Lost Nation,Clinton,IA,52254,5636782320,,22RWDS270287
Hanson Cold Storage Co.,Refrigerated Warehousing and Storage,493120,1151 S Griswold St,Hart,Oceana,MI,49420,2318732178,www.hansonlogistics.com,22RWDS269977
Hanson Cold Storage Co.,Refrigerated Warehousing and Storage,493120,2150 S County Road 125 W,Logansport,Cass,IN,46947,5747530424,www.hansonlogistics.com,22RWDS270122
Hanson Cold Storage Co.,Refrigerated Warehousing and Storage,493120,2201 Northwind Pkwy,Hobart,Lake,IN,46342,2199424813,www.hansonlogistics.com,22RWDS270132
Hanson Cold Storage Co.,Refrigerated Warehousing and Storage,493120,440 Renaissance Dr,Saint Joseph,Berrien,MI,49085,2699821390,www.hansonlogistics.com,22RWDS270299
Hanson Logistics,Refrigerated Warehousing and Storage,493120,61834 Red Arrow Hwy,Hartford,Van Buren,MI,49057,2696213118,,22RWDS270384
Hanson's Meat Processing and Sales Inc,Refrigerated Warehousing and Storage,493120,501 Young St,Jesup,Buchanan,IA,50648,3198271234,,22RWDS270333
Harborside Refrigerated,Refrigerated Warehousing and Storage,493120,8671 Lone Star Rd,San Diego,San Diego,CA,92154,6197102491,,22RWDS270460
"Hennecold Storage, Inc",Refrigerated Warehousing and Storage,493120,1601 N 50th St,Tampa,Hillsborough,FL,33619,,www.hcsatl.com,22RWDS270052
"Henningsen Cold Storage Co., LLC",Refrigerated Warehousing and Storage,493120,17400 Ne Sacramento St,Portland,Multnomah,OR,97230,5032562525,www.henningsen.com,22RWDS270073
"Henningsen Cold Storage Co., LLC",Refrigerated Warehousing and Storage,493120,19450 Ne San Rafael St,Portland,Multnomah,OR,97230,5034892995,www.henningsen.com,22RWDS270086
"Henningsen Cold Storage Co., LLC",Refrigerated Warehousing and Storage,493120,2025 Saint St,Richland,Benton,WA,99354,5093750463,www.henningsen.com,22RWDS270104
"Henningsen Cold Storage Co., LLC",Refrigerated Warehousing and Storage,493120,21435 NW Cherry Ln,Hillsboro,Washington,OR,97124,5035315400,www.henningsen.com,22RWDS270121
"Henningsen Cold Storage Co., LLC",Refrigerated Warehousing and Storage,493120,2320 Madrona Ave SE,Salem,Marion,OR,97302,5034850720,www.henningsen.com,22RWDS270147
"Henningsen Cold Storage Co., LLC",Refrigerated Warehousing and Storage,493120,98 Stover Rd,Grandview,Yakima,WA,98930,5095782000,www.henningsen.com,22RWDS270488
Henry A Duelm Jr,Refrigerated Warehousing and Storage,493120,704 Goss Rd,Westlake,Calcasieu,LA,70669,3374362635,,22RWDS270414
High Track LLC,Refrigerated Warehousing and Storage,493120,3201 Progress Rd,Madison,Dane,WI,53716,6084420999,,22RWDS270232
"High Track Trucking, LLC",Refrigerated Warehousing and Storage,493120,305 Scott Dr,Clinton,Rock,WI,53525,,,22RWDS270218
Holley Cold Storage Fruit & Produce Co Inc,Refrigerated Warehousing and Storage,493120,16677 Route 31,Holley,Orleans,NY,14470,5856386393,www.cwcoldstorage.com,22RWDS270067
Hollins Cold Storage LLC,Refrigerated Warehousing and Storage,493120,340 Echowood Ln,Hardy,Franklin,VA,24101,,,22RWDS270244
Hollister Cold Storage Co,Refrigerated Warehousing and Storage,493120,320 Hillcrest Rd,Hollister,San Benito,CA,95023,8316378800,www.coldstoragecrossfit.com,22RWDS270230
"H-T Warehousing & Cold Storage, LLC",Refrigerated Warehousing and Storage,493120,227 Air Park Dr,London,Laurel,KY,40744,6068772537,www.htwarehousing.com,22RWDS270139
Hub Bag,Refrigerated Warehousing and Storage,493120,1506 Columbia Ave,Friona,Parmer,TX,79035,8062503181,,22RWDS270039
"Ice Cold Beer Here, LLC",Refrigerated Warehousing and Storage,493120,501 W Harford St,Milford,Pike,PA,18337,5702968500,www.craftbeerstoremilford.com,22RWDS270332
Ice Cold Enterprises of Iowa L,Refrigerated Warehousing and Storage,493120,2626 Crystal Creek Dr,Davenport,Scott,IA,52804,8885080889,www.iceofiowa.com,22RWDS270183
Ice Cold New York Inc.,Refrigerated Warehousing and Storage,493120,109 Montgomery Ave # 102,Scarsdale,Westchester,NY,10583,9147257777,,22RWDS269957
"Ice Cold Pitcher Services, LLC",Refrigerated Warehousing and Storage,493120,2650 Harbins Mill Dr,Dacula,Gwinnett,GA,30019,6782428120,,22RWDS270187
Ice Cold Products,Refrigerated Warehousing and Storage,493120,100 Frontier Way,Bensenville,DuPage,IL,60106,6308600375,www.icecoldproducts.com,22RWDS269921
Ice Cold Storage Inc,Refrigerated Warehousing and Storage,493120,3840 Civic Center Dr A,North Las Vegas,Clark,NV,89030,7023803038,www.icecoldstorage.com,22RWDS270261
Ice Cold Tickets Inc,Refrigerated Warehousing and Storage,493120,7590 Fay Ave Ste 406,La Jolla,San Diego,CA,92037,5183386364,,22RWDS270433
"Ice Cold Ventures, LLC",Refrigerated Warehousing and Storage,493120,9019 Tuscan Hills Dr,San Antonio,Comal,TX,78266,2104126235,,22RWDS270468
Ice Cube Art,Refrigerated Warehousing and Storage,493120,6013 Eleanor Dr,Tampa,Hillsborough,FL,33634,8138855576,,22RWDS270374
Ice King & Cold Storage Inc,Refrigerated Warehousing and Storage,493120,4045 State Route 33,Neptune,Monmouth,NJ,07753,7329220852,www.icekingandcoldstorage.com,22RWDS270283
Ics Logistics Inc.,Refrigerated Warehousing and Storage,493120,1505 Dennis St,Jacksonville,Duval,FL,32204,,,22RWDS270038
Imagine Enterprises,Refrigerated Warehousing and Storage,493120,1624 Cloud Springs Rd,Rossville,Walker,GA,30741,7068614000,,22RWDS270057
Impac Logistic Services LLC,Refrigerated Warehousing and Storage,493120,1 American Way Ste 1 # 1,Secaucus,Hudson,NJ,07094,2016177777,www.idsgroup.com,22RWDS269912
"Industrial Fuels, LLC",Refrigerated Warehousing and Storage,493120,2625 W 5th St,Jacksonville,Duval,FL,32254,9047868038,,22RWDS270182
Inland Cold Storage,Refrigerated Warehousing and Storage,493120,280 De Berry St,Colton,San Bernardino,CA,92324,9098726060,,22RWDS270196
"Innovative Cold Storage Enterprises, Inc.",Refrigerated Warehousing and Storage,493120,7350 Britannia CT,San Diego,San Diego,CA,92154,6196719933,www.innovativecold.com,22RWDS270425
"Integrated Global Solutions, LLC",Refrigerated Warehousing and Storage,493120,14108 Holly Springs Dr,Huntersville,Mecklenburg,NC,28078,,,22RWDS270022
"Inter Cities Cold Storage, Inc",Refrigerated Warehousing and Storage,493120,1075 Oak St,Pittston,Luzerne,PA,18640,5706546971,www.rlslogistics.com,22RWDS269953
Interchange Group,Refrigerated Warehousing and Storage,493120,4660 Early Rd,Mount Crawford,Rockingham,VA,22841,,www.interchangeco.com,22RWDS270314
Interstate Cold Storage Distribution Services Inc,Refrigerated Warehousing and Storage,493120,2400 Setterlin Dr,Columbus,Franklin,OH,43228,6147716700,www.interstatecoldstorage.com,22RWDS270158
Interstate Cold Storage Distribution Services Inc,Refrigerated Warehousing and Storage,493120,4410 New Haven Ave,Fort Wayne,Allen,IN,46803,2604282570,www.interstatecoldstorage.com,22RWDS270302
"Interstate Warehousing of Virginia, L.L.C.",Refrigerated Warehousing and Storage,493120,121 Harwood Dr,Newport News,Newport News city,VA,23603,7578878100,www.tippmanngroup.com,22RWDS269990
J D J Inc,Refrigerated Warehousing and Storage,493120,9415 Burtis St,South Gate,Los Angeles,CA,90280,5628062445,www.kpaccoldstorage.com,22RWDS270478
J M Davis Inc,Refrigerated Warehousing and Storage,493120,4008 Commerce St Ste 100,Dallas,Dallas,TX,75226,2148238171,www.texasicehouse.com,22RWDS270276
Ja Mar Inc,Refrigerated Warehousing and Storage,493120,337 Moore Ave,Suffolk,Suffolk city,VA,23434,7575398738,www.mar-ja.com,22RWDS270243
"Jackson Frozen Food Locker, Inc.",Refrigerated Warehousing and Storage,493120,400 S High St,Jackson,Cape Girardeau,MO,63755,5732434107,www.askthemeatman.com,22RWDS270271
Jay-D Cold Storage Co,Refrigerated Warehousing and Storage,493120,8830 SE Herbert CT,Clackamas,Clackamas,OR,97015,5036552626,www.jdrefrigerated.com,22RWDS270463
Jean & Jerry Inc,Refrigerated Warehousing and Storage,493120,10909 Highway 59 W,Burlison,Tipton,TN,38015,9014752990,,22RWDS269959
"Jerich Usa, Inc.",Refrigerated Warehousing and Storage,493120,285 Ridge Rd Ste 1,Dayton,Middlesex,NJ,08810,3107357170,www.jerich.com,22RWDS270201
Jernick Moving and Storage,Refrigerated Warehousing and Storage,493120,170 Moores Ln N,Greenport,Suffolk,NY,11944,6314770884,www.jernickmoving.com,22RWDS270071
Jimmy Ice Cream Warehouse,Refrigerated Warehousing and Storage,493120,3951 S H St Ste B,Bakersfield,Kern,CA,93304,6613961100,,22RWDS270264
"John I. Haas, Inc.",Refrigerated Warehousing and Storage,493120,3421 2nd St,Hubbard,Marion,OR,97032,5039823311,www.johnihaas.com,22RWDS270245
John Wayne Inc,Refrigerated Warehousing and Storage,493120,110 E Oneida St,Portage,Columbia,WI,53901,6087426540,,22RWDS269962
John's Butcher Shop,Refrigerated Warehousing and Storage,493120,158 N Main St,Nappanee,Elkhart,IN,46550,5747734632,www.johnsbutchershop.com,22RWDS270044
Just Ice Cold Air LLC,Refrigerated Warehousing and Storage,493120,2577 SW Savage Blvd,Port St Lucie,St. Lucie,FL,34953,8104413000,www.justicecoldair.com,22RWDS270177
"K. M. Davies Co., Inc.",Refrigerated Warehousing and Storage,493120,6509 Lake Ave,Williamson,Wayne,NY,14589,3155894811,www.kmdavies.com,22RWDS270394
"Kane Is Able, Inc.",Refrigerated Warehousing and Storage,493120,740 Pro Logis Pkwy,Romeoville,Will,IL,60446,8158867800,www.kaneisable.com,22RWDS270426
"Kane Warehousing, Inc.",Refrigerated Warehousing and Storage,493120,3 Stauffer Industrial Par,Scranton,Lackawanna,PA,18517,5703449801,www.kaneisable.com,22RWDS270210
Kansas City Cold Storage Corporation,Refrigerated Warehousing and Storage,493120,8201 E 23rd St,Kansas City,Jackson,MO,64129,8162220065,www.kccoldstorage.com,22RWDS270449
"Kenyon Zero Storage, Inc.",Refrigerated Warehousing and Storage,493120,250 Grandridge Rd,Grandview,Yakima,WA,98930,5098821103,www.kenyonzero.com,22RWDS270166
"Kern Ice & Cold Storage, LLC",Refrigerated Warehousing and Storage,493120,120 30th St,Bakersfield,Kern,CA,93301,6613241911,www.kerniceandcoldstoragellc.com,22RWDS269982
Kershaw Fruit & Cold Storage,Refrigerated Warehousing and Storage,493120,151 Low Rd,Yakima,Yakima,WA,98908,5099665230,www.kershawfruit.com,22RWDS270040
"Keystone Cold, L.L.C.",Refrigerated Warehousing and Storage,493120,9801 Keystone,Pharr,Hidalgo,TX,78577,9568431900,www.keystonecold.com,22RWDS270489
Kloppenberg Investment Company,Refrigerated Warehousing and Storage,493120,22627 W Oxford Ave,Englewood,Arapahoe,CO,80110,3037611615,www.kloppenberg.com,22RWDS270138
Km Brrr Inc,Refrigerated Warehousing and Storage,493120,1042 Parsonage Rd,Bridgeton,Cumberland,NJ,08302,8564550031,www.kmtbrrr.com,22RWDS269943
Kmk Sales,Refrigerated Warehousing and Storage,493120,317 Saint Anthony St,Mount Calvary,Fond du Lac,WI,53057,9207532410,,22RWDS270228
Kruck's Transport LLC,Refrigerated Warehousing and Storage,493120,105 Wickfield Dr,Sanford,Lee,NC,27330,9197709413,,22RWDS269944
"Laack Cold Storage, LLC",Refrigerated Warehousing and Storage,493120,6375 County Rd N,Arpin,Wood,WI,54410,,www.laackcoldstorage.com,22RWDS270390
Ladoga Frozen Foods & Locker Service,Refrigerated Warehousing and Storage,493120,237 S Washington St,Ladoga,Montgomery,IN,47954,7659422225,,22RWDS270152
"Langley Foods, Inc.",Refrigerated Warehousing and Storage,493120,256 Midland Trl,Mount Sterling,Montgomery,KY,40353,8594980660,www.langleyfoodsinc.com,22RWDS270176
Lawrence Freezer Corp,Refrigerated Warehousing and Storage,493120,224 Michigan St,Lawrence,Van Buren,MI,49064,2696748916,www.lawrencemi.org,22RWDS270137
Lcubed Corporation Ldcm,Refrigerated Warehousing and Storage,493120,1611 N Binkley Rd,Larwill,Whitley,IN,46764,2603273996,,22RWDS270054
"Levi Properties, LLP",Refrigerated Warehousing and Storage,493120,1924 8th St NW,Minot,Ward,ND,58703,7018525738,,22RWDS270083
Lime Springs Locker Service,Refrigerated Warehousing and Storage,493120,1532 Noble Ave,Lime Springs,Howard,IA,52155,,www.limesprings.lib.ia.us,22RWDS270043
Lineage,Refrigerated Warehousing and Storage,493120,4001 W Ursula Ave,McAllen,Hidalgo,TX,78503,,,22RWDS270275
"Lineage Foodservice Solutions, LLC",Refrigerated Warehousing and Storage,493120,2 Grant St,Binghamton,Broome,NY,13904,,www.maines.net,22RWDS270091
Lineage Logistics,Refrigerated Warehousing and Storage,493120,2523 Edward Babe Gmez Ave,Omaha,Douglas,NE,68107,,www.lineagelogistics.com,22RWDS270171
"Lineage Logistics Afs, LLC",Refrigerated Warehousing and Storage,493120,2501 Broadway St,Cheektowaga,Erie,NY,14227,7168944000,www.alliedfrozenstorage.com,22RWDS270169
"Lineage Logistics Afs, LLC",Refrigerated Warehousing and Storage,493120,260 State St,Brockport,Monroe,NY,14420,5856373166,www.alliedfrozenstorage.com,22RWDS270178
"Lineage Logistics Holdings, LLC",Refrigerated Warehousing and Storage,493120,1 Park Plz Ste 550,Irvine,Orange,CA,92614,8006787271,www.lineagelogistics.com,22RWDS269915
"Lineage Logistics Holdings, LLC",Refrigerated Warehousing and Storage,493120,101 Progress Dr,Rincon,Effingham,GA,31326,9127541706,www.lineagelogistics.com,22RWDS269929
"Lineage Logistics Holdings, LLC",Refrigerated Warehousing and Storage,493120,1023 Worth St,Albany,Dougherty,GA,31705,2294398080,www.lineagelogistics.com,22RWDS269938
"Lineage Logistics Holdings, LLC",Refrigerated Warehousing and Storage,493120,13550a Valley Blvd,Fontana,San Bernardino,CA,92335,9093493699,www.lineagelogistics.com,22RWDS270017
"Lineage Logistics Holdings, LLC",Refrigerated Warehousing and Storage,493120,1650 E Madison Ave,Des Moines,Polk,IA,50313,5152659861,www.lineagelogistics.com,22RWDS270061
"Lineage Logistics Holdings, LLC",Refrigerated Warehousing and Storage,493120,2302 Milwaukee Way,Tacoma,Pierce,WA,98421,2532720900,www.lineagelogistics.com,22RWDS270144
"Lineage Logistics Holdings, LLC",Refrigerated Warehousing and Storage,493120,2323 Port Road A,Stockton,San Joaquin,CA,95203,2099422323,www.lineagelogistics.com,22RWDS270148
"Lineage Logistics Holdings, LLC",Refrigerated Warehousing and Storage,493120,235 NW Industrial Blvd,Macon,Bibb,GA,31216,4787816565,www.lineagelogistics.com,22RWDS270150
"Lineage Logistics Holdings, LLC",Refrigerated Warehousing and Storage,493120,2900 Cofer Rd,Richmond,Richmond city,VA,23224,8042321266,www.lineagelogistics.com,22RWDS270204
"Lineage Logistics Holdings, LLC",Refrigerated Warehousing and Storage,493120,3030 E Parkway Dr,Decatur,Macon,IL,62526,2174293106,www.lineagelogistics.com,22RWDS270215
"Lineage Logistics Icm, LLC",Refrigerated Warehousing and Storage,493120,2323 Porter Way,Stockton,San Joaquin,CA,95207,8006787271,www.lineagelogistics.com,22RWDS270149
"Lineage Logistics Pfs, LLC",Refrigerated Warehousing and Storage,493120,1 Commercial St,Sharon,Norfolk,MA,02067,7817848399,,22RWDS269913
"Lineage Logistics Pfs, LLC",Refrigerated Warehousing and Storage,493120,100 Polar St,Jersey City,Hudson,NJ,07305,2019153800,www.preferredfreezer.com,22RWDS269924
"Lineage Logistics Pfs, LLC",Refrigerated Warehousing and Storage,493120,10585 Red Bluff Rd,Pasadena,Harris,TX,77507,2812919100,,22RWDS269947
"Lineage Logistics Pfs, LLC",Refrigerated Warehousing and Storage,493120,200 Polar St,Jersey City,Hudson,NJ,07305,2019153800,www.preferredfreezer.com,22RWDS270095
"Lineage Logistics Pfs, LLC",Refrigerated Warehousing and Storage,493120,200 Polar Way,Lincoln Park,Morris,NJ,07035,2013956400,www.preferredfreezer.com,22RWDS270096
"Lineage Logistics Pfs, LLC",Refrigerated Warehousing and Storage,493120,2500 S Damen Ave,Chicago,Cook,IL,60608,7738471800,www.preferredfreezer.com,22RWDS270168
"Lineage Logistics Pfs, LLC",Refrigerated Warehousing and Storage,493120,360 Avenue P,Newark,Essex,NJ,07105,9738204040,www.preferredfreezer.com,22RWDS270251
"Lineage Logistics Pfs, LLC",Refrigerated Warehousing and Storage,493120,400 Hudson Ln,San Leandro,Alameda,CA,94577,,www.preferredfreezer.com,22RWDS270268
"Lineage Logistics Pfs, LLC",Refrigerated Warehousing and Storage,493120,518 Forest Pkwy,College Park,Fulton,GA,30349,4047672210,www.preferredfreezer.com,22RWDS270343
"Lineage Logistics Pfs, LLC",Refrigerated Warehousing and Storage,493120,555 Aleen St,Houston,Harris,TX,77029,7132226300,www.preferredfreezer.com,22RWDS270358
"Lineage Logistics Services, LLC",Refrigerated Warehousing and Storage,493120,110 Plugs Dr,Decatur,Morgan,AL,35601,2563010028,www.lineagelogistics.com,22RWDS269963
"Lineage Logistics Services, LLC",Refrigerated Warehousing and Storage,493120,240a GA Highway 247 Spur,Perry,Houston,GA,31069,4789885842,,22RWDS270159
"Lineage Logistics, LLC",Refrigerated Warehousing and Storage,493120,1001 Columbia Ave,Riverside,Riverside,CA,92507,9098359124,www.lineagelogistics.com,22RWDS269928
"Lineage Logistics, LLC",Refrigerated Warehousing and Storage,493120,13030 Pierce St,Omaha,Douglas,NE,68144,4028966600,www.lineagelogistics.com,22RWDS270007
"Lineage Logistics, LLC",Refrigerated Warehousing and Storage,493120,1521 Mitchell Ave,Albany,Dougherty,GA,31705,2293442839,www.flintriverservices.com,22RWDS270042
"Lineage Logistics, LLC",Refrigerated Warehousing and Storage,493120,1600 Jefferson Davis Hwy,Richmond,Richmond city,VA,23224,8042339602,www.lineagelogistics.com,22RWDS270050
"Lineage Logistics, LLC",Refrigerated Warehousing and Storage,493120,2050 E 55th St,Vernon,Los Angeles,CA,90058,3235874600,www.preferredfreezer.com,22RWDS270107
"Lineage Logistics, LLC",Refrigerated Warehousing and Storage,493120,206 SW Michigan St,Seattle,King,WA,98106,2067677350,www.lineagelogistics.com,22RWDS270110
"Lineage Logistics, LLC",Refrigerated Warehousing and Storage,493120,2063 Mguel Bstamante Pkwy,Colton,San Bernardino,CA,92324,9094982028,www.lineagelogistics.com,22RWDS270111
"Lineage Logistics, LLC",Refrigerated Warehousing and Storage,493120,3040 Hilltop Rd,Moss Landing,Monterey,CA,95039,,www.lineagelogistics.com,22RWDS270216
"Lineage Logistics, LLC",Refrigerated Warehousing and Storage,493120,367 Long Creek Rd,Mesquite,Dallas,TX,75182,9722038459,www.lineagelogistics.com,22RWDS270254
"Lineage Logistics, LLC",Refrigerated Warehousing and Storage,493120,400 Pine St,Unadilla,Dooly,GA,31091,4789978888,www.flintriverservices.com,22RWDS270269
"Lineage Logistics, LLC",Refrigerated Warehousing and Storage,493120,450 Central Ave,University Park,Will,IL,60484,7085873633,www.lineagelogistics.com,22RWDS270306
"Lineage Logistics, LLC",Refrigerated Warehousing and Storage,493120,46500 Humboldt Dr,Novi,Oakland,MI,48377,2488634400,www.lineagelogistics.com,22RWDS270313
"Lineage Logistics, LLC",Refrigerated Warehousing and Storage,493120,4735 Brooklake Rd Ne,Brooks,Marion,OR,97305,,www.lineagelogistics.com,22RWDS270316
"Lineage Logistics, LLC",Refrigerated Warehousing and Storage,493120,502 10th Ave N,Algona,King,WA,98001,2532720900,www.lineagelogistics.com,22RWDS270334
"Lineage Logistics, LLC",Refrigerated Warehousing and Storage,493120,820 Industrial Loop,Quincy,Grant,WA,98848,5097872202,www.lineagelogistics.com,22RWDS270448
"Lineage Logistics, LLC",Refrigerated Warehousing and Storage,493120,8791 Hampton Blvd Pier 3,Norfolk,Norfolk city,VA,23505,7574513211,www.lineagelogistics.com,22RWDS270462
Lloyd R Gist Enterprises Inc,Refrigerated Warehousing and Storage,493120,121 1st St,Exeter,Tulare,CA,93221,5595923232,,22RWDS269989
"Londonderry Freezer Warehouse, LLC",Refrigerated Warehousing and Storage,493120,219 Rockingham Rd,Londonderry,Rockingham,NH,03053,6034219525,www.reallycold.com,22RWDS270125
"Loop Fresh Gp, Inc.",Refrigerated Warehousing and Storage,493120,8700 Crownhill Blvd,San Antonio,Bexar,TX,78209,,,22RWDS270461
"Loris Cold Storage and Retail, Inc.",Refrigerated Warehousing and Storage,493120,2371 Main St,Loris,Horry,SC,29569,8437561741,www.lorisselfstorage.com,22RWDS270153
Los Angeles Unified School District Inc,Refrigerated Warehousing and Storage,493120,532 E Pico Blvd,Los Angeles,Los Angeles,CA,90015,,www.laallcityband.com,22RWDS270350
Luceros Ice Cold Air,Refrigerated Warehousing and Storage,493120,28500 Mssion Blvd APT 805,Hayward,Alameda,CA,94544,5104605744,,22RWDS270202
"M&M Warehousing, LLC",Refrigerated Warehousing and Storage,493120,2200 Dickinson Rd 15a,De Pere,Brown,WI,54115,9203734653,www.mmwarehousing.com,22RWDS270131
Macarthur Drive Self Storage,Refrigerated Warehousing and Storage,493120,727 Macarthur Dr Ste A,Alexandria,Rapides,LA,71303,3184420206,www.macarthurdriveselfstorage.com,22RWDS270423
"Macon Cold Storage, Inc.",Refrigerated Warehousing and Storage,493120,1945 Waterville Rd,Macon,Bibb,GA,31206,,,22RWDS270085
"Magna-Tech Electronic Co., Inc.",Refrigerated Warehousing and Storage,493120,5066 Charbett Dr,College Park,Fulton,GA,30349,4043050797,www.magna-tech.com,22RWDS270338
Manfredi Logistics,Refrigerated Warehousing and Storage,493120,290 Chambers Rd,Toughkenamon,Chester,PA,19374,6104442270,www.manfredicoldstorage.com,22RWDS270203
Maritime International Inc,Refrigerated Warehousing and Storage,493120,241 Park Ave,Hartford,Hartford,CT,06108,8602820130,,22RWDS270160
"Maritime Terminal, Inc.",Refrigerated Warehousing and Storage,493120,276 Macarthur Dr,New Bedford,Bristol,MA,02740,5089968507,www.maritimeinternational.org,22RWDS270193
"Mastronardi Produce-Usa, Inc.",Refrigerated Warehousing and Storage,493120,14241 5 M Center Dr,Romulus,Wayne,MI,48174,5866346139,www.sunsetgrown.com,22RWDS270026
"McAllen International Cold, Inc.",Refrigerated Warehousing and Storage,493120,514 S 16th St Ste A,McAllen,Hidalgo,TX,78501,,www.mcallenrefrigeration.com,22RWDS270341
"McDermid Transportation, Inc.",Refrigerated Warehousing and Storage,493120,160 Hank Marks Dr,Oconto Falls,Oconto,WI,54154,9208469923,www.mcdermidcorp.com,22RWDS270048
Medina Cold Storage Co Inc,Refrigerated Warehousing and Storage,493120,106 North Ave,Medina,Orleans,NY,14103,5857983811,www.medinacoldstorage.com,22RWDS269949
Melrose Meat Shoppe,Refrigerated Warehousing and Storage,493120,17 5th Ave SE,Melrose,Stearns,MN,56352,3202564222,,22RWDS270070
Merchandise Warehouse Co Inc,Refrigerated Warehousing and Storage,493120,1414 S West St,Indianapolis,Marion,IN,46225,3176028639,www.mwcold.com,22RWDS270023
"Merchants Cold Storage, LLC",Refrigerated Warehousing and Storage,493120,240 Shorland Dr Ste 100,Walton,Boone,KY,41094,8594854474,www.mcstorage.com,22RWDS270157
Merchants Terminal Corp,Refrigerated Warehousing and Storage,493120,4851 Holabird Ave,Baltimore,Baltimore city,MD,21224,4103429300,www.mtccold.com,22RWDS270320
"Metro Cold Storage, Inc",Refrigerated Warehousing and Storage,493120,1440 Bishop Rd,Grosse Pointe Park,Wayne,MI,48230,,www.detroitmetrocoldstorage.com,22RWDS270029
"Metro Logics, Inc.",Refrigerated Warehousing and Storage,493120,3907 W Ninigret Dr,Salt Lake City,Salt Lake,UT,84104,8019902160,,22RWDS270262
Michigan Natural Storage Co.,Refrigerated Warehousing and Storage,493120,1020 Hall St SW,Grand Rapids,Kent,MI,49503,,www.naturalstorage.com,22RWDS269934
MICHIGAN NATURAL STORAGE CO.,Refrigerated Warehousing and Storage,493120,1200 Judd Ave SW,Grand Rapids,Kent,MI,49509,6162411619,www.naturalstorage.com,22RWDS269984
"Mid Florida Freezer Warehouses, Ltd",Refrigerated Warehousing and Storage,493120,9025 N Atlantic Ave,Cape Canaveral,Brevard,FL,32920,4078867730,www.cold-linklogistics.com,22RWDS270469
Mid-Continent Cold Storage Co,Refrigerated Warehousing and Storage,493120,431 S 89th St,Omaha,Douglas,NE,68114,4023978212,,22RWDS270295
Middlebury Cold Storage Inc,Refrigerated Warehousing and Storage,493120,101 Wayne St,Middlebury,Elkhart,IN,46540,5748252940,www.middleburyin.org,22RWDS269931
Mid-Eastern Cold Storage LLC,Refrigerated Warehousing and Storage,493120,198 N Orchard Rd,Vineland,Cumberland,NJ,08360,8566913700,www.mideasterncoldstorage.com,22RWDS270089
Midwest Cold Storage & Logistics LLC,Refrigerated Warehousing and Storage,493120,1909 32nd St N,Wisconsin Rapids,Wood,WI,54494,7154214100,www.mwcoldstorage.com,22RWDS270081
"Midwest Refrigerated Services, Inc.",Refrigerated Warehousing and Storage,493120,1510 Country Club Pkwy,Elkhorn,Walworth,WI,53121,2627234100,www.midwestrefrigerated.com,22RWDS270041
"Midwest Refrigerated Services, LLC",Refrigerated Warehousing and Storage,493120,1601 Fairfax Trfy,Kansas City,Wyandotte,KS,66115,9136211111,www.midwestref.com,22RWDS270051
"Mims Investments, Inc.",Refrigerated Warehousing and Storage,493120,12634 East Fwy,Houston,Harris,TX,77015,7138189566,www.mimswarehousesolutions.com,22RWDS270001
Minnesota Freezer Warehouse Co Inc,Refrigerated Warehousing and Storage,493120,820 E 13th St,Albert Lea,Freeborn,MN,56007,5073731477,www.mfwc-cold.com,22RWDS270447
"Montana Eggs, LLC",Refrigerated Warehousing and Storage,493120,600 Kingsbury Colony Rd,Valier,Pondera,MT,59486,4064723304,,22RWDS270370
"Morgan-Todt, Inc.",Refrigerated Warehousing and Storage,493120,1600 Donner Ave,San Francisco,San Francisco,CA,94124,4158228445,www.unitedcoldstorage.com,22RWDS270049
"Mosinee Cold Storage, Inc.",Refrigerated Warehousing and Storage,493120,751 Maple Ridge Rd,Mosinee,Marathon,WI,54455,7156932130,www.mosineechamber.org,22RWDS270430
Moulton Locker Service,Refrigerated Warehousing and Storage,493120,112 S Main St,Moulton,Appanoose,IA,52572,6416423422,www.moultonlocker.com,22RWDS269972
"Mullica Hill Cold Storage, LLC",Refrigerated Warehousing and Storage,493120,3 Gateway Blvd,Pedricktown,Salem,NJ,08067,8564786300,www.mullicahg.com,22RWDS270209
Neal Schwaller,Refrigerated Warehousing and Storage,493120,103 Reed St,Plymouth,Sheboygan,WI,53073,9208927741,,22RWDS269939
New Haven Custom Meats Inc,Refrigerated Warehousing and Storage,493120,2616 Ryan Rd,New Haven,Allen,IN,46774,2607494100,www.cqmeats.com,22RWDS270180
"Newcold Burley, LLC",Refrigerated Warehousing and Storage,493120,22 N Stars Ferry Pl P,Burley,Cassia,ID,83318,2083602807,www.newcoldburley.com,22RWDS270129
Newtons Locker & Processing Plant,Refrigerated Warehousing and Storage,493120,203 N Sycamore St,Harrison,Boone,AR,72601,8707415255,,22RWDS270105
"Nor-AM Cold Storage, Inc.",Refrigerated Warehousing and Storage,493120,503 Front St E,Detroit Lakes,Becker,MN,56501,2188445770,www.nor-am.com,22RWDS270336
Nordic Cold Storage Co Inc,Refrigerated Warehousing and Storage,493120,548 1st Ave S,Seattle,King,WA,98104,,,22RWDS270357
"Nordic Cold Storage, LLC",Refrigerated Warehousing and Storage,493120,25 Bonhomie Rd,Hattiesburg,Forrest,MS,39401,,www.agromerchants.com,22RWDS270165
Nordic Ice,Refrigerated Warehousing and Storage,493120,7414 Kingspointe Pkwy # 60,Orlando,Orange,FL,32819,4079511489,,22RWDS270427
"Nordic Logistics and Warehousing, LLC",Refrigerated Warehousing and Storage,493120,4300 Pleasantdale Rd,Atlanta,DeKalb,GA,30340,7704487400,www.nordiccold.com,22RWDS270292
"North East Refrigerated Terminals N.A., Inc",Refrigerated Warehousing and Storage,493120,97 Wood St,Middleboro,Plymouth,MA,02346,5089475200,,22RWDS270487
Northland Cold Storage Inc,Refrigerated Warehousing and Storage,493120,2490 S Broadway,Green Bay,Brown,WI,54304,9204314600,www.ncold.com,22RWDS270163
Oakland Frozen Food Lockers,Refrigerated Warehousing and Storage,493120,133 SE 4th St,Oakland,Douglas,OR,97462,5414592722,,22RWDS270012
"Obi Seafoods, LLC",Refrigerated Warehousing and Storage,493120,601 Port Ave,Seward,Kenai Peninsula,AK,99664,9072243381,www.icicleseafoods.com,22RWDS270371
Ocean Cold LLC,Refrigerated Warehousing and Storage,493120,1601 Yearout Dr,Westport,Grays Harbor,WA,98595,3602681301,www.oceancos.com,22RWDS270053
Ocean's Finest Group Inc,Refrigerated Warehousing and Storage,493120,2490 W 78th St,Hialeah,Miami-Dade,FL,33016,3055565535,,22RWDS270164
Odon Locker Inc,Refrigerated Warehousing and Storage,493120,606 W Elnora St,Odon,Daviess,IN,47562,8126364242,,22RWDS270380
Olympic Steamship Co Inc,Refrigerated Warehousing and Storage,493120,8220 S 212th St,Kent,King,WA,98032,2538723464,,22RWDS270450
"Omaha Industries, Inc.",Refrigerated Warehousing and Storage,493120,7071 N 87th St,Omaha,Douglas,NE,68122,4027347321,,22RWDS270415
Pajaro Valley Cold Storage Co Inc,Refrigerated Warehousing and Storage,493120,175 2nd St,Watsonville,Santa Cruz,CA,95076,8317229791,www.pajarovalleyhistory.org,22RWDS270074
Park Hazle Cold Storage Inc,Refrigerated Warehousing and Storage,493120,260 Washington Ave,Hazle Township,Luzerne,PA,18202,5704557571,www.hazlepark.com,22RWDS270179
"Partners Alliance Cold Storage, Inc.",Refrigerated Warehousing and Storage,493120,4775 Brookhollow Cir,Riverside,Riverside,CA,92509,9099864400,www.partnersacs.com,22RWDS270318
Patane Brothers Freezers Inc,Refrigerated Warehousing and Storage,493120,108 Densten Rd,Sewell,Gloucester,NJ,08080,8565897256,,22RWDS269955
Paul Newport-St Cold Storage Company,Refrigerated Warehousing and Storage,493120,2233 Maxwell Ave,Newport,Washington,MN,55055,6514595555,www.newportcold.com,22RWDS270136
Paul R Fields,Refrigerated Warehousing and Storage,493120,202 Chase Ave,Hallstead,Susquehanna,PA,18822,,,22RWDS270103
Pavero Cold Storage Corp.,Refrigerated Warehousing and Storage,493120,10 North Rd,Highland,Ulster,NY,12528,8456912992,www.paverocoldstorage.com,22RWDS269917
"Penguin Cold Storage, Inc.",Refrigerated Warehousing and Storage,493120,1619 S 31st Ave,Phoenix,Maricopa,AZ,85009,6022331786,www.penguincoldstorage.com,22RWDS270056
Personal,Refrigerated Warehousing and Storage,493120,4104 Silkbay CT,Tallahassee,Leon,FL,32308,8509745646,,22RWDS270286
"Petersburg Economic Development Council, Inc.",Refrigerated Warehousing and Storage,493120,112 Haugen Dr,Petersburg,Petersburg,AK,99833,9077724042,www.petersburgedc.org,22RWDS269971
Philadelphia Warehousing & Cold Storage Co Inc,Refrigerated Warehousing and Storage,493120,500 N Columbus Blvd,Philadelphia,Philadelphia,PA,19123,,www.philadelphiacoldstorage.com,22RWDS270328
Phillip's Refrigeration,Refrigerated Warehousing and Storage,493120,166 Rattler Curry Rd,Columbia,Adair,KY,42728,2703846677,,22RWDS270064
Phoenix Hill,Refrigerated Warehousing and Storage,493120,100 Cheshire Chase,Fayetteville,Fayette,GA,30215,7706291373,,22RWDS269920
Pioneer Valley Refrigerated Warehouse Inc.,Refrigerated Warehousing and Storage,493120,149 Plainfield St,Chicopee,Hampden,MA,01013,4137361976,www.pioneercold.com,22RWDS270033
Polar Bear Ice Company Inc,Refrigerated Warehousing and Storage,493120,528 Monroe St,Alexandria,Rapides,LA,71301,,,22RWDS270348
Polar Crossing Strge,Refrigerated Warehousing and Storage,493120,3300 Veterans Memorial Hw,Bohemia,Suffolk,NY,11716,6316152700,www.polarcrossing.com,22RWDS270238
"Preferred Freezer Logistics, LLC",Refrigerated Warehousing and Storage,493120,1 Main St,Chatham,Morris,NJ,07928,9738204400,www.preferredfreezer.com,22RWDS269914
Preferred Freezer Services - Lbf Llc.,Refrigerated Warehousing and Storage,493120,4901 Bandini Blvd,Vernon,Los Angeles,CA,90058,3232638811,www.preferredfreezer.com,22RWDS270323
"Preferred Freezer Services, LLC",Refrigerated Warehousing and Storage,493120,46500 Humboldt Dr,Novi,Oakland,MI,48377,9738204040,www.preferredfreezerservices.com,22RWDS270312
Produce Unlimited Inc,Refrigerated Warehousing and Storage,493120,23105 Coolidge Hwy,Oak Park,Oakland,MI,48237,3135511000,,22RWDS270146
"Quality Custom Distribution Services, Inc.",Refrigerated Warehousing and Storage,493120,7953 Cherry Ave,Fontana,San Bernardino,CA,92336,9095875878,www.qualitycustomdistribution.com,22RWDS270438
"Quality Refrigerated Services, Inc.",Refrigerated Warehousing and Storage,493120,2626 Polar Rd,Worthington,Nobles,MN,56187,5073722184,www.qualityrefrigerated.com,22RWDS270184
Quincy Valley Fruit,Refrigerated Warehousing and Storage,493120,555 F St SW,Quincy,Grant,WA,98848,5097871212,www.quincyvalley.org,22RWDS270359
Quinebaug Valley Cold Storage Associatio,Refrigerated Warehousing and Storage,493120,108 Crystal Pond Rd,Eastford,Windham,CT,06242,,,22RWDS269954
R Plum Corporation,Refrigerated Warehousing and Storage,493120,1327 N Oak St,Spokane,Spokane,WA,99201,5093282070,www.upticstudios.com,22RWDS270011
R Plum Corporation,Refrigerated Warehousing and Storage,493120,3314 10th St,Lewiston,Nez Perce,ID,83501,2087437462,www.upticstudios.com,22RWDS270241
R. W. Zant Co.,Refrigerated Warehousing and Storage,493120,1498 E 4th St,Los Angeles,Los Angeles,CA,90033,3239805457,www.rwzant.com,22RWDS270035
Ranchers Service Inc,Refrigerated Warehousing and Storage,493120,714 S Blosser Rd,Santa Maria,Santa Barbara,CA,93458,,,22RWDS270419
Rancho Cold Storage,Refrigerated Warehousing and Storage,493120,670 Mesquit St,Los Angeles,Los Angeles,CA,90021,2136248861,www.ranchocoldstorage.com,22RWDS270400
Rank Trade Services Inc,Refrigerated Warehousing and Storage,493120,3555 NW 77th Ave Unit 103,Doral,Miami-Dade,FL,33122,3054779979,,22RWDS270249
Ray Emerick's Warehouse Co Inc,Refrigerated Warehousing and Storage,493120,1100 N Swift Rd,Addison,DuPage,IL,60101,6304958817,www.rayeme.com,22RWDS269964
"Rbl, Inc.",Refrigerated Warehousing and Storage,493120,316 20th St,Carlstadt,Bergen,NJ,07072,2018049988,www.rblnet.com,22RWDS270226
"Red Diamond Cooling, Inc.",Refrigerated Warehousing and Storage,493120,4375 Brown Rd,Santa Maria,Santa Barbara,CA,93455,8053435808,,22RWDS270297
Refrig-It Warehouse,Refrigerated Warehousing and Storage,493120,80 Campus Dr,Kearny,Hudson,NJ,07032,9733444545,www.refrigit.com,22RWDS270443
"Reliance Cold Storage Warehouse Co., Inc.",Refrigerated Warehousing and Storage,493120,1627 Navy Dr,Stockton,San Joaquin,CA,95206,2094623085,,22RWDS270058
Rez International Corporation,Refrigerated Warehousing and Storage,493120,1810 Water Pl SE Ste 180,Atlanta,Fulton,GA,30339,4044377583,www.rezinternational.com,22RWDS270076
Richard A George Inc,Refrigerated Warehousing and Storage,493120,632 Grammes Ln,Allentown,Lehigh,PA,18104,6103952351,,22RWDS270389
Rio Station Juice Bar Inc,Refrigerated Warehousing and Storage,493120,16600 NW 54th Ave,Hialeah,Miami-Dade,FL,33014,7865659013,,22RWDS270065
Rochester Meat Company,Refrigerated Warehousing and Storage,493120,4239 Highway 14 W,Rochester,Olmsted,MN,55901,5075294700,www.bih-us.com,22RWDS270290
Romar Enterprises Ltd,Refrigerated Warehousing and Storage,493120,721 Nichols Blvd,Colorado Springs,El Paso,CO,80907,7195990572,www.romarcoldstorage.com,22RWDS270421
Ronald E Henderson,Refrigerated Warehousing and Storage,493120,4000 Mack Ave,Klamath Falls,Klamath,OR,97603,5418823250,,22RWDS270273
Russell Fruit Service,Refrigerated Warehousing and Storage,493120,3621 Curtis Ave,Ransomville,Niagara,NY,14131,7167914511,,22RWDS270253
Sam C Bradshaw Investments,Refrigerated Warehousing and Storage,493120,5220 McKinney Ave Ste 200,Dallas,Dallas,TX,75205,2146920244,,22RWDS270346
"Sam Dunn Enterprises, Inc.",Refrigerated Warehousing and Storage,493120,1341 E Airport Fwy,Irving,Dallas,TX,75062,9035539370,www.samdunninc.com,22RWDS270014
"Sam Dunn Enterprises, Inc.",Refrigerated Warehousing and Storage,493120,1400 W Cotton St Unit A,Longview,Gregg,TX,75604,9723176868,www.samdunninc.com,22RWDS270020
"San Diego Refrigerated Services, Inc.",Refrigerated Warehousing and Storage,493120,802 Terminal St,San Diego,San Diego,CA,92101,6197029334,www.harborsidesd.com,22RWDS270446
"Sargol International Food, Inc.",Refrigerated Warehousing and Storage,493120,7019 Canoga Ave Ste C,Canoga Park,Los Angeles,CA,91303,8183904591,,22RWDS270411
Schaefer's Meats,Refrigerated Warehousing and Storage,493120,9820 D St,Oakland,Alameda,CA,94603,5106325064,www.schaefersmeats.com,22RWDS270490
"Schilling Ice, Inc.",Refrigerated Warehousing and Storage,493120,1950 Pyrite Rd,Casper,Natrona,WY,82604,3072379222,,22RWDS270087
"Sea Snack Foods, Inc.",Refrigerated Warehousing and Storage,493120,200 Mesnagers St,Los Angeles,Los Angeles,CA,90012,,www.seasnack.com,22RWDS270094
Seaboard Cold Storage Inc,Refrigerated Warehousing and Storage,493120,402 E Ohio St,Plant City,Hillsborough,FL,33563,,www.seaboardcs.com,22RWDS270279
Seaboard Cold Storage Inc,Refrigerated Warehousing and Storage,493120,5601 Anderson Rd,Tampa,Hillsborough,FL,33614,8138875984,www.seaboardcs.com,22RWDS270361
Select Foods Inc,Refrigerated Warehousing and Storage,493120,1246 Hearst Dr,Pleasanton,Alameda,CA,94566,5107851000,,22RWDS269996
Selehs De Federal Hill,Refrigerated Warehousing and Storage,493120,1018 S Charles St,Baltimore,Baltimore city,MD,21230,4105289061,www.selehfurstailoringdesigns.com,22RWDS269933
Serve Yourself LLC,Refrigerated Warehousing and Storage,493120,845 Campbell St,Baker City,Baker,OR,97814,,,22RWDS270457
"Service Cold Storage, LLC",Refrigerated Warehousing and Storage,493120,5700 Em Copps Dr,Stevens Point,Portage,WI,54482,7155444565,www.servicecold.biz,22RWDS270365
Shelby Cold Storage Inc,Refrigerated Warehousing and Storage,493120,1201 SW 76th Ave,Amarillo,Randall,TX,79118,8063710100,,22RWDS269987
Shugart Management Inc,Refrigerated Warehousing and Storage,493120,5644 Shattalon Dr,Winston Salem,Forsyth,NC,27105,,www.mungo.com,22RWDS270363
Shull Storage,Refrigerated Warehousing and Storage,493120,12683 E State Highway 33,Newton,Jasper,IL,62448,6187834078,,22RWDS270002
Smithfield Packaged Meats Corp.,Refrigerated Warehousing and Storage,493120,444 Gilbert Rd,Benson,Johnston,NC,27504,9192076000,www.smithfield.com,22RWDS270303
"Sodus Cold Storage Company, Inc.",Refrigerated Warehousing and Storage,493120,50 Maple Ave,Sodus,Wayne,NY,14551,3154836966,www.sodus.com,22RWDS270327
"South Bay Cold Storage & Handling, Inc.",Refrigerated Warehousing and Storage,493120,1351 Elwood St,Los Angeles,Los Angeles,CA,90021,2136120158,www.s-b-c-s.com,22RWDS270015
"South Jersey Cold Storage, L.L.C.",Refrigerated Warehousing and Storage,493120,546 Franklinville Rd,Mullica Hill,Gloucester,NJ,08062,8564786300,www.agromerchants.com,22RWDS270356
Southwest Food Processing & Refrigerated Services,Refrigerated Warehousing and Storage,493120,12190 Rojas Dr,El Paso,El Paso,TX,79936,9158602200,www.fivestardevelopment.com,22RWDS269993
Sparta Fruit Storage Inc,Refrigerated Warehousing and Storage,493120,278 Hickory St,Sparta,Kent,MI,49345,6168870028,www.storagecontrol.com,22RWDS270194
"SPI Transportation, Inc.",Refrigerated Warehousing and Storage,493120,485 W Main St,Kuna,Ada,ID,83642,2089225771,www.spiidaho.com,22RWDS270319
Springfield Storage Solutions LLC,Refrigerated Warehousing and Storage,493120,1904 N Le Compte Ave,Springfield,Greene,MO,65802,4178625289,www.springfieldmo.gov,22RWDS270080
"St. Cloud Meat & Provision, Inc.",Refrigerated Warehousing and Storage,493120,519 28th Ave S,Waite Park,Stearns,MN,56387,3202520037,,22RWDS270344
Standard-Southern Corporation,Refrigerated Warehousing and Storage,493120,400 S Central Ave,Los Angeles,Los Angeles,CA,90013,2136241831,www.standardsouthern.com,22RWDS270270
Standard-Southern Corporation,Refrigerated Warehousing and Storage,493120,440 S Central Ave,Los Angeles,Los Angeles,CA,90013,2136241831,www.standardsouthern.com,22RWDS270300
Steiners Locker Service Inc,Refrigerated Warehousing and Storage,493120,404 E 3rd St,Yankton,Yankton,SD,57078,6056653407,,22RWDS270282
"Sttak Industries, Inc.",Refrigerated Warehousing and Storage,493120,3213 S Park Springs Dr,West Valley City,Salt Lake,UT,84120,8013307690,,22RWDS270233
SUGAR RIVER COLD STORAGE LLC,Refrigerated Warehousing and Storage,493120,489 N Pratt Rd,Monticello,Green,WI,53570,6089381377,www.sugarrivercoldstorage.com,22RWDS270321
Summit Cold Storage Corporation,Refrigerated Warehousing and Storage,493120,5450 S Center Ave Ste 1,Summit Argo,Cook,IL,60501,7089241137,www.summitcoldstorage.com,22RWDS270355
Sun States Refrigerated Services Inc,Refrigerated Warehousing and Storage,493120,211 Through St,Andalusia,Covington,AL,36420,3342222629,,22RWDS270115
Suncoast Ice Cold Air Hea,Refrigerated Warehousing and Storage,493120,6515 1st Ave S,Saint Petersburg,Pinellas,FL,33707,7275880333,,22RWDS270395
Sunmet Packaging Cold Storage,Refrigerated Warehousing and Storage,493120,32324 Famoso Rd,Mc Farland,Kern,CA,93250,6613870200,,22RWDS270234
Taft Transportation,Refrigerated Warehousing and Storage,493120,1108 Wakefield Dr,Springfield,Sangamon,IL,62704,2176987950,,22RWDS269967
"Temp Trans, Corporation",Refrigerated Warehousing and Storage,493120,16585 Beaver Rd,Adelanto,San Bernardino,CA,92301,7605300605,www.temptrans.com,22RWDS270063
Temperature Controlled Storage Inc,Refrigerated Warehousing and Storage,493120,2434 Hamlet Ave N,Saint Paul,Washington,MN,55128,6128497368,,22RWDS270161
"Terminal Freezers RE Ca, LLC",Refrigerated Warehousing and Storage,493120,21700 Barton Rd,Colton,San Bernardino,CA,92324,8006787271,www.lineagelogistics.com,22RWDS270124
"Terminal Freezers Watsonville, LLC",Refrigerated Warehousing and Storage,493120,400 Cascade Way,Watsonville,Santa Cruz,CA,95076,8317618415,www.cityofwatsonville.org,22RWDS270267
"Tex-Mex Cold Storage, Inc.",Refrigerated Warehousing and Storage,493120,21 Poinsettia Pl,Brownsville,Cameron,TX,78520,9568314531,,22RWDS270112
Thayer Inc,Refrigerated Warehousing and Storage,493120,8858 Rochester Ave,Rancho Cucamonga,San Bernardino,CA,91730,5624026664,,22RWDS270465
The Fourteen Florence St Corp,Refrigerated Warehousing and Storage,493120,580 Luis Munoz Marin Blvd,Jersey City,Hudson,NJ,07310,2017925881,www.meccaworldwidelogistics.com,22RWDS270367
The Ice House,Refrigerated Warehousing and Storage,493120,1318 Mill Bay Rd,Kodiak,Kodiak Island,AK,99615,9074860098,,22RWDS270009
The ICEE Company,Refrigerated Warehousing and Storage,493120,Shiloh Rd & Freeman Dr,Piedmont,Greenville,SC,29673,,www.icee.com,22RWDS270495
The Store House,Refrigerated Warehousing and Storage,493120,3200 Statesville Rd,North Wilkesboro,Wilkes,NC,28659,3366670467,,22RWDS270231
The Terminal Cold Storage Company Inc,Refrigerated Warehousing and Storage,493120,20 Eaker St 60,Dayton,Montgomery,OH,45402,5132233138,www.daytonfrozen.com,22RWDS270092
Thomas Millioto,Refrigerated Warehousing and Storage,493120,751 President St APT 3,Brooklyn,Kings,NY,11215,,www.thomasmillioto.com,22RWDS270431
Thompson AC & Appliances Service,Refrigerated Warehousing and Storage,493120,1131 Road 1451,Tupelo,Lee,MS,38804,6622827080,,22RWDS269975
"Tic Holdings, Inc.",Refrigerated Warehousing and Storage,493120,2825 Roeder Ave,Bellingham,Whatcom,WA,98225,3607331640,www.news.bellcold.com,22RWDS270199
"Tom Thumb Food & Drugs, Inc.",Refrigerated Warehousing and Storage,493120,10700 Telge Rd,Houston,Harris,TX,77095,2816494000,www.tomthumb.com,22RWDS269950
Tps Process Equipment USA LLC,Refrigerated Warehousing and Storage,493120,6851 Whitfield Indus Ave,Sarasota,Manatee,FL,34243,9417399489,www.tpsprocess.com,22RWDS270403
"Trout-Blue Chelan-Magi, Inc.",Refrigerated Warehousing and Storage,493120,491 Industrial Way,Pateros,Okanogan,WA,98846,5099232222,www.chelanfruit.com,22RWDS270324
Turn Key Systems Incorporated,Refrigerated Warehousing and Storage,493120,1250 S Wilson Way Ste B9,Stockton,San Joaquin,CA,95205,5106524100,www.tkswalk-in.com,22RWDS269998
"Twin City Foods, Inc.",Refrigerated Warehousing and Storage,493120,1000 E 1st Ave,Kennewick,Benton,WA,99336,5095867568,www.twincityfoods.com,22RWDS269927
"Tyson Fresh Meats, Inc.",Refrigerated Warehousing and Storage,493120,3939 S Lewis Blvd,Sioux City,Woodbury,IA,51106,7122790070,www.tysonfreshmeats.com,22RWDS270263
Unfi -Sarasota FL Location,Refrigerated Warehousing and Storage,493120,6272 McIntosh Rd,Sarasota,Sarasota,FL,34238,8005206982,,22RWDS270387
"Union Central Cold Storage, Inc.",Refrigerated Warehousing and Storage,493120,2622 S Alameda St,Vernon,Los Angeles,CA,90058,,www.unioncentralcold.com,22RWDS270181
United Cold Storage Inc,Refrigerated Warehousing and Storage,493120,6902 E Pine St 4,Tulsa,Tulsa,OK,74115,9188345222,www.unitedcold.com,22RWDS270407
United States Cold Storage Inc.,Refrigerated Warehousing and Storage,493120,10711 Olive St,La Vista,Sarpy,NE,68128,4023398855,,22RWDS269952
"United States Cold Storage, Inc.",Refrigerated Warehousing and Storage,493120,1021 E Walnut Ave,Tulare,Tulare,CA,93274,5596873320,www.uscold.com,22RWDS269937
"United States Cold Storage, Inc.",Refrigerated Warehousing and Storage,493120,104 Witherington Dr,Covington,Tipton,TN,38019,9013132653,www.uscold.com,22RWDS269942
"United States Cold Storage, Inc.",Refrigerated Warehousing and Storage,493120,1050 Heller Rd,Quakertown,Bucks,PA,18951,2158921551,www.uscold.com,22RWDS269945
"United States Cold Storage, Inc.",Refrigerated Warehousing and Storage,493120,11801 NW 102nd Rd,Medley,Miami-Dade,FL,33178,3056915391,www.uscold.com,22RWDS269979
"United States Cold Storage, Inc.",Refrigerated Warehousing and Storage,493120,1400 N Macarthur Dr Ste A,Tracy,San Joaquin,CA,95376,2098352653,www.uscold.com,22RWDS270019
"United States Cold Storage, Inc.",Refrigerated Warehousing and Storage,493120,2 Aquarium Dr Ste 400,Camden,Camden,NJ,08103,8563548181,www.uscold.com,22RWDS270090
"United States Cold Storage, Inc.",Refrigerated Warehousing and Storage,493120,211 Ne McCloskey Ave,Lake City,Columbia,FL,32055,3867582215,www.uscold.com,22RWDS270114
"UNITED STATES COLD STORAGE, INC.",Refrigerated Warehousing and Storage,493120,221 South Rehoboth Boulevard,Milford,Sussex,DE,19963,3024227536,www.uscold.com,22RWDS270134
"United States Cold Storage, Inc.",Refrigerated Warehousing and Storage,493120,2225 N Cockrell Hill Rd,Dallas,Dallas,TX,75212,2146314863,www.uscold.com,22RWDS270135
"United States Cold Storage, Inc.",Refrigerated Warehousing and Storage,493120,2525 E North Ave,Fresno,Fresno,CA,93725,,www.uscold.com,22RWDS270174
"United States Cold Storage, Inc.",Refrigerated Warehousing and Storage,493120,2901 Eunice Ave,Orlando,Orange,FL,32808,,www.uscold.com,22RWDS270205
"United States Cold Storage, Inc.",Refrigerated Warehousing and Storage,493120,3100 52nd Ave,Sacramento,Sacramento,CA,95823,8563548181,www.uscold.com,22RWDS270223
"United States Cold Storage, Inc.",Refrigerated Warehousing and Storage,493120,3300 E Park Row Dr,Arlington,Tarrant,TX,76010,8176333070,www.uscold.com,22RWDS270237
"United States Cold Storage, Inc.",Refrigerated Warehousing and Storage,493120,3500 W Canal Dr,Turlock,Stanislaus,CA,95380,2096681636,www.uscold.com,22RWDS270247
"United States Cold Storage, Inc.",Refrigerated Warehousing and Storage,493120,4000 Miller Cir N,Bethlehem,Northampton,PA,18020,6109976100,www.uscold.com,22RWDS270274
"United States Cold Storage, Inc.",Refrigerated Warehousing and Storage,493120,419 Mlford Harrington Hwy,Milford,Sussex,DE,19963,3024227536,www.uscold.com,22RWDS270289
"United States Cold Storage, Inc.",Refrigerated Warehousing and Storage,493120,4302 S 30th St Ste 1,Omaha,Douglas,NE,68107,4027319900,www.uscold.com,22RWDS270293
"United States Cold Storage, Inc.",Refrigerated Warehousing and Storage,493120,601 Twin Rail Dr,Minooka,Grundy,IL,60447,8154670455,www.uscold.com,22RWDS270373
"United States Cold Storage, Inc.",Refrigerated Warehousing and Storage,493120,6501 District Blvd,Bakersfield,Kern,CA,93313,6618322653,www.uscold.com,22RWDS270393
"United States Cold Storage, Inc.",Refrigerated Warehousing and Storage,493120,Rocky Hill Dr & 2nd St # 2,Exeter,Tulare,CA,93221,2095924714,www.uscold.com,22RWDS270494
"United States Cold Storage, Llc.",Refrigerated Warehousing and Storage,493120,15 Emery St,Bethlehem,Northampton,PA,18015,6104337378,www.uscold.com,22RWDS270036
Universal Pasteurization Company,Refrigerated Warehousing and Storage,493120,100 H D Williams Indus Dr,Villa Rica,Carroll,GA,30180,6788401500,www.universalpure.com,22RWDS269922
"Unon, Inc",Refrigerated Warehousing and Storage,493120,90 Oxmoor Rd Ste 274,Birmingham,Jefferson,AL,35209,2052153098,,22RWDS270466
US Cold Storage,Refrigerated Warehousing and Storage,493120,4000 AM Dr,Quakertown,Bucks,PA,18951,2155363034,,22RWDS270272
"US Mezzanines, Inc",Refrigerated Warehousing and Storage,493120,245 E 63rd St APT 31e,New York,New York,NY,10065,7187020157,www.giamechanical.com,22RWDS270162
Usko Express Inc,Refrigerated Warehousing and Storage,493120,11290 Point East Dr # 200,Rancho Cordova,Sacramento,CA,95742,9165158065,www.uskoinc.com,22RWDS269973
"Valley Cold Storage & Transportation, LLC",Refrigerated Warehousing and Storage,493120,101 Watson Ln,Las Cruces,Dona Ana,NM,88005,5755250800,www.valleycoldstore.com,22RWDS269930
Valley Storage Company,Refrigerated Warehousing and Storage,493120,1911 S 900 W,Salt Lake City,Salt Lake,UT,84104,8019723443,,22RWDS270082
"Versacold Usa, Inc.",Refrigerated Warehousing and Storage,493120,1619 Antioch Church Rd,Piedmont,Greenville,SC,29673,8644222420,,22RWDS270055
Vision Warehousing and Distribution,Refrigerated Warehousing and Storage,493120,144 Cleveland Ave,Waynesboro,Franklin,PA,17268,7177625912,www.visionwarehousingusa.com,22RWDS270028
Voelker Fruit & Cold Storage Co Inc,Refrigerated Warehousing and Storage,493120,15 W Mead Ave,Yakima,Yakima,WA,98902,5092486464,www.voelkerfruit.com,22RWDS270037
"Vz Cold Storage and Marketing, Inc.",Refrigerated Warehousing and Storage,493120,1302 Glenwood St,Delano,Kern,CA,93215,6617217588,,22RWDS270006
Walowitz Furs,Refrigerated Warehousing and Storage,493120,6613 18th Ave,Brooklyn,Kings,NY,11204,,,22RWDS270398
"Washington Cold Storage, Inc.",Refrigerated Warehousing and Storage,493120,621 Railroad Ave N,Kent,King,WA,98032,2538593122,www.washingtoncoldstorage.com,22RWDS270385
Wendell Eckholm,Refrigerated Warehousing and Storage,493120,8835 Balboa Ave Ste C,San Diego,San Diego,CA,92123,8582794304,,22RWDS270464
West Coast Distributing,Refrigerated Warehousing and Storage,493120,10201 Keystone,Pharr,Hidalgo,TX,78577,9568847266,,22RWDS269936
West Range Storage Inc,Refrigerated Warehousing and Storage,493120,27830 Trout Lake Rd,Bovey,Itasca,MN,55709,2182452193,,22RWDS270195
"Western Distribution Services, LLC",Refrigerated Warehousing and Storage,493120,1010 S 146th St,Burien,King,WA,98168,4259706950,www.wdscold.com,22RWDS269932
Western Gateway Storage Co,Refrigerated Warehousing and Storage,493120,130 W 28th St,Ogden,Weber,UT,84401,8013947781,www.wgstorage.com,22RWDS270004
Western Refrigeratore Line Co Inc,Refrigerated Warehousing and Storage,493120,2289 Northwood Rd,Suamico,Brown,WI,54313,,,22RWDS270140
Westers Lockers,Refrigerated Warehousing and Storage,493120,536 1st Ave,Westbrook,Cottonwood,MN,56183,5072745900,,22RWDS270353
Wilbur Nielsen,Refrigerated Warehousing and Storage,493120,513 5th Ave NW,Independence,Buchanan,IA,50644,3193342228,,22RWDS270340
Williamson Cold Storage Inc,Refrigerated Warehousing and Storage,493120,4009 State Route 104,Williamson,Wayne,NY,14589,3155895351,,22RWDS270277
"Wilmington Cold Storage, Inc.",Refrigerated Warehousing and Storage,493120,1033 Turnpike St,Stoughton,Norfolk,MA,02072,7813410690,www.keepitcoldstorage.com,22RWDS269941
"Wilmington Cold Storage, Inc.",Refrigerated Warehousing and Storage,493120,629 Hammond St Unit E307,Chestnut Hill,Middlesex,MA,02467,7819358670,www.keepitcoldstorage.com,22RWDS270388
Winchester Cold Storage Company,Refrigerated Warehousing and Storage,493120,167 Kelly Dr,Front Royal,Warren,VA,22630,5406310285,www.wcslogistics.com,22RWDS270068
Winchester Cold Storage Company,Refrigerated Warehousing and Storage,493120,605 N Loudoun St,Winchester,Winchester city,VA,22601,5406624151,www.wcslogistics.com,22RWDS270379
Wing Tat Inc,Refrigerated Warehousing and Storage,493120,54 Ainslie St,Brooklyn,Kings,NY,11211,,,22RWDS270354
Wolfsen's Westside Locker,Refrigerated Warehousing and Storage,493120,490 West Ave,Gustine,Merced,CA,95322,2098546274,www.wolfsensausage.com,22RWDS270322
Woodhull Locker LLC,Refrigerated Warehousing and Storage,493120,330 N Division St,Woodhull,Henry,IL,61490,3093342235,www.woodhulllockers.com,22RWDS270236
York Cold Storage Company,Refrigerated Warehousing and Storage,493120,402 Commerce St,York,York,NE,68467,4023625563,www.vanhessen.com,22RWDS270278
"Zafar B&B Produce, Inc.",Refrigerated Warehousing and Storage,493120,5700 E 56th Ave Unit D,Commerce City,Adams,CO,80022,8453134216,,22RWDS270364
Zagman Express,Refrigerated Warehousing and Storage,493120,2153 68th Ave E,Spanaway,Pierce,WA,98387,2532094674,,22RWDS270123
Zel Express LLC,Refrigerated Warehousing and Storage,493120,1587 Robin Hood Pl,Highland Park,Lake,IL,60035,7732598429,,22RWDS270045
Zero Mountain Incorporated,Refrigerated Warehousing and Storage,493120,56 Peninsula Dr,Mount Ida,Montgomery,AR,71957,8708673157,,22RWDS270360
"Zero Mountain, Inc.",Refrigerated Warehousing and Storage,493120,8425 Highway 45,Fort Smith,Sebastian,AR,72916,4794345478,www.zeromtn.com,22RWDS270455
Zollinger Cold Storage Corp,Refrigerated Warehousing and Storage,493120,699 W 1700 S,Logan,Cache,UT,84321,4357531134,www.zollingerllc.com,22RWDS270408
Zoroco Packaging Inc.,Refrigerated Warehousing and Storage,493120,20148 Monte Way,Caldwell,Canyon,ID,83607,2084751864,www.zorocopackaging.com,22RWDS270102
